;event_id;event_time;ISC_ev_id;USGS_ev_id;INGV_ev_id;EMSC_ev_id;ev_nation_code;ev_latitude;ev_longitude;ev_depth_km;ev_hyp_ref;fm_type_code;ML;ML_ref;Mw;Mw_ref;Ms;Ms_ref;EMEC_Mw;EMEC_Mw_type;EMEC_Mw_ref;event_source_id;es_strike;es_dip;es_rake;es_strike_dip_rake_ref;es_z_top;es_z_top_ref;es_length;es_width;es_geometry_ref;network_code;station_code;location_code;instrument_code;sensor_depth_m;proximity_code;housing_code;installation_code;st_nation_code;st_latitude;st_longitude;st_elevation;ec8_code;ec8_code_method;ec8_code_ref;vs30_m_sec;vs30_ref;vs30_calc_method;vs30_meas_type;slope_deg;vs30_m_sec_WA;epi_dist;hypo_dist;epi_az;JB_dist;rup_dist;Rx_dist;Ry0_dist;instrument_type_code;late_triggered_flag_01;U_channel_code;U_azimuth_deg;V_channel_code;V_azimuth_deg;W_channel_code;U_hp;V_hp;W_hp;U_lp;V_lp;W_lp;max_usable_T;mag;hypo_depth;rake;rhypo;rrup;rjb;xvf;vs30;vs30measured;z1pt0;region;U_pga;V_pga;W_pga;rotD50_pga;rotD100_pga;rotD00_pga;U_pgv;V_pgv;W_pgv;rotD50_pgv;rotD100_pgv;rotD00_pgv;U_pgd;V_pgd;W_pgd;rotD50_pgd;rotD100_pgd;rotD00_pgd;U_T90;V_T90;W_T90;GM_T90;rotD50_T90;rotD100_T90;rotD00_T90;U_housner;V_housner;W_housner;rotD50_housner;rotD100_housner;rotD00_housner;U_CAV;V_CAV;W_CAV;rotD50_CAV;rotD100_CAV;rotD00_CAV;U_ia;V_ia;W_ia;rotD50_ia;rotD100_ia;rotD00_ia;U_T0_010;U_T0_025;U_T0_040;U_T0_050;U_T0_070;U_T0_100;U_T0_150;U_T0_200;U_T0_250;U_T0_300;U_T0_350;U_T0_400;U_T0_450;U_T0_500;U_T0_600;U_T0_700;U_T0_750;U_T0_800;U_T0_900;U_T1_000;U_T1_200;U_T1_400;U_T1_600;U_T1_800;U_T2_000;U_T2_500;U_T3_000;U_T3_500;U_T4_000;U_T4_500;U_T5_000;U_T6_000;U_T7_000;U_T8_000;U_T9_000;U_T10_000;V_T0_010;V_T0_025;V_T0_040;V_T0_050;V_T0_070;V_T0_100;V_T0_150;V_T0_200;V_T0_250;V_T0_300;V_T0_350;V_T0_400;V_T0_450;V_T0_500;V_T0_600;V_T0_700;V_T0_750;V_T0_800;V_T0_900;V_T1_000;V_T1_200;V_T1_400;V_T1_600;V_T1_800;V_T2_000;V_T2_500;V_T3_000;V_T3_500;V_T4_000;V_T4_500;V_T5_000;V_T6_000;V_T7_000;V_T8_000;V_T9_000;V_T10_000;W_T0_010;W_T0_025;W_T0_040;W_T0_050;W_T0_070;W_T0_100;W_T0_150;W_T0_200;W_T0_250;W_T0_300;W_T0_350;W_T0_400;W_T0_450;W_T0_500;W_T0_600;W_T0_700;W_T0_750;W_T0_800;W_T0_900;W_T1_000;W_T1_200;W_T1_400;W_T1_600;W_T1_800;W_T2_000;W_T2_500;W_T3_000;W_T3_500;W_T4_000;W_T4_500;W_T5_000;W_T6_000;W_T7_000;W_T8_000;W_T9_000;W_T10_000;rotD50_T0_010;rotD50_T0_025;rotD50_T0_040;rotD50_T0_050;rotD50_T0_070;rotD50_T0_100;rotD50_T0_150;rotD50_T0_200;rotD50_T0_250;rotD50_T0_300;rotD50_T0_350;rotD50_T0_400;rotD50_T0_450;rotD50_T0_500;rotD50_T0_600;rotD50_T0_700;rotD50_T0_750;rotD50_T0_800;rotD50_T0_900;rotD50_T1_000;rotD50_T1_200;rotD50_T1_400;rotD50_T1_600;rotD50_T1_800;rotD50_T2_000;rotD50_T2_500;rotD50_T3_000;rotD50_T3_500;rotD50_T4_000;rotD50_T4_500;rotD50_T5_000;rotD50_T6_000;rotD50_T7_000;rotD50_T8_000;rotD50_T9_000;rotD50_T10_000;rotD100_T0_010;rotD100_T0_025;rotD100_T0_040;rotD100_T0_050;rotD100_T0_070;rotD100_T0_100;rotD100_T0_150;rotD100_T0_200;rotD100_T0_250;rotD100_T0_300;rotD100_T0_350;rotD100_T0_400;rotD100_T0_450;rotD100_T0_500;rotD100_T0_600;rotD100_T0_700;rotD100_T0_750;rotD100_T0_800;rotD100_T0_900;rotD100_T1_000;rotD100_T1_200;rotD100_T1_400;rotD100_T1_600;rotD100_T1_800;rotD100_T2_000;rotD100_T2_500;rotD100_T3_000;rotD100_T3_500;rotD100_T4_000;rotD100_T4_500;rotD100_T5_000;rotD100_T6_000;rotD100_T7_000;rotD100_T8_000;rotD100_T9_000;rotD100_T10_000;rotD00_T0_010;rotD00_T0_025;rotD00_T0_040;rotD00_T0_050;rotD00_T0_070;rotD00_T0_100;rotD00_T0_150;rotD00_T0_200;rotD00_T0_250;rotD00_T0_300;rotD00_T0_350;rotD00_T0_400;rotD00_T0_450;rotD00_T0_500;rotD00_T0_600;rotD00_T0_700;rotD00_T0_750;rotD00_T0_800;rotD00_T0_900;rotD00_T1_000;rotD00_T1_200;rotD00_T1_400;rotD00_T1_600;rotD00_T1_800;rotD00_T2_000;rotD00_T2_500;rotD00_T3_000;rotD00_T3_500;rotD00_T4_000;rotD00_T4_500;rotD00_T5_000;rotD00_T6_000;rotD00_T7_000;rotD00_T8_000;rotD00_T9_000;rotD00_T10_000;rotD50_AvgSA[0,3];rotD50_AvgSA[0,6]
26;EMSC-20110208_0000002;2011-02-08 01:46:34;16009389;usp000hu7d;;20110208_0000002;GR;34.9102;23.2499;40.1412;ISC-webservice;TF;4.0;ISC-webservice;4.3;ISC-webservice;3.52;ISC-webservice;4.67;MWML92;DGA16;;;;;;;;;;;HL;ANKY;00;HN;0.0;;;;GR;35.86704;23.30117;143;;;;;;;;6.937541;695.873582;106.3;113.62660752411821;182.5;;;;;D;0;E;90.0;N;0.0;Z;0.1;0.1;0.1;30.0;30.0;30.0;8.0;4.67;40.1412;90;113.62660752411821;113.62660752411821;106.3;125.68;695.873582;False;31.07;3;-0.105817;0.126515;0.04971;0.1100325;0.137128;0.077423;-0.008542;0.012175;0.004875;0.0105189;0.0121807;0.00848417;0.00239;-0.001619;0.000949;0.00190662;0.00253826;0.00148038;44.66;40.375;39.91;42.463;41.9625;46.2;37.73;0.0454916;0.0345273;0.0212546;0.0387279;0.0460393;0.0332996;0.886779409985;0.912419760488;0.605146280093;0.89927302257;0.949006469831;0.865440205043;2.87033698616e-05;3.33164832686e-05;1.28137902352e-05;3.10099094733e-05;3.36393379986e-05;2.83805144444e-05;0.105908;0.105741;0.106359;0.107722;0.117612;0.114364;0.146136;0.161826;0.187955;0.28733;0.290269;0.228837;0.349714;0.392681;0.25609;0.270459;0.26047;0.200076;0.163699;0.199106;0.108748;0.053742;0.059463;0.050296;0.0547;0.043242;0.022462;0.011178;0.00717;0.005607;0.004437;0.003653;0.002463;0.001994;0.001498;0.001204;0.126581;0.126983;0.127652;0.127369;0.132761;0.141971;0.175276;0.174458;0.253192;0.210079;0.245975;0.292416;0.324713;0.514594;0.424807;0.282448;0.224994;0.199885;0.120186;0.102138;0.087598;0.044177;0.0392;0.030048;0.02789;0.02109;0.014698;0.011024;0.007633;0.006072;0.00419;0.003436;0.003419;0.001953;0.001523;0.001117;0.049925;0.050872;0.051589;0.056685;0.067649;0.104279;0.103573;0.143249;0.116293;0.173423;0.155214;0.133879;0.22313;0.242495;0.184993;0.121397;0.115878;0.091513;0.049751;0.058063;0.05312;0.047067;0.035345;0.028648;0.020525;0.011328;0.007738;0.005622;0.003536;0.002532;0.001964;0.001518;0.001349;0.000791;0.000694;0.000469;0.110099;0.110389;0.110595;0.1127835;0.1207195;0.117709;0.1461495;0.166781;0.21265;0.2534265;0.2662125;0.2822705;0.323113;0.423266;0.3244025;0.2764535;0.2355875;0.1999805;0.146036;0.147283;0.0909755;0.045675;0.0437945;0.036997;0.0403825;0.0342365;0.018441;0.011095;0.0075385;0.00599;0.004388;0.0035185;0.002843;0.001978;0.0015635;0.001166;0.137244;0.137682;0.137613;0.139464;0.142599;0.152163;0.182725;0.193402;0.258269;0.29115;0.299437;0.310216;0.350533;0.521092;0.452625;0.359213;0.284535;0.225984;0.163805;0.199671;0.110464;0.062984;0.060647;0.050296;0.054986;0.043739;0.022499;0.011826;0.008058;0.006534;0.005308;0.004472;0.003912;0.002314;0.001705;0.001327;0.077536;0.078284;0.078354;0.080711;0.079268;0.085388;0.102051;0.132543;0.182008;0.20518;0.238812;0.214749;0.277566;0.269679;0.244141;0.181949;0.168819;0.154289;0.104629;0.093828;0.077568;0.036748;0.036586;0.028468;0.024743;0.020712;0.013744;0.009248;0.006436;0.005326;0.003627;0.002403;0.001767;0.001513;0.001246;0.000985;0.06828076613264136;0.02091029422817198
27;EMSC-20110208_0000002;2011-02-08 01:46:34;16009389;usp000hu7d;;20110208_0000002;GR;34.9102;23.2499;40.1412;ISC-webservice;TF;4.0;ISC-webservice;4.3;ISC-webservice;3.52;ISC-webservice;4.67;MWML92;DGA16;;;;;;;;;;;HL;MNVA;00;HN;0.0;;;;GR;36.68709;23.03734;12;;;;;;;;2.2317;445.191501;198.1;202.12601499421098;174.4;;;;;D;0;E;125.0;N;35.0;Z;0.25;0.25;0.25;30.0;30.0;30.0;3.2;4.67;40.1412;90;202.12601499421098;202.12601499421098;198.1;75.15;445.191501;False;31.07;3;-0.017538;-0.010799;0.013471;0.013757;0.01763;0.010799;0.002293;-0.001325;0.002501;0.001770565;0.00238308;0.00125936;-0.000454;0.000409;0.000619;0.000451428;0.000549683;0.00027547;75.38;109.865;121.31;91.003;86.4475;110.085;75.38;0.0089938;0.00728402;0.00983901;0.008119185;0.00923811;0.00692201;0.259454740047;0.205793694992;0.270703549943;0.235178334959;0.259872385007;0.205372960087;1.3786753651e-06;7.29939481195e-07;1.17959912027e-06;1.05430847687e-06;1.39025286539e-06;7.18361392954e-07;0.017586;0.01766;0.018575;0.017601;0.022145;0.022712;0.018732;0.019953;0.025794;0.041529;0.04684;0.041075;0.058024;0.047426;0.02717;0.036786;0.03875;0.032635;0.034442;0.028467;0.023096;0.015612;0.017545;0.012509;0.014224;0.009595;0.005659;0.003119;0.001941;0.001548;0.001209;0.000651;0.00047;0.000383;0.000298;0.000256;0.010859;0.011307;0.012955;0.012397;0.016778;0.018061;0.01572;0.016624;0.025353;0.02348;0.031648;0.034386;0.028368;0.03331;0.035843;0.024457;0.019726;0.02283;0.021987;0.018706;0.014496;0.016841;0.01795;0.011851;0.010708;0.008884;0.005771;0.00353;0.002433;0.00196;0.001341;0.000755;0.00047;0.000332;0.000254;0.000248;0.013496;0.013605;0.015766;0.015397;0.028669;0.018445;0.018086;0.022987;0.030407;0.025132;0.029511;0.032264;0.034691;0.041002;0.035118;0.02592;0.023828;0.023043;0.026617;0.025596;0.019068;0.012204;0.014455;0.020491;0.025875;0.014434;0.010833;0.005709;0.002966;0.002209;0.001495;0.000809;0.000603;0.000444;0.000331;0.000276;0.0137925;0.014096;0.0148945;0.0150465;0.017783;0.019285;0.016572;0.01816;0.0257305;0.0334555;0.040133;0.0354895;0.045343;0.0453965;0.0296395;0.0317415;0.029485;0.027579;0.028484;0.024001;0.020951;0.0162925;0.0177475;0.012482;0.0117265;0.009304;0.005715;0.00328;0.0021735;0.001637;0.00127;0.0006995;0.000466;0.000363;0.00028;0.000248;0.017692;0.01766;0.018871;0.017601;0.022145;0.023844;0.018847;0.020043;0.028638;0.043011;0.04684;0.05019;0.059822;0.049421;0.041913;0.039535;0.039793;0.032787;0.034929;0.028467;0.023096;0.022197;0.022705;0.013744;0.014341;0.011278;0.007592;0.004596;0.002816;0.002163;0.001344;0.000894;0.00054;0.000425;0.000323;0.000262;0.010859;0.011307;0.01273;0.012397;0.015614;0.01732;0.014538;0.016323;0.023127;0.02348;0.029379;0.027866;0.027741;0.03061;0.025864;0.020223;0.019542;0.022392;0.017477;0.017368;0.012669;0.013476;0.01108;0.009615;0.009615;0.005425;0.002855;0.001965;0.001602;0.001411;0.000904;0.000478;0.000331;0.0002;0.000156;0.000167;0.01497933481913642;0.004810627488276262
28;EMSC-20110208_0000002;2011-02-08 01:46:34;16009389;usp000hu7d;;20110208_0000002;GR;34.9102;23.2499;40.1412;ISC-webservice;TF;4.0;ISC-webservice;4.3;ISC-webservice;3.52;ISC-webservice;4.67;MWML92;DGA16;;;;;;;;;;;HL;SIVA;00;HN;0.0;;;;GR;35.01746;24.80996;110;;;;;;;;0.236315;268.163516;143.0;148.52715555560874;265.7;;;;;D;0;E;90.0;N;0.0;Z;0.1;0.1;0.1;30.0;30.0;30.0;8.0;4.67;40.1412;90;148.52715555560874;148.52715555560874;143.0;150.0;268.163516;False;31.07;3;0.142899;0.128752;-0.073087;0.14014;0.160795;0.122661;0.015282;0.015029;0.0057;0.0150339;0.0159358;0.0126021;-0.002201;-0.002556;0.000939;0.00225327;0.00268169;0.00201632;44.735;41.505;45.395;43.09;43.335;45.135;41.03;0.067018;0.0679976;0.0232034;0.06750785;0.0739708;0.0606377;1.97385173433;1.71920064005;1.00229130522;1.85299310464;1.97568504995;1.70827809969;0.000130182278788;0.000102434161376;3.2518157051e-05;0.000116308246865;0.000132485026392;0.000100131402045;0.142933;0.144542;0.14592;0.145609;0.148294;0.164638;0.203957;0.385389;0.540395;0.343079;0.362954;0.402738;0.569615;0.473679;0.561715;0.372777;0.436823;0.528604;0.319901;0.3433;0.219665;0.100978;0.068152;0.065162;0.046316;0.02325;0.014699;0.015576;0.008018;0.006771;0.004631;0.003359;0.002536;0.002003;0.001842;0.001605;0.128856;0.129625;0.129896;0.1328;0.132792;0.140244;0.161491;0.290606;0.293406;0.348711;0.316751;0.331205;0.423992;0.373235;0.54831;0.59915;0.405082;0.397443;0.28937;0.245575;0.150029;0.108095;0.10655;0.097765;0.083289;0.029597;0.016707;0.01007;0.008645;0.006789;0.00559;0.004265;0.003273;0.002325;0.001944;0.001619;0.073124;0.074294;0.081681;0.07939;0.076817;0.090793;0.111961;0.186026;0.232454;0.256539;0.293016;0.358741;0.34888;0.258654;0.262527;0.193931;0.148256;0.108205;0.056718;0.057462;0.05525;0.02273;0.025276;0.015951;0.013497;0.014346;0.008941;0.006019;0.003422;0.003272;0.002067;0.001798;0.001271;0.000908;0.000887;0.000678;0.1402115;0.1419375;0.143416;0.142964;0.1460425;0.1540785;0.209013;0.3113285;0.4154295;0.3571245;0.3103485;0.365306;0.4884575;0.4992015;0.55467;0.507972;0.426475;0.4411635;0.308955;0.321013;0.1890525;0.1052055;0.0806755;0.0821125;0.062811;0.027148;0.0161375;0.0120865;0.008919;0.0074455;0.005126;0.0037285;0.0029245;0.002288;0.001882;0.001549;0.160814;0.161385;0.165044;0.165989;0.167849;0.185375;0.23108;0.396971;0.552022;0.388182;0.36861;0.416952;0.593319;0.534545;0.600524;0.612062;0.482375;0.543811;0.353416;0.349852;0.233526;0.116343;0.108774;0.109868;0.0888;0.030057;0.017103;0.015841;0.009892;0.008048;0.005625;0.004491;0.003342;0.002509;0.00212;0.001774;0.122682;0.123382;0.123698;0.123425;0.123731;0.131344;0.161491;0.261225;0.293049;0.318377;0.253422;0.30716;0.338453;0.373235;0.453956;0.354242;0.345575;0.343491;0.249706;0.172413;0.13332;0.086902;0.068152;0.054899;0.038328;0.02325;0.014699;0.009442;0.007758;0.005996;0.004252;0.003212;0.002409;0.001951;0.001643;0.001223;0.09610759672158815;0.02665460076440451
29;EMSC-20110228_0000017;2011-02-28 07:49:06;16160709;usp000hv5x;;20110228_0000017;GR;34.8667;25.4535;54.72;ISC-webservice;TF;4.61;ISC-webservice;5.47;ISC-webservice;4.73;ISC-webservice;5.5;Mw;GEOFON;;;;;;;;;;;GE;KARP;00;HN;0.0;;;;GR;35.5472;27.1612;528;;;;;;;;14.280055;925.130666;172.9;181.35238735677015;244.6;;;;;D;0;E;90.0;N;0.0;Z;0.04;0.04;0.04;30.0;30.0;30.0;20.0;5.5;54.72;90;181.35238735677015;181.35238735677015;172.9;116.59;925.130666;False;31.07;3;-0.457296;-0.868268;-0.717654;0.7395055;0.87434;0.448812;0.049206;-0.074432;0.074065;0.06435345;0.0744316;0.049205;0.016139;-0.019933;-0.016903;0.0181124;0.0252834;0.0122857;48.13;45.68;49.475;46.889;47.1675;50.07;44.845;0.235898;0.373582;0.402881;0.304406;0.373582;0.235898;6.19267860437;8.38533104148;8.95757517081;7.47052805332;8.4113724975;6.19267860437;0.00124626691499;0.00254644142785;0.00259270401401;0.00189635427005;0.00255129667683;0.00124141186865;0.458225;0.459285;0.842461;0.948425;0.891038;0.874559;0.908247;0.987495;0.810392;1.08808;1.27315;1.10348;1.33561;1.4317;1.16171;1.13298;1.08461;1.24836;1.13086;0.951624;0.507364;0.522028;0.434149;0.320978;0.28206;0.192121;0.14443;0.094571;0.064988;0.05219;0.038031;0.037293;0.029513;0.018546;0.01546;0.015846;0.868646;0.887705;0.978128;1.01831;1.04664;1.12032;1.14943;1.49278;1.3835;1.28709;1.9273;2.17564;2.00329;1.52401;2.86597;2.92649;2.75622;2.49653;1.78075;1.63882;0.884927;0.909836;0.547022;0.47826;0.315204;0.265064;0.164111;0.120544;0.074034;0.072462;0.067187;0.030373;0.02508;0.019232;0.013714;0.011315;0.72194;0.748439;1.03241;1.0409;1.45806;1.28893;1.26367;1.45274;1.3493;1.19928;1.21159;1.54161;1.42907;2.59803;1.96345;1.84415;2.19978;2.20477;1.76557;1.48542;1.4804;1.01992;0.727883;0.562792;0.366354;0.257914;0.154238;0.089606;0.070683;0.047776;0.039598;0.035583;0.018852;0.016301;0.012667;0.009927;0.74147;0.7540425;0.8599285;0.964213;1.0034;1.01462;0.9085895;1.065105;1.061065;1.2916;1.40397;1.62216;1.533175;1.416975;2.108545;2.15113;2.13192;1.81022;1.42153;1.184165;0.7440185;0.6768325;0.4811735;0.3963525;0.2831555;0.228074;0.1553045;0.1093705;0.069669;0.0594525;0.0580545;0.0336735;0.028023;0.0188895;0.0148135;0.014157;0.874505;0.893792;0.992958;1.06553;1.06712;1.1474;1.16938;1.49553;1.38776;1.39625;1.9402;2.17928;2.00329;1.54294;2.88606;2.93466;2.76006;2.50901;1.81689;1.66179;0.891396;0.909835;0.553178;0.480914;0.31871;0.265827;0.191137;0.141708;0.074734;0.076969;0.07435;0.039642;0.035836;0.022317;0.018086;0.017223;0.44973;0.455518;0.790038;0.86322;0.891038;0.739234;0.827557;0.863093;0.810392;1.08419;1.1596;0.949133;1.05248;1.21365;1.11859;1.0447;1.07728;1.20612;1.04084;0.882705;0.507364;0.475232;0.370965;0.296421;0.24101;0.147298;0.073482;0.06415;0.050401;0.051665;0.037325;0.020859;0.014854;0.012582;0.012805;0.009809;0.5293626507051704;0.18683850360232826
30;EMSC-20110228_0000017;2011-02-28 07:49:06;16160709;usp000hv5x;;20110228_0000017;GR;34.8667;25.4535;54.72;ISC-webservice;TF;4.61;ISC-webservice;5.47;ISC-webservice;4.73;ISC-webservice;5.5;Mw;GEOFON;;;;;;;;;;;HL;ANKY;00;HN;0.0;;;;GR;35.86704;23.30117;143;;;;;;;;6.937541;695.873582;224.9;231.4612027964946;118.9;;;;;D;0;E;90.0;N;0.0;Z;0.07;0.07;0.07;30.0;30.0;30.0;11.428571428571429;5.5;54.72;90;231.4612027964946;231.4612027964946;224.9;125.68;695.873582;False;31.07;3;-0.101209;-0.091371;0.088102;0.0907565;0.101776;0.075986;-0.012356;0.011795;-0.006412;0.01206535;0.0129207;0.00975813;0.004488;0.004112;0.002848;0.00465815;0.00538773;0.00387338;87.45;83.215;74.175;85.306;85.54;87.91;82.72;0.0626064;0.0471039;0.0295093;0.05448385;0.0628349;0.046881;1.90284689549;1.81815562496;1.46411266037;1.85916442259;1.99199593526;1.7527827451;6.92557681442e-05;6.48344184853e-05;4.44948851271e-05;6.70450833688e-05;7.39499295118e-05;6.01403000342e-05;0.101365;0.102755;0.106605;0.122778;0.136148;0.122703;0.153092;0.194534;0.222453;0.226091;0.278173;0.203654;0.232703;0.208782;0.320784;0.344446;0.287173;0.227902;0.20075;0.173256;0.166055;0.154217;0.132511;0.120834;0.092133;0.040536;0.032331;0.021023;0.02108;0.017246;0.016258;0.012104;0.007462;0.004609;0.005239;0.00431;0.091424;0.09187;0.10827;0.110044;0.12249;0.146909;0.179729;0.220473;0.24663;0.244052;0.235776;0.244052;0.221159;0.218624;0.206173;0.231192;0.210063;0.234667;0.170474;0.219788;0.114207;0.078015;0.06751;0.060973;0.075961;0.041284;0.032956;0.025021;0.017907;0.022502;0.012691;0.009336;0.009693;0.006311;0.006662;0.005619;0.088367;0.090564;0.105031;0.119547;0.137592;0.148364;0.176266;0.208831;0.186437;0.232367;0.206711;0.252822;0.27321;0.209916;0.207772;0.185042;0.148292;0.142892;0.111812;0.075054;0.05789;0.033239;0.04026;0.033378;0.035372;0.027775;0.022698;0.021171;0.013038;0.014176;0.013007;0.010695;0.005375;0.003694;0.002507;0.002587;0.0907955;0.0921015;0.106393;0.116981;0.1198285;0.138584;0.160189;0.1975955;0.243391;0.2338995;0.24697;0.235234;0.231322;0.215163;0.2813775;0.2727235;0.266109;0.231637;0.194457;0.203243;0.143455;0.112107;0.0986955;0.086479;0.0785105;0.0408405;0.0326435;0.023473;0.019634;0.0193785;0.01516;0.0106375;0.0080875;0.006417;0.0060845;0.004972;0.101908;0.103469;0.112998;0.129881;0.141758;0.148813;0.179729;0.220674;0.303772;0.255749;0.291827;0.260902;0.28063;0.225459;0.324956;0.34448;0.288222;0.280031;0.206752;0.219788;0.169559;0.158272;0.133417;0.120834;0.094593;0.044449;0.045827;0.030476;0.021226;0.024285;0.017865;0.012178;0.009897;0.006933;0.006707;0.005785;0.076069;0.076568;0.086979;0.107289;0.098909;0.121546;0.135517;0.178842;0.198629;0.192975;0.217502;0.194654;0.183414;0.192932;0.183531;0.181993;0.196275;0.200539;0.170474;0.173256;0.11183;0.074042;0.062711;0.060923;0.061429;0.035086;0.025;0.019367;0.016875;0.016416;0.01209;0.008669;0.006362;0.004441;0.004951;0.003529;0.09648368712103289;0.04053059603322127
