;event_id;event_time;ISC_ev_id;USGS_ev_id;INGV_ev_id;EMSC_ev_id;ev_nation_code;ev_latitude;ev_longitude;ev_depth_km;ev_hyp_ref;fm_type_code;ML;ML_ref;Mw;Mw_ref;Ms;Ms_ref;EMEC_Mw;EMEC_Mw_type;EMEC_Mw_ref;event_source_id;es_strike;es_dip;es_rake;es_strike_dip_rake_ref;es_z_top;es_z_top_ref;es_length;es_width;es_geometry_ref;network_code;station_code;location_code;instrument_code;sensor_depth_m;proximity_code;housing_code;installation_code;st_nation_code;st_latitude;st_longitude;st_elevation;ec8_code;ec8_code_method;ec8_code_ref;vs30_m_sec;vs30_ref;vs30_calc_method;vs30_meas_type;slope_deg;vs30_m_sec_WA;epi_dist;hypo_dist;epi_az;JB_dist;rup_dist;Rx_dist;Ry0_dist;instrument_type_code;late_triggered_flag_01;U_channel_code;U_azimuth_deg;V_channel_code;V_azimuth_deg;W_channel_code;U_hp;V_hp;W_hp;U_lp;V_lp;W_lp;max_usable_T;mag;hypo_depth;rake;rhypo;rrup;rjb;xvf;vs30;vs30measured;z1pt0;region;U_pga;V_pga;W_pga;rotD50_pga;rotD100_pga;rotD00_pga;U_pgv;V_pgv;W_pgv;rotD50_pgv;rotD100_pgv;rotD00_pgv;U_pgd;V_pgd;W_pgd;rotD50_pgd;rotD100_pgd;rotD00_pgd;U_T90;V_T90;W_T90;GM_T90;rotD50_T90;rotD100_T90;rotD00_T90;U_housner;V_housner;W_housner;rotD50_housner;rotD100_housner;rotD00_housner;U_CAV;V_CAV;W_CAV;rotD50_CAV;rotD100_CAV;rotD00_CAV;U_ia;V_ia;W_ia;rotD50_ia;rotD100_ia;rotD00_ia;U_T0_010;U_T0_025;U_T0_040;U_T0_050;U_T0_070;U_T0_100;U_T0_150;U_T0_200;U_T0_250;U_T0_300;U_T0_350;U_T0_400;U_T0_450;U_T0_500;U_T0_600;U_T0_700;U_T0_750;U_T0_800;U_T0_900;U_T1_000;U_T1_200;U_T1_400;U_T1_600;U_T1_800;U_T2_000;U_T2_500;U_T3_000;U_T3_500;U_T4_000;U_T4_500;U_T5_000;U_T6_000;U_T7_000;U_T8_000;U_T9_000;U_T10_000;V_T0_010;V_T0_025;V_T0_040;V_T0_050;V_T0_070;V_T0_100;V_T0_150;V_T0_200;V_T0_250;V_T0_300;V_T0_350;V_T0_400;V_T0_450;V_T0_500;V_T0_600;V_T0_700;V_T0_750;V_T0_800;V_T0_900;V_T1_000;V_T1_200;V_T1_400;V_T1_600;V_T1_800;V_T2_000;V_T2_500;V_T3_000;V_T3_500;V_T4_000;V_T4_500;V_T5_000;V_T6_000;V_T7_000;V_T8_000;V_T9_000;V_T10_000;W_T0_010;W_T0_025;W_T0_040;W_T0_050;W_T0_070;W_T0_100;W_T0_150;W_T0_200;W_T0_250;W_T0_300;W_T0_350;W_T0_400;W_T0_450;W_T0_500;W_T0_600;W_T0_700;W_T0_750;W_T0_800;W_T0_900;W_T1_000;W_T1_200;W_T1_400;W_T1_600;W_T1_800;W_T2_000;W_T2_500;W_T3_000;W_T3_500;W_T4_000;W_T4_500;W_T5_000;W_T6_000;W_T7_000;W_T8_000;W_T9_000;W_T10_000;rotD50_T0_010;rotD50_T0_025;rotD50_T0_040;rotD50_T0_050;rotD50_T0_070;rotD50_T0_100;rotD50_T0_150;rotD50_T0_200;rotD50_T0_250;rotD50_T0_300;rotD50_T0_350;rotD50_T0_400;rotD50_T0_450;rotD50_T0_500;rotD50_T0_600;rotD50_T0_700;rotD50_T0_750;rotD50_T0_800;rotD50_T0_900;rotD50_T1_000;rotD50_T1_200;rotD50_T1_400;rotD50_T1_600;rotD50_T1_800;rotD50_T2_000;rotD50_T2_500;rotD50_T3_000;rotD50_T3_500;rotD50_T4_000;rotD50_T4_500;rotD50_T5_000;rotD50_T6_000;rotD50_T7_000;rotD50_T8_000;rotD50_T9_000;rotD50_T10_000;rotD100_T0_010;rotD100_T0_025;rotD100_T0_040;rotD100_T0_050;rotD100_T0_070;rotD100_T0_100;rotD100_T0_150;rotD100_T0_200;rotD100_T0_250;rotD100_T0_300;rotD100_T0_350;rotD100_T0_400;rotD100_T0_450;rotD100_T0_500;rotD100_T0_600;rotD100_T0_700;rotD100_T0_750;rotD100_T0_800;rotD100_T0_900;rotD100_T1_000;rotD100_T1_200;rotD100_T1_400;rotD100_T1_600;rotD100_T1_800;rotD100_T2_000;rotD100_T2_500;rotD100_T3_000;rotD100_T3_500;rotD100_T4_000;rotD100_T4_500;rotD100_T5_000;rotD100_T6_000;rotD100_T7_000;rotD100_T8_000;rotD100_T9_000;rotD100_T10_000;rotD00_T0_010;rotD00_T0_025;rotD00_T0_040;rotD00_T0_050;rotD00_T0_070;rotD00_T0_100;rotD00_T0_150;rotD00_T0_200;rotD00_T0_250;rotD00_T0_300;rotD00_T0_350;rotD00_T0_400;rotD00_T0_450;rotD00_T0_500;rotD00_T0_600;rotD00_T0_700;rotD00_T0_750;rotD00_T0_800;rotD00_T0_900;rotD00_T1_000;rotD00_T1_200;rotD00_T1_400;rotD00_T1_600;rotD00_T1_800;rotD00_T2_000;rotD00_T2_500;rotD00_T3_000;rotD00_T3_500;rotD00_T4_000;rotD00_T4_500;rotD00_T5_000;rotD00_T6_000;rotD00_T7_000;rotD00_T8_000;rotD00_T9_000;rotD00_T10_000;rotD50_AvgSA[0,3];rotD50_AvgSA[0,6]
0;AL-2016-0013;2016-06-04 16:38:25;;us20006226;;;GR;38.1924;20.307;20.64;USGS-webservice;U;4.7;ISC-webservice;4.5;ISC-webservice;;;;;;;;;;;;;;;;AC;FIER;00;HN;;3;BUI;BF;AL;40.7174;19.5669;;B;VS30;Vs30_ref;374.0;IGEWE;0;MASW;2.06929;433.659784;287.5;288.2399340827013;167.0;;;;;D;0;E;90.0;N;0.0;Z;0.2;0.2;0.2;30.0;30.0;30.0;4.0;4.5;20.64;90;288.2399340827013;288.2399340827013;287.5;79.22;374.0;True;31.07;4;-0.079078;0.074539;0.041626;0.082935;0.094327;0.066057;-0.009132;-0.008338;0.004053;0.008411885;0.00918071;0.00761066;-0.001506;-0.00174;0.000925;0.001828695;0.00223935;0.00150917;92.84;91.69;115.86;92.263;92.15;97.46;86.35;0.0445419;0.0426837;0.0202178;0.04390505;0.0447769;0.0418025;1.56192825036;1.40586062012;0.913613755176;1.47068683752;1.56220862513;1.40586062012;4.81395701373e-05;4.04951348632e-05;1.45629169193e-05;4.43173626256e-05;4.82435705513e-05;4.03911409215e-05;0.079088;0.079763;0.080054;0.079619;0.08509;0.090887;0.124839;0.21088;0.209532;0.230499;0.243315;0.201597;0.204491;0.220292;0.239844;0.226176;0.202524;0.18529;0.162999;0.125496;0.107812;0.113832;0.075091;0.089744;0.057205;0.033346;0.019213;0.013629;0.009987;0.008675;0.005572;0.002614;0.001813;0.001228;0.00095;0.000803;0.074539;0.075304;0.07645;0.075678;0.080942;0.10047;0.124384;0.226964;0.165383;0.184673;0.188115;0.20269;0.215089;0.20169;0.175775;0.172013;0.141607;0.139364;0.115175;0.150071;0.123826;0.117069;0.09094;0.075732;0.053824;0.04122;0.027295;0.012316;0.009832;0.007791;0.003984;0.002542;0.001924;0.001477;0.001118;0.000955;0.041814;0.042805;0.043391;0.046621;0.077985;0.123842;0.095283;0.094709;0.096733;0.105618;0.091164;0.092403;0.092381;0.122853;0.079897;0.077278;0.074476;0.075827;0.064366;0.055243;0.04556;0.048628;0.039186;0.033602;0.026031;0.021634;0.017951;0.010683;0.005486;0.003825;0.002918;0.00166;0.001146;0.000899;0.000646;0.000493;0.0830405;0.0837075;0.084352;0.0858325;0.09114;0.0978565;0.1246115;0.2125165;0.202198;0.224875;0.20503;0.2067165;0.2064975;0.22797;0.2289635;0.2190285;0.1690275;0.1635975;0.1401115;0.1310935;0.115928;0.114316;0.0812435;0.0830065;0.055562;0.0360645;0.023173;0.0126975;0.009886;0.007958;0.0048765;0.002976;0.001997;0.0015085;0.0011585;0.0009855;0.094451;0.094934;0.097992;0.098378;0.102912;0.115764;0.13778;0.228435;0.235445;0.258661;0.247157;0.235943;0.252391;0.267855;0.248833;0.23342;0.203316;0.193617;0.163025;0.153258;0.163496;0.127798;0.09094;0.09447;0.067912;0.044339;0.02933;0.014667;0.0112;0.009702;0.006247;0.003354;0.002522;0.001892;0.001438;0.001163;0.066089;0.066748;0.069385;0.072247;0.075393;0.088998;0.100364;0.17927;0.15792;0.169624;0.188115;0.191858;0.187929;0.20169;0.175775;0.164209;0.131198;0.117216;0.105064;0.095936;0.069865;0.097435;0.069492;0.064345;0.046159;0.026921;0.0151;0.011798;0.007286;0.006738;0.00394;0.002386;0.001753;0.001177;0.00095;0.000803;0.07773520768156232;0.023274580038095214
1;AL-2016-0013;2016-06-04 16:38:25;;us20006226;;;GR;38.1924;20.307;20.64;USGS-webservice;U;4.7;ISC-webservice;4.5;ISC-webservice;;;;;;;;;;;;;;;;AC;KBN;00;HN;;3;BUI;P;AL;40.6232;20.7874;991;B;VS30;Vs30_ref;742.0;IGEWE;0;MASW;1.972256;426.771071;273.0;273.779125573883;188.9;;;;;D;0;E;90.0;N;0.0;Z;0.25;0.25;0.25;25.0;25.0;25.0;3.2;4.5;20.64;90;273.779125573883;273.779125573883;273.0;-15.65;742.0;True;31.07;2;0.019452;0.022686;0.012747;0.019445;0.023297;0.017979;-0.002153;-0.002578;-0.001783;0.002214455;0.00257871;0.00211429;0.000444;-0.000513;0.000424;0.0005062295;0.000575914;0.000391114;91.035;90.505;97.575;90.77;90.6225;92.015;87.885;0.0117966;0.0131476;0.00886451;0.01222605;0.0133059;0.0114334;0.349399564969;0.408006519966;0.284063000065;0.376211572455;0.409853469997;0.349294990031;2.32266560891e-06;3.08941809103e-06;1.43835168744e-06;2.70603882175e-06;3.10561757661e-06;2.30646509703e-06;0.019452;0.019543;0.020857;0.020499;0.019806;0.023301;0.031112;0.034608;0.04138;0.056489;0.049299;0.05599;0.044772;0.051854;0.053316;0.047163;0.044486;0.037789;0.033439;0.044268;0.031208;0.032792;0.023394;0.01739;0.015644;0.009873;0.006111;0.003301;0.002932;0.00173;0.000981;0.000656;0.000464;0.00033;0.000258;0.000217;0.022688;0.022847;0.023334;0.023092;0.023605;0.023834;0.031711;0.030516;0.029166;0.043874;0.059929;0.0415;0.057989;0.067771;0.061412;0.052378;0.058291;0.057947;0.041445;0.036905;0.040257;0.031987;0.026393;0.0213;0.019887;0.011663;0.005907;0.003585;0.002812;0.001592;0.001192;0.000853;0.000612;0.000469;0.000373;0.000325;0.012764;0.013088;0.013032;0.015409;0.013409;0.019179;0.019243;0.024146;0.021815;0.028353;0.033064;0.036408;0.037948;0.031232;0.036508;0.028051;0.032345;0.032013;0.033062;0.02909;0.023252;0.0164;0.020521;0.018708;0.010973;0.007742;0.00422;0.0026;0.001933;0.001384;0.000903;0.000563;0.000516;0.000403;0.000327;0.000256;0.019459;0.019509;0.020654;0.020629;0.020427;0.022856;0.0313935;0.0305165;0.0339175;0.0507915;0.0538305;0.05237;0.050956;0.0578575;0.058518;0.0520625;0.046454;0.0501215;0.0381695;0.03663;0.0341225;0.0324175;0.023852;0.0191745;0.017576;0.010247;0.0064255;0.0035885;0.002875;0.001683;0.001186;0.000878;0.0005775;0.000449;0.00035;0.0003005;0.023313;0.023553;0.024139;0.023721;0.02468;0.023986;0.038026;0.035165;0.04163;0.056489;0.072257;0.058154;0.064065;0.070973;0.062829;0.05707;0.062534;0.059173;0.043278;0.04459;0.04106;0.037013;0.026479;0.025044;0.023234;0.012101;0.00736;0.003921;0.003307;0.002115;0.001315;0.000948;0.000731;0.000493;0.000382;0.00033;0.017988;0.018159;0.018466;0.018956;0.019062;0.020041;0.022974;0.028577;0.027412;0.03522;0.044892;0.039128;0.04226;0.046768;0.052075;0.042317;0.0411;0.03508;0.030718;0.032147;0.030471;0.027286;0.017382;0.013551;0.013264;0.009127;0.005503;0.003005;0.001996;0.001444;0.000879;0.000649;0.000464;0.000328;0.000248;0.000206;0.021149611974965496;0.00627219142133444
2;EMSC-19980224_0000009;1998-02-24 15:11:42;1078580;usp0008ghb;;19980224_0000009;GR;36.3006;28.2246;30.6;ISC-webservice;U;4.2;ISC-webservice;;;3.8;ISC-webservice;4.8;Mw;RCMTS;;;;;;;;;;;HI;ROD1;00;HN;;1;BUB;;GR;36.449885;28.223017;;;;;;;;;2.977426;495.23308;16.6;34.81264138211865;179.5;;;;;A;0;3;198.0;2;288.0;Z;0.3;0.3;0.3;25.0;25.0;25.0;2.666666666666667;4.8;30.6;90;34.81264138211865;34.81264138211865;16.6;66.23;495.23308;False;31.07;3;-37.59019;-52.837647;23.691141;43.3487645;52.849915;28.102411;1.755859;3.54881;-0.792289;2.92988;3.89253;0.999304;0.244747;0.56728;0.133833;0.4325145;0.608787;0.119803;7.56;6.97;9.785;7.259;7.075;8.5;6.61;4.71692;8.89272;2.4148;7.07221;9.52123;3.13606;37.8245523499;42.0859476064;34.2361839331;40.2622444563;46.8209379315;33.6437917214;0.404603608937;0.674806931189;0.324631799702;0.539705240136;0.779413493972;0.299996996822;37.7551;38.6334;39.7606;37.8571;47.0806;69.7658;83.2964;54.5575;61.8548;49.6705;43.4347;42.6776;47.3416;45.03;31.5725;29.9488;28.1676;25.7;20.6936;15.4941;9.65365;7.2463;5.68349;3.67144;3.33763;3.63233;2.75263;1.40505;1.02488;0.871635;0.699027;0.50952;0.392242;0.314512;0.260068;0.220414;52.966;53.5499;53.9745;53.118;62.3382;76.058;76.5391;83.4696;88.5249;90.1063;81.5072;81.8115;77.8966;76.9186;65.9712;54.6846;51.7686;48.5116;40.8435;32.7984;22.3977;15.8297;11.5796;8.62072;6.9198;4.89824;3.58668;2.71426;2.11765;1.77311;1.39836;1.0052;0.76777;0.612749;0.505768;0.428079;23.701;24.8286;29.9948;33.439;48.2919;110.097;53.8172;30.6975;40.8067;20.7941;22.0903;16.9877;11.7761;9.24534;10.4603;11.3665;9.0939;9.54543;7.94104;7.91993;4.76497;3.19412;3.06411;2.78324;3.81394;2.21551;1.58368;1.18224;0.816884;0.590582;0.380329;0.266547;0.196147;0.150571;0.119618;0.097697;43.42625;43.9487;46.40055;47.7533;49.3145;71.10955;76.51145;72.0961;78.2807;73.1035;65.71535;66.8108;64.8149;63.8866;50.2453;44.1682;41.0508;39.06355;32.51035;26.07525;16.3633;11.44995;8.626875;6.589465;5.318895;4.550415;3.286265;2.13789;1.65441;1.37418;1.073495;0.7617075;0.577441;0.459416;0.3787285;0.320757;53.01;53.6174;54.0766;53.0987;63.4345;90.466;83.5589;83.5234;91.763;95.0204;84.04;90.872;89.2722;88.0597;70.2828;59.2814;56.562;54.3012;45.1912;35.94;23.079;16.1611;12.0268;9.22387;7.22928;5.97484;4.04393;2.94152;2.27014;1.88143;1.46317;1.03134;0.77723;0.615113;0.504845;0.42617;28.1255;28.6144;29.592;31.4422;38.1219;55.2465;69.1495;53.9228;48.3214;31.8225;23.8307;29.0051;20.3504;15.3287;21.4133;18.7891;15.4604;12.5515;9.62161;8.35387;8.55433;4.04653;3.60987;3.57739;3.09332;1.43677;0.950443;0.931702;0.491775;0.375316;0.269555;0.177703;0.135827;0.105;0.083284;0.069454;12.861377799753063;4.290304113449181
3;EMSC-19980224_0000009;1998-02-24 15:11:42;1078580;usp0008ghb;;19980224_0000009;GR;36.3006;28.2246;30.6;ISC-webservice;U;4.2;ISC-webservice;;;3.8;ISC-webservice;4.8;Mw;RCMTS;;;;;;;;;;;HI;ROD2;00;HN;0.0;1;BUB;;GR;36.431206;28.206418;;;;;;;;;2.200609;442.983751;14.6;33.90457196308486;173.6;;;;;A;0;3;324.0;2;54.0;Z;0.3;0.3;0.3;25.0;25.0;25.0;2.666666666666667;4.8;30.6;90;33.90457196308486;33.90457196308486;14.6;66.23;442.983751;False;31.07;3;63.281482;42.277263;41.021968;54.54694;66.409622;40.185947;-2.538908;-1.648975;1.034659;2.08747;2.74281;1.18385;-0.28473;-0.175498;0.121498;0.232053;0.317822;0.123325;7.07;6.805;7.37;6.936;6.875;7.585;6.305;6.25758;3.9508;2.81351;5.213145;6.72634;3.24887;86.4750976918;87.5568883845;78.2624880533;87.0419266107;88.7314879022;84.5519154263;1.85128378705;1.71722024256;1.50150112421;1.78425199907;1.92231709663;1.64618695833;63.3456;63.7914;67.9516;77.0906;104.345;118.695;144.349;140.643;114.855;98.7691;72.6521;73.5142;58.9593;42.8693;35.9121;32.4273;30.4786;27.5808;21.2603;16.2381;12.5617;10.7471;9.04951;6.42582;5.64524;3.76172;2.75335;2.02846;1.53033;1.24694;0.949489;0.651042;0.481566;0.377227;0.307714;0.258787;42.5399;43.6857;45.9417;63.6725;59.9544;139.35;143.238;83.016;90.9884;56.4717;33.8927;33.5394;30.4149;23.7785;18.6494;17.3285;17.3222;15.5346;15.4851;14.364;9.62331;7.43666;5.80651;4.05955;3.15374;1.73887;1.25793;1.08665;0.703755;0.579222;0.448167;0.316495;0.24147;0.194011;0.16175;0.138575;41.0267;42.1327;51.0145;65.6319;100.895;181.685;100.237;100.957;79.5168;62.5464;32.9618;23.789;20.3593;17.7546;16.1916;12.9482;9.59102;8.91274;10.0841;9.11651;3.74965;3.48892;4.14817;3.39451;2.47906;1.72345;1.42421;0.963201;0.506817;0.427619;0.355197;0.270714;0.20339;0.156332;0.123881;0.101162;54.7353;56.2841;61.8281;71.0941;88.695;130.9485;143.6495;112.717;91.0135;72.8959;56.2768;53.74175;43.084;34.98095;29.8211;24.9531;23.61185;21.97285;18.0351;15.2727;11.08085;9.31912;7.781535;5.550005;4.481655;2.914935;2.102395;1.5456;1.17267;0.9619705;0.7397625;0.516718;0.389184;0.308555;0.2539405;0.214931;66.5531;68.1999;68.257;77.1094;104.425;171.225;163.341;148.42;114.866;102.147;77.3674;74.3187;60.179;45.2096;36.4975;35.289;32.8904;29.6743;22.55;19.1251;14.9859;12.3726;10.2564;7.48032;6.32105;4.01344;2.8919;2.1225;1.60571;1.31399;1.00813;0.701221;0.524786;0.414391;0.340218;0.287642;40.3597;41.4435;43.6992;59.0496;58.872;91.2996;107.062;76.3134;77.7963;46.3473;33.7995;33.2427;22.6186;18.2893;15.6263;17.2737;16.6982;12.7255;9.80164;6.80893;4.6819;5.71481;3.49046;2.43802;1.88318;1.43539;1.10964;0.922571;0.541308;0.383362;0.316734;0.207704;0.158716;0.124681;0.100858;0.091518;9.750734918131633;3.16200483563116
4;EMSC-19980224_0000009;1998-02-24 15:11:42;1078580;usp0008ghb;;19980224_0000009;GR;36.3006;28.2246;30.6;ISC-webservice;U;4.2;ISC-webservice;;;3.8;ISC-webservice;4.8;Mw;RCMTS;;;;;;;;;;;HI;ROD3;00;HN;0.0;1;BUB;;GR;36.445639;28.224364;;;;;;;;;4.871293;581.586437;16.1;34.57701548717009;179.9;;;;;A;0;3;95.0;2;185.0;Z;0.3;0.3;0.4;25.0;25.0;25.0;2.666666666666667;4.8;30.6;90;34.57701548717009;34.57701548717009;16.1;66.23;581.586437;False;31.07;3;85.681814;-99.877179;-62.849444;93.2770995;122.492279;72.055496;4.155695;5.450164;-1.782833;4.73074;6.45798;2.5164;-0.538533;0.678561;-0.141006;0.612411;0.852721;0.169882;6.73;3.345;5.255;4.745;4.5775;7.545;2.955;9.63626;12.5864;4.31376;11.15815;14.9031;5.45048;92.7881109859;111.733567029;89.8780931767;102.069222486;111.733567029;92.2955858178;2.60107577991;5.24182405325;2.43379418472;3.92144979495;5.41325271701;2.42964687524;85.7625;86.4158;89.7237;87.2668;100.517;164.886;163.096;226.525;229.989;194.169;147.256;121.345;106.153;96.2569;72.9953;51.7353;45.8497;42.2234;35.7784;27.0908;17.787;12.7502;10.6267;7.83705;6.73677;5.2506;4.03499;3.03924;2.29549;1.86263;1.40609;0.963122;0.721711;0.574226;0.475074;0.405033;100.033;100.734;105.266;120.489;133.602;239.949;497.014;332.356;274.075;206.935;163.314;141.42;127.096;110.118;80.9467;61.9996;58.3128;55.1447;45.8826;36.4643;22.3919;19.3851;15.5355;12.3407;9.33325;6.02222;4.15758;3.04864;2.34388;1.95862;1.55008;1.131;0.883079;0.720164;0.605721;0.521033;62.8701;66.2299;80.06;99.2478;142.654;235.107;169.173;189.778;115.32;79.9288;70.8853;42.2497;41.5208;42.9445;31.5861;21.1958;16.3168;16.7546;13.5071;9.34276;7.27605;6.16474;4.47408;3.17247;2.53244;1.52032;0.959038;0.81643;0.462829;0.379415;0.327612;0.265163;0.221231;0.188262;0.162588;0.142542;93.4623;95.33415;105.8275;112.026;137.7245;213.424;361.23;278.693;250.2205;200.942;155.254;131.5855;116.5985;103.465;77.1841;57.76255;52.5072;48.33085;40.18575;31.89715;20.36225;16.3387;13.17045;10.2816;8.147865;5.665125;4.088465;3.046875;2.30785;1.92136;1.484805;1.04164;0.809774;0.6574285;0.545641;0.46446;122.551;123.246;125.669;141.7;148.176;258.292;497.414;336.904;309.063;251.209;199.625;178.207;159.796;140.701;105.238;79.8716;72.1261;66.79;55.7439;44.4602;28.5535;22.0995;17.8887;13.7324;11.3973;7.92267;5.70065;4.23182;3.19517;2.65157;2.03913;1.42202;1.10188;0.891578;0.739493;0.628834;72.0558;72.5765;76.2558;77.5643;100.407;135.833;163.096;221.532;184.56;113.266;70.4868;46.2871;42.2317;41.0407;38.5908;21.3235;17.7665;15.6937;13.4615;12.102;8.18021;6.34803;4.03364;4.6183;3.31008;1.87032;1.66329;1.19094;0.834452;0.690701;0.549446;0.340197;0.259989;0.213847;0.176925;0.156811;19.37295975943819;6.175289628777441
