;event_id;event_time;ISC_ev_id;USGS_ev_id;INGV_ev_id;EMSC_ev_id;ev_nation_code;ev_latitude;ev_longitude;ev_depth_km;ev_hyp_ref;fm_type_code;ML;ML_ref;Mw;Mw_ref;Ms;Ms_ref;EMEC_Mw;EMEC_Mw_type;EMEC_Mw_ref;event_source_id;es_strike;es_dip;es_rake;es_strike_dip_rake_ref;es_z_top;es_z_top_ref;es_length;es_width;es_geometry_ref;network_code;station_code;location_code;instrument_code;sensor_depth_m;proximity_code;housing_code;installation_code;st_nation_code;st_latitude;st_longitude;st_elevation;ec8_code;ec8_code_method;ec8_code_ref;vs30_m_sec;vs30_ref;vs30_calc_method;vs30_meas_type;slope_deg;vs30_m_sec_WA;epi_dist;hypo_dist;epi_az;JB_dist;rup_dist;Rx_dist;Ry0_dist;instrument_type_code;late_triggered_flag_01;U_channel_code;U_azimuth_deg;V_channel_code;V_azimuth_deg;W_channel_code;U_hp;V_hp;W_hp;U_lp;V_lp;W_lp;max_usable_T;mag;hypo_depth;rake;rhypo;rrup;rjb;xvf;vs30;vs30measured;z1pt0;region;U_pga;V_pga;W_pga;rotD50_pga;rotD100_pga;rotD00_pga;U_pgv;V_pgv;W_pgv;rotD50_pgv;rotD100_pgv;rotD00_pgv;U_pgd;V_pgd;W_pgd;rotD50_pgd;rotD100_pgd;rotD00_pgd;U_T90;V_T90;W_T90;GM_T90;rotD50_T90;rotD100_T90;rotD00_T90;U_housner;V_housner;W_housner;rotD50_housner;rotD100_housner;rotD00_housner;U_CAV;V_CAV;W_CAV;rotD50_CAV;rotD100_CAV;rotD00_CAV;U_ia;V_ia;W_ia;rotD50_ia;rotD100_ia;rotD00_ia;U_T0_010;U_T0_025;U_T0_040;U_T0_050;U_T0_070;U_T0_100;U_T0_150;U_T0_200;U_T0_250;U_T0_300;U_T0_350;U_T0_400;U_T0_450;U_T0_500;U_T0_600;U_T0_700;U_T0_750;U_T0_800;U_T0_900;U_T1_000;U_T1_200;U_T1_400;U_T1_600;U_T1_800;U_T2_000;U_T2_500;U_T3_000;U_T3_500;U_T4_000;U_T4_500;U_T5_000;U_T6_000;U_T7_000;U_T8_000;U_T9_000;U_T10_000;V_T0_010;V_T0_025;V_T0_040;V_T0_050;V_T0_070;V_T0_100;V_T0_150;V_T0_200;V_T0_250;V_T0_300;V_T0_350;V_T0_400;V_T0_450;V_T0_500;V_T0_600;V_T0_700;V_T0_750;V_T0_800;V_T0_900;V_T1_000;V_T1_200;V_T1_400;V_T1_600;V_T1_800;V_T2_000;V_T2_500;V_T3_000;V_T3_500;V_T4_000;V_T4_500;V_T5_000;V_T6_000;V_T7_000;V_T8_000;V_T9_000;V_T10_000;W_T0_010;W_T0_025;W_T0_040;W_T0_050;W_T0_070;W_T0_100;W_T0_150;W_T0_200;W_T0_250;W_T0_300;W_T0_350;W_T0_400;W_T0_450;W_T0_500;W_T0_600;W_T0_700;W_T0_750;W_T0_800;W_T0_900;W_T1_000;W_T1_200;W_T1_400;W_T1_600;W_T1_800;W_T2_000;W_T2_500;W_T3_000;W_T3_500;W_T4_000;W_T4_500;W_T5_000;W_T6_000;W_T7_000;W_T8_000;W_T9_000;W_T10_000;rotD50_T0_010;rotD50_T0_025;rotD50_T0_040;rotD50_T0_050;rotD50_T0_070;rotD50_T0_100;rotD50_T0_150;rotD50_T0_200;rotD50_T0_250;rotD50_T0_300;rotD50_T0_350;rotD50_T0_400;rotD50_T0_450;rotD50_T0_500;rotD50_T0_600;rotD50_T0_700;rotD50_T0_750;rotD50_T0_800;rotD50_T0_900;rotD50_T1_000;rotD50_T1_200;rotD50_T1_400;rotD50_T1_600;rotD50_T1_800;rotD50_T2_000;rotD50_T2_500;rotD50_T3_000;rotD50_T3_500;rotD50_T4_000;rotD50_T4_500;rotD50_T5_000;rotD50_T6_000;rotD50_T7_000;rotD50_T8_000;rotD50_T9_000;rotD50_T10_000;rotD100_T0_010;rotD100_T0_025;rotD100_T0_040;rotD100_T0_050;rotD100_T0_070;rotD100_T0_100;rotD100_T0_150;rotD100_T0_200;rotD100_T0_250;rotD100_T0_300;rotD100_T0_350;rotD100_T0_400;rotD100_T0_450;rotD100_T0_500;rotD100_T0_600;rotD100_T0_700;rotD100_T0_750;rotD100_T0_800;rotD100_T0_900;rotD100_T1_000;rotD100_T1_200;rotD100_T1_400;rotD100_T1_600;rotD100_T1_800;rotD100_T2_000;rotD100_T2_500;rotD100_T3_000;rotD100_T3_500;rotD100_T4_000;rotD100_T4_500;rotD100_T5_000;rotD100_T6_000;rotD100_T7_000;rotD100_T8_000;rotD100_T9_000;rotD100_T10_000;rotD00_T0_010;rotD00_T0_025;rotD00_T0_040;rotD00_T0_050;rotD00_T0_070;rotD00_T0_100;rotD00_T0_150;rotD00_T0_200;rotD00_T0_250;rotD00_T0_300;rotD00_T0_350;rotD00_T0_400;rotD00_T0_450;rotD00_T0_500;rotD00_T0_600;rotD00_T0_700;rotD00_T0_750;rotD00_T0_800;rotD00_T0_900;rotD00_T1_000;rotD00_T1_200;rotD00_T1_400;rotD00_T1_600;rotD00_T1_800;rotD00_T2_000;rotD00_T2_500;rotD00_T3_000;rotD00_T3_500;rotD00_T4_000;rotD00_T4_500;rotD00_T5_000;rotD00_T6_000;rotD00_T7_000;rotD00_T8_000;rotD00_T9_000;rotD00_T10_000;rotD50_AvgSA[0,3];rotD50_AvgSA[0,6]
31;EMSC-20110228_0000017;2011-02-28 07:49:06;16160709;usp000hv5x;;20110228_0000017;GR;34.8667;25.4535;54.72;ISC-webservice;TF;4.61;ISC-webservice;5.47;ISC-webservice;4.73;ISC-webservice;5.5;Mw;GEOFON;;;;;;;;;;;HL;IACM;00;HN;0.0;;;;GR;35.3058;25.0709;45;;;;;;;;10.145915;816.166285;59.9;81.13130345310618;144.3;;;;;D;0;E;90.0;N;0.0;Z;0.07;0.07;0.07;30.0;30.0;30.0;11.428571428571429;5.5;54.72;90;81.13130345310618;81.13130345310618;59.9;123.8;816.166285;False;31.07;3;6.498174;-5.135748;-2.734613;5.674115;6.506176;4.604387;-0.585773;-0.458748;0.194418;0.481356;0.588005;0.413628;-0.074091;0.080376;0.022871;0.0744097;0.102179;0.0563273;45.965;45.02;50.065;45.49;45.635;47.12;44.585;2.11231;1.79884;0.7465;1.952915;2.21391;1.75188;63.2322628729;58.3260385802;35.6101650944;60.5256327633;64.1600898998;57.0343914561;0.135957915026;0.113992399836;0.0405872734844;0.124975155992;0.140696134866;0.109254194957;6.49911;6.52022;6.57692;6.60133;6.67635;7.00738;11.7195;15.8049;12.6367;16.2377;15.528;15.1114;17.8381;20.2157;22.0675;12.0764;12.7409;13.8667;12.071;6.89908;5.13507;4.06693;2.93679;2.14305;1.48803;0.697571;0.40105;0.334545;0.232863;0.245831;0.197774;0.124905;0.091553;0.083121;0.071269;0.059884;5.13894;5.16247;5.21125;5.27324;5.32486;5.90409;6.96654;10.3256;17.2962;15.6081;24.4481;14.2654;13.3906;12.7284;12.5818;7.27745;7.8728;8.45957;7.1914;6.08777;5.91585;5.02279;2.83132;2.06179;1.4164;0.699866;0.509894;0.381904;0.302135;0.241885;0.159218;0.105604;0.088232;0.07569;0.062192;0.051332;2.73875;2.75191;2.84999;2.85529;3.14143;3.73973;6.9409;7.47567;7.23406;7.55093;10.6412;11.7414;10.6953;7.23513;8.03326;5.37439;4.55643;4.21117;3.19666;1.90065;1.15418;1.01458;0.751158;0.479727;0.64451;0.353981;0.206834;0.142443;0.107963;0.082099;0.066082;0.036378;0.030756;0.023222;0.022865;0.019702;5.675955;5.69999;5.755095;5.79222;5.91136;6.81009;8.614315;12.26725;13.24625;16.10505;20.91325;14.5169;15.60775;16.28135;15.65215;10.01501;10.66595;10.85425;9.162985;6.55235;5.15525;4.696465;3.03772;2.10472;1.452215;0.6899935;0.50822;0.3685135;0.2764095;0.241061;0.1920305;0.1157185;0.090082;0.079763;0.0671785;0.055796;6.50867;6.53063;6.59531;6.61012;6.67635;7.41074;11.8639;15.8467;18.339;19.3974;24.4481;15.1972;18.0679;20.918;22.0675;12.7481;13.7167;14.4992;12.3481;7.29593;6.11537;5.0591;3.70295;2.75642;1.87652;0.793402;0.566411;0.411407;0.303557;0.276532;0.222495;0.162151;0.111989;0.088005;0.073211;0.060728;4.6073;4.62632;4.65844;4.71577;4.71428;5.35144;6.96654;9.80235;10.7094;12.549;15.5142;13.1048;12.1336;11.8783;12.2916;7.27745;6.21027;5.65015;6.26755;5.86883;4.59042;3.71687;2.597;1.69331;1.12348;0.622014;0.349625;0.315899;0.210914;0.176908;0.119056;0.087907;0.065295;0.050186;0.039654;0.038018;2.9022712378996474;0.8189538637136562
32;EMSC-20110228_0000017;2011-02-28 07:49:06;16160709;usp000hv5x;;20110228_0000017;GR;34.8667;25.4535;54.72;ISC-webservice;TF;4.61;ISC-webservice;5.47;ISC-webservice;4.73;ISC-webservice;5.5;Mw;GEOFON;;;;;;;;;;;HL;SIVA;00;HN;0.0;;;;GR;35.01746;24.80996;110;;;;;;;;0.236315;268.163516;61.1;82.02126797361767;105.7;;;;;D;0;E;90.0;N;0.0;Z;0.07;0.07;0.07;30.0;30.0;30.0;11.428571428571429;5.5;54.72;90;82.02126797361767;82.02126797361767;61.1;150.0;268.163516;False;31.07;3;-3.415354;-3.061787;1.377938;3.2086915;3.53652;2.566494;0.203507;0.204112;-0.088466;0.2023925;0.216224;0.182407;-0.02128;0.02794;-0.015517;0.0299223;0.033862;0.0212402;34.9;33.63;39.235;34.259;34.14;34.93;32.825;0.725021;0.776584;0.34334;0.7664725;0.802921;0.725022;24.5646468954;21.2198274547;12.6091840344;22.8916535088;24.6048137685;21.1630857909;0.0279475574961;0.0201567363608;0.00654854234828;0.0240521478352;0.0281529340442;0.0199513567553;3.41946;3.4363;3.46326;3.49795;3.70615;4.36144;6.85438;9.63729;10.6319;10.2156;12.5021;6.32876;6.22971;6.39747;7.59301;6.04049;5.47517;6.35275;3.26471;2.71674;1.20725;0.973154;0.738927;0.526612;0.350929;0.268146;0.200312;0.111773;0.065656;0.057972;0.049988;0.041322;0.029183;0.023059;0.019061;0.01641;3.06596;3.08556;3.11262;3.16002;3.22212;3.54539;4.18937;5.52115;7.15144;7.90412;6.56202;5.76028;6.15568;7.72679;6.08457;9.9898;8.07003;6.38174;3.82746;1.9133;1.0435;1.03;1.09177;0.801688;0.499067;0.302758;0.171848;0.137498;0.106649;0.080244;0.062962;0.045411;0.043953;0.035775;0.029284;0.02227;1.37876;1.38752;1.40953;1.40633;1.73923;2.84002;2.78893;3.58627;4.18893;4.15844;3.04571;4.58932;3.63034;3.19265;2.78656;2.53754;2.50002;2.30457;1.52511;1.02523;0.598998;0.320249;0.395288;0.348891;0.25617;0.213451;0.162697;0.117887;0.07018;0.055865;0.041764;0.024586;0.016904;0.013366;0.011256;0.00965;3.20977;3.22579;3.25209;3.290345;3.421905;3.869505;5.274015;7.301395;9.881315;9.160915;9.649255;6.232605;6.192695;7.15753;6.762025;8.173515;7.32455;6.367245;3.55559;2.32333;1.166305;1.021165;0.950736;0.660108;0.4256585;0.2873005;0.1799025;0.1214845;0.093643;0.070162;0.0585165;0.045126;0.038968;0.0341815;0.028136;0.0235035;3.54019;3.55755;3.58096;3.61816;3.81359;4.40934;6.85438;9.63729;10.6837;10.729;12.9678;7.2311;7.51255;9.75759;7.61685;10.6107;8.50342;7.50109;4.11681;2.94546;1.42922;1.34634;1.19171;0.89687;0.600791;0.31715;0.242972;0.148479;0.118725;0.080522;0.062962;0.048837;0.045153;0.037903;0.031546;0.025991;2.56837;2.58152;2.59199;2.66543;2.8655;3.21551;4.04085;5.41156;6.87801;6.318;6.11279;5.37004;4.69603;5.26803;5.99334;5.6459;5.47517;5.38824;2.59338;1.9133;1.00061;0.917162;0.530373;0.452675;0.325146;0.218198;0.141818;0.093417;0.065656;0.05377;0.046084;0.039172;0.028844;0.019628;0.016966;0.014593;1.1161477146618004;0.299181518609756
33;EMSC-20110401_0000034;2011-04-01 13:45:23;16403914;usp000hz2m;;20110401_0000034;GR;35.5274;26.6263;67.0885;ISC-webservice;U;4.2;ISC-webservice;;;;;4.67;MWML92;DGA16;;;;;;;;;;;GE;KARP;00;HN;0.0;;;;GR;35.5472;27.1612;528;;;;;;;;14.280055;925.130666;48.6;82.84218027218984;267.6;;;;;D;0;E;90.0;N;0.0;Z;0.15;0.15;0.15;50.0;50.0;50.0;5.333333333333334;4.67;67.0885;90;82.84218027218984;82.84218027218984;48.6;116.59;925.130666;False;31.07;3;-1.203165;-2.073204;2.201068;1.763825;2.210849;1.138415;0.024944;0.040771;0.052182;0.0331649;0.0407954;0.0213435;0.001485;-0.003567;0.003515;0.002684915;0.00368892;0.00127652;16.785;17.31;17.2;17.045;17.1175;17.39;16.785;0.0509294;0.0977759;0.0984455;0.0778912;0.0993551;0.0481656;5.16914401647;6.10823435313;8.11818420477;5.73267470876;6.11430572796;5.16914401647;0.00247632009583;0.00362164216842;0.00615484754148;0.00304898089604;0.00362164216842;0.00247632009583;1.27193;1.76668;6.93639;4.54163;3.34091;2.88656;2.38648;1.46397;2.37274;1.32678;0.549917;0.564722;0.62827;0.629338;0.368979;0.261951;0.275568;0.25445;0.182787;0.143467;0.072105;0.046948;0.035182;0.028867;0.021664;0.015211;0.010465;0.008254;0.006282;0.005056;0.004014;0.003922;0.002926;0.002407;0.002138;0.001829;2.07468;2.1616;5.25931;5.91791;6.14284;4.57805;4.01948;2.77886;2.07589;0.969829;0.88177;0.728032;0.737601;0.603557;0.846679;0.637529;0.605778;0.601636;0.602438;0.507601;0.228005;0.117924;0.077465;0.058395;0.043422;0.026119;0.018805;0.014607;0.011066;0.00993;0.008173;0.006111;0.004881;0.004359;0.003583;0.003162;2.20124;2.52676;8.47508;5.95124;7.51431;5.0935;4.55691;2.37671;2.05948;1.12435;0.526894;0.672768;0.587675;0.628928;0.553202;0.547899;0.553873;0.515481;0.560818;0.463915;0.266277;0.159438;0.109712;0.077888;0.061157;0.039262;0.028717;0.019676;0.015188;0.012106;0.008664;0.006618;0.005476;0.004666;0.004177;0.003469;1.770125;2.017015;5.341035;5.06317;4.830775;4.22971;3.2848;2.12005;2.06004;0.9955835;0.7691705;0.637378;0.685856;0.6026;0.657845;0.486909;0.462355;0.4622925;0.452515;0.3647645;0.1727605;0.097312;0.064886;0.0461455;0.0350605;0.0215855;0.0157165;0.011426;0.0089985;0.0078895;0.006415;0.0053625;0.004527;0.003574;0.002962;0.002516;2.22258;2.34189;6.97367;6.02368;6.29247;4.77894;4.09158;2.78163;2.48211;1.35166;0.931787;0.818523;0.853395;0.767172;0.885037;0.658156;0.622666;0.616778;0.604156;0.50911;0.228063;0.122913;0.081247;0.060171;0.045062;0.026479;0.019156;0.015069;0.011075;0.009926;0.008178;0.006127;0.004958;0.004397;0.003601;0.003168;1.18951;1.66674;4.05727;4.0766;3.34091;2.51827;1.78608;1.46397;1.47551;0.797801;0.533697;0.407979;0.364219;0.420835;0.258527;0.220662;0.216915;0.233166;0.161713;0.126647;0.072105;0.046948;0.033848;0.028867;0.021278;0.01382;0.008834;0.006831;0.00504;0.004602;0.004017;0.003795;0.002579;0.002007;0.001733;0.001547;0.11846736959251965;0.03401862000834228
34;EMSC-20110401_0000034;2011-04-01 13:45:23;16403914;usp000hz2m;;20110401_0000034;GR;35.5274;26.6263;67.0885;ISC-webservice;U;4.2;ISC-webservice;;;;;4.67;MWML92;DGA16;;;;;;;;;;;HL;IACM;00;HN;0.0;;;;GR;35.3058;25.0709;45;;;;;;;;10.145915;816.166285;143.4;158.31748744927074;79.7;;;;;D;0;E;90.0;N;0.0;Z;0.15;0.15;0.15;30.0;30.0;30.0;5.333333333333334;4.67;67.0885;90;158.31748744927074;158.31748744927074;143.4;123.8;816.166285;False;31.07;3;-0.517712;0.617397;0.523666;0.602631;0.668162;0.517712;0.021017;0.0252;-0.017514;0.02365115;0.0278572;0.0201175;0.002216;-0.002143;-0.001193;0.00211206;0.0024021;0.00172546;54.895;62.98;97.64;58.799;59.345;66.475;52.65;0.0772215;0.0845619;0.0409857;0.0784324;0.0846308;0.0754496;6.23545661926;6.41407727533;6.65167240382;6.30935743488;6.627008933;6.00721527366;0.00103059768438;0.00103462526271;0.000930310565224;0.00103261147354;0.00117193960989;0.000893283330606;0.518088;0.531163;0.575269;0.704758;0.989403;1.27264;1.68332;1.55302;1.54766;1.07537;0.901226;0.56986;0.756665;0.790196;0.746451;0.438449;0.476252;0.469095;0.360298;0.282292;0.199736;0.104149;0.079785;0.058512;0.033607;0.019342;0.016439;0.010681;0.007979;0.006161;0.005431;0.004197;0.003609;0.002653;0.00222;0.00202;0.617408;0.637589;0.704023;0.811819;1.29619;1.25778;1.43946;2.10194;2.3757;1.34666;0.972142;0.775024;0.892152;0.856767;1.00429;0.649889;0.495176;0.393796;0.347276;0.258262;0.186704;0.1288;0.090568;0.050291;0.030414;0.016631;0.011977;0.00898;0.00634;0.005304;0.004531;0.003298;0.003167;0.002467;0.001895;0.001691;0.524143;0.554105;0.638759;0.7403;1.36922;1.46729;2.00396;1.47417;1.12677;0.57057;0.405571;0.509039;0.388125;0.420803;0.437559;0.510222;0.34239;0.266594;0.139811;0.112613;0.051877;0.03638;0.023341;0.01771;0.01748;0.010686;0.00739;0.00529;0.004641;0.003806;0.003264;0.002469;0.002014;0.001726;0.001574;0.001308;0.6040265;0.622742;0.658052;0.8148995;1.11604;1.30227;1.568655;1.754485;1.942405;1.226475;0.9342645;0.7126875;0.816705;0.829115;0.7695425;0.553517;0.452713;0.3886335;0.3515905;0.2684985;0.187845;0.11718;0.0837045;0.055779;0.0334105;0.019072;0.012495;0.009152;0.006984;0.005566;0.004717;0.003659;0.003386;0.002694;0.0021855;0.0019385;0.671248;0.683872;0.709792;0.906725;1.29619;1.35494;1.77724;2.20004;2.46293;1.59331;1.19565;0.925446;0.940635;0.863284;1.00429;0.649889;0.499722;0.469519;0.384068;0.287537;0.241426;0.133433;0.096464;0.058581;0.03722;0.021254;0.0169;0.011555;0.008522;0.006577;0.005818;0.004274;0.003666;0.003003;0.002355;0.002079;0.518088;0.531163;0.571125;0.646069;0.873492;1.13195;1.07787;1.18232;1.30428;0.859162;0.614132;0.56986;0.638467;0.776722;0.556224;0.379004;0.355235;0.327759;0.274627;0.172703;0.150691;0.099115;0.071796;0.047026;0.030178;0.015584;0.010604;0.007674;0.006064;0.005147;0.00413;0.003238;0.002485;0.002452;0.001897;0.001695;0.10510391929243285;0.02643541040487333
35;EMSC-20110401_0000034;2011-04-01 13:45:23;16403914;usp000hz2m;;20110401_0000034;GR;35.5274;26.6263;67.0885;ISC-webservice;U;4.2;ISC-webservice;;;;;4.67;MWML92;DGA16;;;;;;;;;;;HL;SIVA;00;HN;0.0;;;;GR;35.01746;24.80996;110;;;;;;;;0.236315;268.163516;174.7;187.13887044718956;70.6;;;;;D;0;E;90.0;N;0.0;Z;0.15;0.15;0.15;30.0;30.0;30.0;5.333333333333334;4.67;67.0885;90;187.13887044718956;187.13887044718956;174.7;150.0;268.163516;False;31.07;3;-0.092611;-0.07584;0.078004;0.0882935;0.094695;0.066142;-0.004873;-0.004514;-0.002283;0.004750255;0.006321;0.00338803;-0.00052;-0.000476;0.00029;0.000541993;0.000688438;0.000441426;53.07;57.06;59.5;55.029;54.0;57.07;52.56;0.0180658;0.0155149;0.00850804;0.01689305;0.0188923;0.0139956;1.05241184043;0.914644044999;0.721223915024;0.976190687644;1.05450670961;0.914644044999;3.26419421849e-05;2.30241727051e-05;1.40241817597e-05;2.78330499654e-05;3.28085301061e-05;2.28575693134e-05;0.092742;0.094586;0.096968;0.094901;0.137454;0.244642;0.288562;0.475613;0.322727;0.161684;0.157808;0.157667;0.19229;0.254177;0.17695;0.124248;0.118078;0.134247;0.094036;0.074417;0.032393;0.017592;0.012516;0.013072;0.011695;0.006731;0.006083;0.003183;0.003077;0.002262;0.001341;0.000946;0.000906;0.000646;0.000573;0.00045;0.076018;0.076865;0.081364;0.083927;0.090232;0.141082;0.228911;0.264981;0.255281;0.128639;0.111285;0.13146;0.135552;0.153639;0.145596;0.105025;0.098418;0.112712;0.092335;0.062795;0.028419;0.019612;0.010224;0.009727;0.011611;0.005913;0.003859;0.002654;0.002128;0.002248;0.001845;0.001311;0.00106;0.000717;0.000548;0.000411;0.078708;0.085864;0.099275;0.095386;0.115239;0.18032;0.147605;0.146472;0.164963;0.078269;0.079537;0.067175;0.094369;0.091962;0.072451;0.065708;0.052104;0.04709;0.039934;0.02861;0.022046;0.010028;0.007721;0.005385;0.005002;0.004269;0.002476;0.002057;0.002253;0.001594;0.00119;0.001022;0.000626;0.000435;0.000375;0.000252;0.08844;0.089879;0.093187;0.0954085;0.1170855;0.1824385;0.2500775;0.394924;0.289975;0.1449895;0.1365405;0.155326;0.159073;0.2001965;0.162098;0.113195;0.111407;0.1281455;0.0932655;0.068927;0.029061;0.020261;0.0127615;0.010667;0.0111415;0.006153;0.0047425;0.003453;0.0028005;0.002206;0.0016645;0.00123;0.000938;0.000669;0.0005665;0.0004285;0.09471;0.096043;0.10263;0.11068;0.137454;0.244642;0.310949;0.482228;0.327386;0.161684;0.19268;0.186891;0.19462;0.258373;0.19792;0.127886;0.123311;0.14256;0.115482;0.093541;0.035254;0.02252;0.013518;0.01311;0.012505;0.006731;0.006382;0.003816;0.003093;0.002403;0.001932;0.001505;0.001097;0.000769;0.000632;0.000606;0.066261;0.067441;0.077222;0.079986;0.089639;0.137751;0.165278;0.253431;0.213857;0.116186;0.097176;0.125042;0.133212;0.141244;0.115804;0.09739;0.097039;0.105378;0.068602;0.051872;0.025089;0.017491;0.010224;0.00957;0.008569;0.004977;0.003429;0.002654;0.002102;0.001894;0.001135;0.000922;0.000675;0.000543;0.000472;0.000296;0.024105215881414142;0.007599326032171447
