;event_id;event_time;ISC_ev_id;USGS_ev_id;INGV_ev_id;EMSC_ev_id;ev_nation_code;ev_latitude;ev_longitude;ev_depth_km;ev_hyp_ref;fm_type_code;ML;ML_ref;Mw;Mw_ref;Ms;Ms_ref;EMEC_Mw;EMEC_Mw_type;EMEC_Mw_ref;event_source_id;es_strike;es_dip;es_rake;es_strike_dip_rake_ref;es_z_top;es_z_top_ref;es_length;es_width;es_geometry_ref;network_code;station_code;location_code;instrument_code;sensor_depth_m;proximity_code;housing_code;installation_code;st_nation_code;st_latitude;st_longitude;st_elevation;ec8_code;ec8_code_method;ec8_code_ref;vs30_m_sec;vs30_ref;vs30_calc_method;vs30_meas_type;slope_deg;vs30_m_sec_WA;epi_dist;hypo_dist;epi_az;JB_dist;rup_dist;Rx_dist;Ry0_dist;instrument_type_code;late_triggered_flag_01;U_channel_code;U_azimuth_deg;V_channel_code;V_azimuth_deg;W_channel_code;U_hp;V_hp;W_hp;U_lp;V_lp;W_lp;max_usable_T;mag;hypo_depth;rake;rhypo;rrup;rjb;xvf;vs30;vs30measured;z1pt0;region;U_pga;V_pga;W_pga;rotD50_pga;rotD100_pga;rotD00_pga;U_pgv;V_pgv;W_pgv;rotD50_pgv;rotD100_pgv;rotD00_pgv;U_pgd;V_pgd;W_pgd;rotD50_pgd;rotD100_pgd;rotD00_pgd;U_T90;V_T90;W_T90;GM_T90;rotD50_T90;rotD100_T90;rotD00_T90;U_housner;V_housner;W_housner;rotD50_housner;rotD100_housner;rotD00_housner;U_CAV;V_CAV;W_CAV;rotD50_CAV;rotD100_CAV;rotD00_CAV;U_ia;V_ia;W_ia;rotD50_ia;rotD100_ia;rotD00_ia;U_T0_010;U_T0_025;U_T0_040;U_T0_050;U_T0_070;U_T0_100;U_T0_150;U_T0_200;U_T0_250;U_T0_300;U_T0_350;U_T0_400;U_T0_450;U_T0_500;U_T0_600;U_T0_700;U_T0_750;U_T0_800;U_T0_900;U_T1_000;U_T1_200;U_T1_400;U_T1_600;U_T1_800;U_T2_000;U_T2_500;U_T3_000;U_T3_500;U_T4_000;U_T4_500;U_T5_000;U_T6_000;U_T7_000;U_T8_000;U_T9_000;U_T10_000;V_T0_010;V_T0_025;V_T0_040;V_T0_050;V_T0_070;V_T0_100;V_T0_150;V_T0_200;V_T0_250;V_T0_300;V_T0_350;V_T0_400;V_T0_450;V_T0_500;V_T0_600;V_T0_700;V_T0_750;V_T0_800;V_T0_900;V_T1_000;V_T1_200;V_T1_400;V_T1_600;V_T1_800;V_T2_000;V_T2_500;V_T3_000;V_T3_500;V_T4_000;V_T4_500;V_T5_000;V_T6_000;V_T7_000;V_T8_000;V_T9_000;V_T10_000;W_T0_010;W_T0_025;W_T0_040;W_T0_050;W_T0_070;W_T0_100;W_T0_150;W_T0_200;W_T0_250;W_T0_300;W_T0_350;W_T0_400;W_T0_450;W_T0_500;W_T0_600;W_T0_700;W_T0_750;W_T0_800;W_T0_900;W_T1_000;W_T1_200;W_T1_400;W_T1_600;W_T1_800;W_T2_000;W_T2_500;W_T3_000;W_T3_500;W_T4_000;W_T4_500;W_T5_000;W_T6_000;W_T7_000;W_T8_000;W_T9_000;W_T10_000;rotD50_T0_010;rotD50_T0_025;rotD50_T0_040;rotD50_T0_050;rotD50_T0_070;rotD50_T0_100;rotD50_T0_150;rotD50_T0_200;rotD50_T0_250;rotD50_T0_300;rotD50_T0_350;rotD50_T0_400;rotD50_T0_450;rotD50_T0_500;rotD50_T0_600;rotD50_T0_700;rotD50_T0_750;rotD50_T0_800;rotD50_T0_900;rotD50_T1_000;rotD50_T1_200;rotD50_T1_400;rotD50_T1_600;rotD50_T1_800;rotD50_T2_000;rotD50_T2_500;rotD50_T3_000;rotD50_T3_500;rotD50_T4_000;rotD50_T4_500;rotD50_T5_000;rotD50_T6_000;rotD50_T7_000;rotD50_T8_000;rotD50_T9_000;rotD50_T10_000;rotD100_T0_010;rotD100_T0_025;rotD100_T0_040;rotD100_T0_050;rotD100_T0_070;rotD100_T0_100;rotD100_T0_150;rotD100_T0_200;rotD100_T0_250;rotD100_T0_300;rotD100_T0_350;rotD100_T0_400;rotD100_T0_450;rotD100_T0_500;rotD100_T0_600;rotD100_T0_700;rotD100_T0_750;rotD100_T0_800;rotD100_T0_900;rotD100_T1_000;rotD100_T1_200;rotD100_T1_400;rotD100_T1_600;rotD100_T1_800;rotD100_T2_000;rotD100_T2_500;rotD100_T3_000;rotD100_T3_500;rotD100_T4_000;rotD100_T4_500;rotD100_T5_000;rotD100_T6_000;rotD100_T7_000;rotD100_T8_000;rotD100_T9_000;rotD100_T10_000;rotD00_T0_010;rotD00_T0_025;rotD00_T0_040;rotD00_T0_050;rotD00_T0_070;rotD00_T0_100;rotD00_T0_150;rotD00_T0_200;rotD00_T0_250;rotD00_T0_300;rotD00_T0_350;rotD00_T0_400;rotD00_T0_450;rotD00_T0_500;rotD00_T0_600;rotD00_T0_700;rotD00_T0_750;rotD00_T0_800;rotD00_T0_900;rotD00_T1_000;rotD00_T1_200;rotD00_T1_400;rotD00_T1_600;rotD00_T1_800;rotD00_T2_000;rotD00_T2_500;rotD00_T3_000;rotD00_T3_500;rotD00_T4_000;rotD00_T4_500;rotD00_T5_000;rotD00_T6_000;rotD00_T7_000;rotD00_T8_000;rotD00_T9_000;rotD00_T10_000;rotD50_AvgSA[0,3];rotD50_AvgSA[0,6]
11;EMSC-19991104_0000001;1999-11-04 02:08:12;1649200;usp0009h26;;19991104_0000001;GR;37.507;21.432;47.0;ISC-webservice;U;4.5;ISC-webservice;;;4.5;ISC-webservice;5.1;Mw;RCMTS;;;;;;;;;;;HI;PYR1;00;HN;0.0;1;BUB;;GR;37.673162;21.441297;;B;VS30;Vs30_ref;473.0;Stewart_et_al_2014;3;SASW;0.63329;324.376629;18.5;50.50990001969911;182.6;;;;;A;1;3;261.0;2;351.0;Z;0.5;0.5;0.5;25.0;25.0;25.0;1.6;5.1;47.0;90;50.50990001969911;50.50990001969911;18.5;107.54;473.0;True;31.07;3;15.586631;-15.328554;10.189086;14.4184795;15.604189;11.637794;0.580262;-0.479929;-0.247759;0.4995175;0.672514;0.395511;0.055068;0.055464;0.046223;0.05669865;0.0719743;0.0483541;9.645;10.715;11.18;10.166;10.4925;10.715;9.515;1.68176;1.62861;1.12089;1.68041;1.85822;1.54368;29.3545756356;32.4875350949;21.9313917209;31.6818127303;33.2456207876;29.2183733781;0.18881018295;0.231294919691;0.0987616639288;0.210052540734;0.233181136382;0.186923951793;15.6605;16.1956;16.0907;21.9397;24.9105;38.6631;42.9129;21.3899;26.1529;17.8706;11.944;11.2303;10.7577;13.8488;18.5383;14.4096;11.6117;9.70124;6.61405;5.56351;3.7242;2.08057;1.17157;1.1248;1.39513;0.764538;0.374303;0.229344;0.18612;0.133059;0.105584;0.078383;0.061932;0.0509;0.042951;0.037008;15.5042;16.3396;18.2227;22.0802;30.6598;56.7608;34.8512;30.4564;21.1101;19.4364;15.8902;13.7712;14.0895;12.3772;14.7064;9.06462;8.07495;7.55012;5.39775;4.23869;3.62964;2.48768;1.97255;2.27518;1.51586;0.682794;0.472331;0.267062;0.237133;0.183272;0.155239;0.09457;0.072807;0.058609;0.048767;0.041608;10.3318;11.2935;16.4323;17.7156;24.9219;38.5722;17.1432;15.5405;14.378;9.13434;8.01407;7.21056;8.90442;9.03401;5.35554;4.86705;5.43158;6.17418;4.21672;3.84446;3.16361;1.86064;1.17231;1.54551;1.34065;0.795694;0.378408;0.272722;0.22157;0.185533;0.149991;0.076076;0.050967;0.037588;0.031174;0.02671;14.4997;15.21275;15.7364;20.55755;27.4081;46.2899;38.02705;25.12385;22.3219;18.1238;14.80385;13.63155;12.14485;12.9425;16.7181;12.27245;10.095295;9.009145;7.113195;5.303905;3.725225;2.215615;1.706505;1.728375;1.40555;0.753513;0.4151435;0.2748585;0.220504;0.182045;0.132776;0.086629;0.067083;0.0546655;0.045662;0.039138;15.6854;16.4736;18.2269;22.2291;32.3193;58.1627;47.384;30.6351;26.188;20.13;16.3921;16.0718;15.2636;13.8968;20.7455;16.2459;13.6648;11.6182;8.02953;5.78094;4.44856;2.48717;2.09254;2.30651;1.6438;0.946313;0.517357;0.294381;0.24694;0.190451;0.159446;0.108979;0.086004;0.070997;0.060389;0.052588;11.7035;12.0516;12.9192;16.7052;23.2131;34.4611;29.4041;19.9803;18.9549;16.1227;11.8537;10.9082;9.30123;9.95272;12.7164;6.63013;6.506;6.19098;4.77597;3.93265;3.0774;1.89222;1.1569;1.04723;1.27491;0.62148;0.347368;0.215838;0.168991;0.133439;0.104781;0.073192;0.056223;0.044365;0.036803;0.031319;2.7548788393948946;0.7423509303086966
12;EMSC-20081102_0000089;2008-11-02 21:25:33;11456226;usp000gmr2;;20081102_0000089;;35.7623;31.2927;10.0;ISC-webservice;U;4.1;ISC-webservice;3.7;ISC-webservice;;;4.3;Mw;Pou;;;;;;;;;;;GE;CSS;00;HL;0.0;;;;CY;34.9611;33.331;396;;;;;;;;6.75297;684.436239;205.5;205.7431651355641;296.2;;;;;D;0;E;90.0;N;0.0;Z;0.25;0.25;0.25;30.0;30.0;30.0;3.2;4.3;10.0;90;205.7431651355641;205.7431651355641;205.5;128.27;684.436239;False;31.07;2;-0.010377;0.011896;-0.01222;0.01082;0.011896;0.009998;-0.000498;-0.000616;0.000535;0.0005840825;0.00070229;0.000498125;-7.4e-05;7.6e-05;6.2e-05;0.000112523;0.000223229;6.9091e-05;92.265;93.425;91.705;92.843;92.7525;93.955;91.33;0.00213514;0.00245053;0.00177377;0.00225913;0.00259442;0.00212412;0.191701065012;0.194382020026;0.182210325007;0.193072647509;0.201149419941;0.184499290006;7.47761864334e-07;7.52982671961e-07;6.89690198185e-07;7.50372268148e-07;8.06708924427e-07;6.94037324305e-07;0.010745;0.013149;0.031948;0.037383;0.02731;0.027014;0.028477;0.025516;0.030164;0.029572;0.022026;0.020833;0.021264;0.016;0.014323;0.011214;0.010912;0.009234;0.01054;0.00796;0.007055;0.004242;0.002241;0.001948;0.002099;0.000786;0.000604;0.00048;0.000423;0.000271;0.000261;0.000105;0.000103;6.4e-05;5.3e-05;4.5e-05;0.011912;0.013369;0.026054;0.036219;0.032365;0.02385;0.022646;0.036627;0.024703;0.026246;0.025876;0.023231;0.025023;0.02409;0.0205;0.016649;0.012573;0.009941;0.008912;0.008763;0.005885;0.004276;0.003503;0.002742;0.001651;0.000984;0.000794;0.000546;0.000494;0.000334;0.00022;0.000131;0.000114;7.3e-05;5.8e-05;4.8e-05;0.012245;0.013916;0.024465;0.037233;0.03361;0.029687;0.025518;0.022449;0.023401;0.023339;0.020219;0.020102;0.019065;0.013412;0.015093;0.008248;0.008569;0.007405;0.00622;0.007061;0.004809;0.00265;0.00269;0.00176;0.001437;0.000867;0.000446;0.000332;0.000387;0.000321;0.000195;0.000151;0.000108;6.8e-05;5e-05;4.5e-05;0.01101;0.012958;0.0277265;0.038218;0.0310265;0.024805;0.0237605;0.030213;0.029777;0.026122;0.023265;0.0236435;0.0229325;0.021724;0.0174155;0.012827;0.0121685;0.0104535;0.010216;0.0082615;0.0061785;0.004259;0.003135;0.002166;0.00195;0.00094;0.0007375;0.000472;0.0004465;0.000299;0.000227;0.00012;0.000103;6.7e-05;5.5e-05;4.7e-05;0.011914;0.013894;0.033315;0.043134;0.032933;0.027162;0.029544;0.038722;0.032691;0.030033;0.026193;0.026342;0.025516;0.024922;0.023555;0.016734;0.013043;0.01151;0.012007;0.011644;0.007816;0.005231;0.003836;0.002827;0.002118;0.001007;0.000799;0.000552;0.000497;0.000334;0.000272;0.000131;0.000121;7.5e-05;6.1e-05;5.2e-05;0.010011;0.011289;0.024394;0.031944;0.024789;0.022239;0.020429;0.024125;0.02305;0.022903;0.019099;0.019981;0.017597;0.015728;0.010891;0.01028;0.009862;0.008759;0.0055;0.006559;0.00401;0.00324;0.00216;0.00174;0.001507;0.000691;0.000518;0.000367;0.000337;0.000268;0.000187;0.000105;9.5e-05;5.9e-05;4.9e-05;4.3e-05;0.003791358987303214;0.001062648211561505
13;EMSC-20091222_0000010;2009-12-22 06:06:22;14196701;usp000h58s;2142019;20091222_0000010;;35.7334;31.5347;51.6916;ISC-webservice;TF;4.8;ISC-webservice;5.2;ISC-webservice;4.72;ISC-webservice;5.34;HaKaM0;HCMTS;;;;;;;;;;;GE;CSS;00;HL;0.0;;;;CY;34.9611;33.331;396;;;;;;;;6.75297;684.436239;184.4;191.5081760932415;298.2;;;;;D;0;E;90.0;N;0.0;Z;0.1;0.1;0.1;30.0;30.0;30.0;8.0;5.34;51.6916;90;191.5081760932415;191.5081760932415;184.4;128.27;684.436239;False;31.07;2;-0.321829;0.432934;0.249306;0.38832;0.460192;0.30123;-0.031363;0.028885;-0.018701;0.02957005;0.0322723;0.0275574;-0.00666;0.006817;-0.003277;0.006296905;0.00699591;0.00458795;43.07;39.09;50.59;41.032;41.295;43.955;39.055;0.113228;0.137027;0.076899;0.129212;0.137732;0.113228;4.04474745949;4.08979085532;3.61882976989;4.06201157321;4.14938366107;4.01251598125;0.000513390403146;0.000572749007598;0.000386842713773;0.000543069710226;0.000585154737113;0.000500984696506;0.324048;0.336842;0.421953;0.435867;0.443579;0.443033;0.735689;0.863434;1.03579;0.85179;1.0104;1.03168;0.823001;0.809273;0.618471;0.466202;0.472856;0.411067;0.452632;0.428951;0.323261;0.173017;0.148651;0.13861;0.130793;0.095723;0.069738;0.047517;0.028812;0.020168;0.016715;0.010245;0.006272;0.005276;0.004598;0.003736;0.433793;0.440301;0.495212;0.661139;0.566186;0.529224;0.662306;1.02191;1.04169;0.829464;1.4152;0.935675;1.20356;1.21403;1.1609;0.848241;0.498663;0.458545;0.37232;0.320304;0.331691;0.293115;0.179519;0.179578;0.153536;0.124716;0.075733;0.044613;0.035412;0.024587;0.012953;0.012576;0.009412;0.005882;0.003916;0.003958;0.252012;0.26642;0.387394;0.647931;0.615733;0.536409;0.73844;0.759383;0.812615;0.639865;0.810173;0.711609;0.563801;0.791275;0.570174;0.55685;0.512954;0.339568;0.248755;0.197528;0.155035;0.138088;0.095944;0.07315;0.079717;0.048098;0.029676;0.02704;0.015724;0.014007;0.010297;0.00548;0.005592;0.005887;0.003732;0.002401;0.3885975;0.3916805;0.466637;0.5704355;0.494061;0.534091;0.6998105;0.936827;1.07999;0.930299;1.17574;1.01902;1.09592;1.014209;0.922113;0.6969825;0.490816;0.4314355;0.4110185;0.380865;0.327476;0.2510825;0.170081;0.167734;0.1452545;0.10773;0.0691965;0.047304;0.0317765;0.020852;0.0130295;0.010675;0.0068315;0.0051045;0.0039225;0.003725;0.460434;0.464187;0.510762;0.669424;0.574286;0.590951;0.737585;1.02753;1.14607;0.975653;1.4152;1.11138;1.34126;1.31761;1.17433;0.87101;0.556423;0.522807;0.462399;0.468541;0.423939;0.30818;0.181829;0.182268;0.193514;0.129971;0.080081;0.051022;0.036791;0.027249;0.016715;0.012576;0.009458;0.005881;0.00477;0.003985;0.302036;0.308312;0.370674;0.425993;0.443579;0.440025;0.641288;0.810685;0.972457;0.770849;1.0104;0.855148;0.785484;0.809273;0.618471;0.455168;0.389153;0.379452;0.304756;0.27152;0.246687;0.163533;0.144003;0.12288;0.120582;0.055688;0.054636;0.043982;0.025186;0.019398;0.011943;0.009841;0.00603;0.0044;0.003169;0.002665;0.2395341903535843;0.07304298746901697
14;EMSC-20100101_0000004;2010-01-01 05:37:28;14225086;usp000h5jz;;20100101_0000004;;34.2752;25.3466;40.5127;ISC-webservice;U;4.1;ISC-webservice;;;3.6;ISC-webservice;4.03;MWML92;DGA16;;;;;;;;;;;HL;IACM;00;HN;0.0;;;;GR;35.3058;25.0709;45;;;;;;;;10.145915;816.166285;117.1;123.91000307194733;167.5;;;;;D;0;E;90.0;N;0.0;Z;0.15;0.15;0.15;30.0;30.0;30.0;5.333333333333334;4.03;40.5127;90;123.91000307194733;123.91000307194733;117.1;123.8;816.166285;False;31.07;3;-0.161883;0.151482;0.109879;0.1579815;0.175006;0.117069;-0.014249;0.012017;0.007486;0.0129242;0.0145377;0.0115254;0.002324;-0.001946;0.000932;0.00196208;0.00233087;0.00169737;152.765;171.02;194.455;161.635;163.11;171.295;152.765;0.0676487;0.0586978;0.024052;0.0624927;0.0682085;0.0575047;3.06419375524;3.2178436508;3.73334976901;3.14614299573;3.40437646411;2.86420553028;0.000144508014776;0.000142573593246;0.000159686044053;0.000143540804011;0.000168102445385;0.000118979161142;0.162266;0.166608;0.21157;0.300639;0.206974;0.194248;0.208569;0.37114;0.332293;0.346009;0.364256;0.338184;0.362509;0.440052;0.422266;0.305469;0.314095;0.316119;0.331973;0.349243;0.239461;0.216957;0.106233;0.064267;0.041635;0.021198;0.015271;0.009347;0.006594;0.005788;0.004325;0.003169;0.002448;0.002047;0.001671;0.001316;0.152636;0.164279;0.216561;0.297712;0.231006;0.20439;0.199074;0.314454;0.35127;0.366815;0.284878;0.272101;0.306734;0.274172;0.338454;0.441322;0.325386;0.314039;0.265775;0.196557;0.223208;0.180593;0.104664;0.061656;0.038128;0.018556;0.012417;0.008452;0.006934;0.004801;0.004261;0.002688;0.002132;0.00185;0.001365;0.001088;0.111745;0.118546;0.2408;0.266667;0.317465;0.274559;0.203836;0.250873;0.205019;0.164274;0.156687;0.181141;0.175765;0.194131;0.291243;0.333749;0.287042;0.204576;0.098341;0.080841;0.054949;0.024205;0.020315;0.01734;0.011131;0.007583;0.004997;0.003169;0.002575;0.002152;0.001622;0.001224;0.001103;0.000882;0.000658;0.000606;0.158706;0.1654435;0.2236255;0.2894695;0.210936;0.1971175;0.2053495;0.311973;0.3492065;0.3515775;0.3393585;0.316391;0.310001;0.3662405;0.4180795;0.3777185;0.3270985;0.315079;0.2864505;0.276176;0.2241255;0.1843135;0.1019545;0.063572;0.040632;0.019789;0.012401;0.008285;0.0067565;0.0051065;0.004231;0.002992;0.0023315;0.0018095;0.001368;0.0011255;0.175227;0.18396;0.248869;0.320843;0.23647;0.246643;0.236352;0.392578;0.452906;0.434784;0.38132;0.395915;0.400405;0.46271;0.480354;0.468092;0.343148;0.350541;0.349199;0.349805;0.254406;0.223743;0.109713;0.067984;0.047659;0.024466;0.016082;0.009545;0.007009;0.005894;0.00447;0.003376;0.002449;0.002064;0.001703;0.001358;0.117709;0.125698;0.201039;0.187144;0.192165;0.180598;0.163659;0.274907;0.267647;0.24233;0.284878;0.22908;0.274029;0.250567;0.297395;0.266928;0.276076;0.256165;0.243546;0.195347;0.199453;0.17129;0.085045;0.055946;0.034344;0.016414;0.010832;0.007272;0.005897;0.004335;0.003735;0.002484;0.001973;0.001653;0.001237;0.001012;0.08572899725316575;0.0221882825481636
15;EMSC-20100211_0000053;2010-02-11 21:56:32;14302598;usp000h76q;2153739;20100211_0000053;;34.1091;25.4225;26.6329;ISC-webservice;TF;5.2;ISC-webservice;5.3;ISC-webservice;5.01;ISC-webservice;5.48;HaKaM0;HCMTS;;;;;;;;;;;HL;IACM;00;HN;0.0;;;;GR;35.3058;25.0709;45;;;;;;;;10.145915;816.166285;136.6;139.17209261346184;166.3;;;;;D;0;E;90.0;N;0.0;Z;0.06;0.06;0.06;30.0;30.0;30.0;13.333333333333334;5.48;26.6329;90;139.17209261346184;139.17209261346184;136.6;123.8;816.166285;False;31.07;3;0.890799;-0.717565;0.475921;0.8818455;0.958534;0.679996;-0.106297;-0.121665;0.044375;0.10597;0.122247;0.0974265;0.032922;-0.027915;0.020287;0.03068995;0.0355756;0.0203834;69.535;64.455;68.755;66.947;68.1875;70.52;63.615;0.584428;0.607589;0.198196;0.588503;0.614432;0.554518;15.6975618304;14.6802508079;8.10116108989;15.2969787059;16.0250356169;14.6122184762;0.00645792266581;0.0052681915098;0.00158636148692;0.0058630567854;0.00655364806397;0.00517246596044;0.891494;0.898126;0.918401;0.936251;0.939071;0.931923;1.27984;1.80327;1.9661;2.49336;2.6739;3.95616;2.74869;2.20299;2.50326;2.20427;2.21235;2.56857;2.82773;2.68936;2.10829;1.72049;0.792193;0.768128;0.617018;0.396524;0.260556;0.272044;0.157137;0.090294;0.065404;0.047994;0.045433;0.045141;0.033552;0.025878;0.717567;0.720846;0.740705;0.817156;0.745563;0.877997;1.04998;1.37669;1.89982;2.45381;2.238;2.27747;2.53554;2.61031;2.43636;2.51212;3.06071;2.75154;2.2976;2.56668;2.62618;1.19279;1.13068;0.902079;0.719624;0.334205;0.248629;0.212343;0.142103;0.09409;0.078993;0.069515;0.062858;0.038621;0.033198;0.028689;0.476158;0.483102;0.521235;0.526755;0.49975;0.637942;0.868382;0.904341;0.932511;0.938827;1.72199;1.41967;1.97778;1.48433;1.47847;1.34727;1.4788;1.11459;0.758607;0.769183;0.524743;0.268867;0.215109;0.230687;0.194832;0.155985;0.092446;0.06022;0.073551;0.086353;0.059383;0.050312;0.051399;0.036525;0.029538;0.022;0.8819425;0.888592;0.904552;0.905459;0.928186;0.9446955;1.174755;1.45554;1.857615;2.584475;2.38346;3.104675;2.88159;2.391575;2.47522;2.395435;2.521255;2.475985;2.51938;2.454995;2.18116;1.44413;1.173715;0.786723;0.6747675;0.3892235;0.255786;0.242395;0.1502075;0.0921965;0.071794;0.058795;0.0529235;0.0413005;0.0333825;0.026968;0.958866;0.963343;1.00014;0.994703;1.04919;1.07772;1.27984;1.88716;1.9661;2.81921;2.86445;3.9782;3.12111;2.64932;2.7943;2.57344;3.0756;2.77655;3.02444;2.73613;2.63957;1.73863;1.27078;0.986777;0.757961;0.44487;0.273898;0.309125;0.205325;0.127847;0.091681;0.072323;0.072029;0.052091;0.044366;0.032892;0.680391;0.686679;0.702871;0.764954;0.716193;0.812067;1.00351;1.27988;1.59707;2.36134;1.89061;1.80239;2.40144;2.08209;2.20394;2.08609;2.2041;1.89359;1.96797;1.81758;1.82749;1.16796;0.779823;0.694788;0.47058;0.315878;0.200685;0.126235;0.096052;0.065941;0.056435;0.047999;0.035078;0.022774;0.020123;0.01685;0.950187312748023;0.31640495000247043
