;event_id;event_time;ISC_ev_id;USGS_ev_id;INGV_ev_id;EMSC_ev_id;ev_nation_code;ev_latitude;ev_longitude;ev_depth_km;ev_hyp_ref;fm_type_code;ML;ML_ref;Mw;Mw_ref;Ms;Ms_ref;EMEC_Mw;EMEC_Mw_type;EMEC_Mw_ref;event_source_id;es_strike;es_dip;es_rake;es_strike_dip_rake_ref;es_z_top;es_z_top_ref;es_length;es_width;es_geometry_ref;network_code;station_code;location_code;instrument_code;sensor_depth_m;proximity_code;housing_code;installation_code;st_nation_code;st_latitude;st_longitude;st_elevation;ec8_code;ec8_code_method;ec8_code_ref;vs30_m_sec;vs30_ref;vs30_calc_method;vs30_meas_type;slope_deg;vs30_m_sec_WA;epi_dist;hypo_dist;epi_az;JB_dist;rup_dist;Rx_dist;Ry0_dist;instrument_type_code;late_triggered_flag_01;U_channel_code;U_azimuth_deg;V_channel_code;V_azimuth_deg;W_channel_code;U_hp;V_hp;W_hp;U_lp;V_lp;W_lp;max_usable_T;mag;hypo_depth;rake;rhypo;rrup;rjb;xvf;vs30;vs30measured;z1pt0;region;U_pga;V_pga;W_pga;rotD50_pga;rotD100_pga;rotD00_pga;U_pgv;V_pgv;W_pgv;rotD50_pgv;rotD100_pgv;rotD00_pgv;U_pgd;V_pgd;W_pgd;rotD50_pgd;rotD100_pgd;rotD00_pgd;U_T90;V_T90;W_T90;GM_T90;rotD50_T90;rotD100_T90;rotD00_T90;U_housner;V_housner;W_housner;rotD50_housner;rotD100_housner;rotD00_housner;U_CAV;V_CAV;W_CAV;rotD50_CAV;rotD100_CAV;rotD00_CAV;U_ia;V_ia;W_ia;rotD50_ia;rotD100_ia;rotD00_ia;U_T0_010;U_T0_025;U_T0_040;U_T0_050;U_T0_070;U_T0_100;U_T0_150;U_T0_200;U_T0_250;U_T0_300;U_T0_350;U_T0_400;U_T0_450;U_T0_500;U_T0_600;U_T0_700;U_T0_750;U_T0_800;U_T0_900;U_T1_000;U_T1_200;U_T1_400;U_T1_600;U_T1_800;U_T2_000;U_T2_500;U_T3_000;U_T3_500;U_T4_000;U_T4_500;U_T5_000;U_T6_000;U_T7_000;U_T8_000;U_T9_000;U_T10_000;V_T0_010;V_T0_025;V_T0_040;V_T0_050;V_T0_070;V_T0_100;V_T0_150;V_T0_200;V_T0_250;V_T0_300;V_T0_350;V_T0_400;V_T0_450;V_T0_500;V_T0_600;V_T0_700;V_T0_750;V_T0_800;V_T0_900;V_T1_000;V_T1_200;V_T1_400;V_T1_600;V_T1_800;V_T2_000;V_T2_500;V_T3_000;V_T3_500;V_T4_000;V_T4_500;V_T5_000;V_T6_000;V_T7_000;V_T8_000;V_T9_000;V_T10_000;W_T0_010;W_T0_025;W_T0_040;W_T0_050;W_T0_070;W_T0_100;W_T0_150;W_T0_200;W_T0_250;W_T0_300;W_T0_350;W_T0_400;W_T0_450;W_T0_500;W_T0_600;W_T0_700;W_T0_750;W_T0_800;W_T0_900;W_T1_000;W_T1_200;W_T1_400;W_T1_600;W_T1_800;W_T2_000;W_T2_500;W_T3_000;W_T3_500;W_T4_000;W_T4_500;W_T5_000;W_T6_000;W_T7_000;W_T8_000;W_T9_000;W_T10_000;rotD50_T0_010;rotD50_T0_025;rotD50_T0_040;rotD50_T0_050;rotD50_T0_070;rotD50_T0_100;rotD50_T0_150;rotD50_T0_200;rotD50_T0_250;rotD50_T0_300;rotD50_T0_350;rotD50_T0_400;rotD50_T0_450;rotD50_T0_500;rotD50_T0_600;rotD50_T0_700;rotD50_T0_750;rotD50_T0_800;rotD50_T0_900;rotD50_T1_000;rotD50_T1_200;rotD50_T1_400;rotD50_T1_600;rotD50_T1_800;rotD50_T2_000;rotD50_T2_500;rotD50_T3_000;rotD50_T3_500;rotD50_T4_000;rotD50_T4_500;rotD50_T5_000;rotD50_T6_000;rotD50_T7_000;rotD50_T8_000;rotD50_T9_000;rotD50_T10_000;rotD100_T0_010;rotD100_T0_025;rotD100_T0_040;rotD100_T0_050;rotD100_T0_070;rotD100_T0_100;rotD100_T0_150;rotD100_T0_200;rotD100_T0_250;rotD100_T0_300;rotD100_T0_350;rotD100_T0_400;rotD100_T0_450;rotD100_T0_500;rotD100_T0_600;rotD100_T0_700;rotD100_T0_750;rotD100_T0_800;rotD100_T0_900;rotD100_T1_000;rotD100_T1_200;rotD100_T1_400;rotD100_T1_600;rotD100_T1_800;rotD100_T2_000;rotD100_T2_500;rotD100_T3_000;rotD100_T3_500;rotD100_T4_000;rotD100_T4_500;rotD100_T5_000;rotD100_T6_000;rotD100_T7_000;rotD100_T8_000;rotD100_T9_000;rotD100_T10_000;rotD00_T0_010;rotD00_T0_025;rotD00_T0_040;rotD00_T0_050;rotD00_T0_070;rotD00_T0_100;rotD00_T0_150;rotD00_T0_200;rotD00_T0_250;rotD00_T0_300;rotD00_T0_350;rotD00_T0_400;rotD00_T0_450;rotD00_T0_500;rotD00_T0_600;rotD00_T0_700;rotD00_T0_750;rotD00_T0_800;rotD00_T0_900;rotD00_T1_000;rotD00_T1_200;rotD00_T1_400;rotD00_T1_600;rotD00_T1_800;rotD00_T2_000;rotD00_T2_500;rotD00_T3_000;rotD00_T3_500;rotD00_T4_000;rotD00_T4_500;rotD00_T5_000;rotD00_T6_000;rotD00_T7_000;rotD00_T8_000;rotD00_T9_000;rotD00_T10_000;rotD50_AvgSA[0,3];rotD50_AvgSA[0,6]
5;EMSC-19980224_0000009;1998-02-24 15:11:42;1078580;usp0008ghb;;19980224_0000009;GR;36.3006;28.2246;30.6;ISC-webservice;U;4.2;ISC-webservice;;;3.8;ISC-webservice;4.8;Mw;RCMTS;;;;;;;;;;;HI;ROD4;00;HN;;;;;GR;36.429734;28.23436;;;;;;;;;0.904333;348.64047;14.4;33.81892961050069;183.5;;;;;A;0;3;160.0;2;250.0;Z;0.3;0.3;0.3;25.0;25.0;25.0;2.666666666666667;4.8;30.6;90;33.81892961050069;33.81892961050069;14.4;69.97;348.64047;False;31.07;3;-52.635823;30.143639;-21.153465;37.738289;53.133545;28.968937;3.840143;2.125813;0.746099;3.115415;4.32521;1.08647;0.449608;0.255785;-0.137584;0.362553;0.499115;0.147533;6.46;9.59;10.75;7.871;6.9025;10.36;6.46;11.2549;5.22404;2.81792;8.661275;11.8428;4.01138;67.5314898188;44.2167650227;50.7647389506;57.7788808036;69.4016018228;40.7406842727;1.40036023215;0.507045516453;0.575540150886;0.953702846322;1.48599686614;0.421408823189;52.757;53.2243;56.1763;58.4203;59.8605;99.5402;82.1076;81.9217;85.5406;117.892;136.79;126.293;106.497;90.6794;71.651;58.8632;53.6958;48.838;39.7136;33.0227;33.7927;26.4821;16.6878;12.2379;9.55537;5.43035;3.57506;2.14404;1.50134;1.1788;0.868784;0.586777;0.442788;0.364132;0.315882;0.275821;30.1624;30.8234;31.3136;31.7452;43.3867;59.2073;59.4683;100.553;64.7935;55.5791;51.3629;49.6645;47.4507;41.9059;38.5254;32.3634;29.2368;26.1111;20.3356;16.6815;12.2171;10.275;5.52391;4.76357;5.27053;3.17274;1.74184;1.58645;1.121;0.840048;0.619007;0.433898;0.325399;0.256246;0.209314;0.17626;21.221;22.6143;29.3004;35.2971;67.8907;51.6247;57.8514;82.7125;52.7681;42.6811;29.5982;18.0721;16.7332;16.3226;14.5178;17.318;14.2696;11.2071;10.8676;8.23303;5.1875;4.01765;3.26895;4.07038;2.47131;1.56931;0.943463;0.710524;0.459261;0.475352;0.352522;0.23011;0.192287;0.161973;0.13798;0.118962;37.77065;38.16205;40.07355;42.07775;45.4841;80.7789;76.6208;83.87415;76.18185;95.0308;102.68115;92.9589;85.22555;70.6988;57.3003;47.9012;43.28415;38.8918;31.2591;25.3147;25.32315;19.74575;12.4367;9.048905;7.078845;3.98617;2.756725;1.7736;1.283255;1.03431;0.801324;0.5732495;0.4421295;0.358856;0.3014885;0.2597015;53.2799;53.731;56.6726;59.0055;59.8665;100.978;82.8422;103.193;88.1925;126.897;142.742;130.486;111.461;96.2459;77.9144;64.7708;58.6593;52.8986;42.7404;35.3956;35.7964;27.555;16.8913;12.7333;9.9577;5.58955;3.87813;2.38698;1.76386;1.44207;1.11976;0.805676;0.624186;0.507429;0.426369;0.367212;29.089;29.9187;30.0951;30.0676;36.3979;49.8458;59.467;74.1063;54.0913;37.7172;51.5067;38.8683;29.8504;28.9445;29.725;20.9705;16.8322;13.1683;10.449;8.67051;6.61408;6.31337;4.96335;4.70653;3.53081;2.38302;1.59402;1.21643;1.06921;0.76951;0.441727;0.290591;0.215392;0.158347;0.129414;0.108866;14.399092667799138;4.002421404933827
6;EMSC-19980423_0000011;1998-04-23 12:03:32;1094141;usp0008ku1;;19980423_0000011;GR;38.2871;20.3991;17.7;ISC-webservice;U;4.0;ISC-webservice;;;;;4.5;Mw;Pap;;;;;;;;;;;HL;LXRA;00;HN;;;;;GR;38.19948;20.43735;8;;;;;;;;2.768686;483.338872;10.3;20.478769494283586;341.0;;;;;D;0;3;340.0;2;250.0;Z;0.4;0.4;0.4;40.0;40.0;40.0;2.0;4.5;17.7;90;20.478769494283586;20.478769494283586;10.3;119.68;483.338872;False;31.07;3;-77.971655;-69.913796;61.212433;78.3068585;95.441887;67.2631;-1.337584;-2.234942;-0.691017;1.8704;2.44716;1.17509;-0.063217;-0.097414;0.057953;0.0927277;0.112863;0.0575054;2.72;3.76;4.54;3.198;3.48;3.91;2.685;1.7896;2.72223;1.24373;2.21122;2.88832;1.64154;69.548749026;61.2144161393;64.3847661112;65.5793653982;69.6828665481;60.1644834748;2.26630588465;1.62664353331;1.48693734946;1.94647466154;2.33090364059;1.56204568105;77.9823;100.308;164.905;359.156;288.698;173.896;75.7965;66.8658;41.5739;47.2217;23.61;20.7961;17.6406;12.8891;7.49253;5.98789;5.89719;5.58472;7.42617;5.64593;3.51155;2.83784;2.23758;1.34258;1.30042;0.695015;0.628722;0.447751;0.366652;0.321231;0.269236;0.204768;0.160441;0.130788;0.110578;0.096179;70.8044;78.395;124.333;241.483;157.103;188.015;176.916;119.206;126.585;90.075;56.1495;37.5065;30.4033;25.913;14.3277;9.82223;7.47829;6.59419;6.80651;5.66608;3.84264;3.05282;2.49057;2.1578;1.63938;0.923954;0.754638;0.614757;0.485822;0.405396;0.340412;0.279816;0.232178;0.197142;0.171305;0.151697;61.8657;84.5302;184.56;216.348;216.008;105.927;60.7638;42.5023;21.4498;29.7808;15.1173;12.0185;12.3845;7.63645;6.36686;4.25976;3.70961;3.1972;4.12556;5.10208;2.20283;1.88753;1.54601;1.23161;1.00174;0.799275;0.867449;0.691273;0.486836;0.346106;0.242136;0.140359;0.100259;0.074432;0.058844;0.049149;79.05105;89.1197;136.2915;290.272;223.613;192.394;133.807;87.7593;93.9498;70.18085;42.2562;30.92085;23.11925;19.20055;11.24125;7.87951;6.58892;6.043755;7.068375;5.663915;3.754345;2.82568;2.2958;1.80189;1.39409;0.871113;0.709437;0.591672;0.4999455;0.4306165;0.3570245;0.2700815;0.218404;0.1832585;0.1580805;0.1390745;95.8948;116.391;165.989;382.346;316.224;203.975;185.075;123.892;126.586;90.0748;57.3956;40.1175;31.9415;26.5976;15.6558;10.6128;8.29536;7.20249;8.01213;6.74307;4.21152;3.30212;2.95224;2.54825;1.91308;1.02541;0.78271;0.658845;0.541625;0.490412;0.424417;0.336497;0.273113;0.228742;0.197266;0.173663;68.1147;76.6778;100.109;168.124;127.247;152.822;71.2057;64.0796;41.574;42.3248;22.6371;18.7558;14.5009;9.93924;5.48906;4.20358;3.45628;4.08595;3.79288;3.09919;3.04142;1.9978;1.42431;0.949217;0.709033;0.566709;0.609057;0.424922;0.31142;0.271127;0.23052;0.179023;0.140884;0.115583;0.098076;0.085371;4.014794827470328;1.3910351438395099
7;EMSC-19981006_0000006;1998-10-06 12:27:43;1310267;usp0008w2m;;19981006_0000006;GR;37.2473;21.1688;24.4;ISC-webservice;TF;5.2;ISC-webservice;5.4;ISC-webservice;5.3;ISC-webservice;5.4;Mw;RCMTS;;;;;;;;;;;HI;KYP1;00;HN;0.0;1;BUB;;GR;37.252724;21.665753;;B;VS30;Vs30_ref;641.0;Stewart_et_al_2014;3;CH;2.627308;473.292337;44.1;50.40009920625157;269.4;;;;;A;0;3;297.0;2;27.0;Z;0.5;0.5;0.5;25.0;25.0;25.0;1.6;5.4;24.4;90;50.40009920625157;50.40009920625157;44.1;132.24;641.0;True;31.07;3;-62.815242;-63.244815;-14.381657;62.9843905;73.483505;35.131073;2.100039;1.628891;0.504177;1.86525;2.40486;0.981647;0.159503;-0.109361;-0.053773;0.1367535;0.192392;0.10383;9.275;8.7;15.29;8.983;9.0525;10.305;7.265;4.67462;3.87331;1.63525;4.422945;4.99951;3.78421;86.8130789677;70.9017276907;40.4705435251;78.6630926243;88.8756898102;66.9109041217;1.67896081735;1.2720858974;0.229774816237;1.47552329855;2.11460505055;0.836441615501;63.3219;65.575;67.1407;75.4565;126.997;153.818;217.683;92.1341;80.1282;100.43;69.4829;73.7799;63.892;52.036;32.7325;25.9937;19.995;19.6159;14.2899;14.0285;8.26074;5.71717;4.77287;4.25972;3.05335;1.63222;1.05749;0.58792;0.439071;0.399894;0.379699;0.295827;0.209985;0.153639;0.13021;0.120653;63.4783;64.605;73.6686;71.7912;104.418;113.094;246.804;112.916;65.0917;44.3807;62.9826;61.4145;51.509;38.8598;33.1548;25.7548;22.0538;21.5268;16.3885;8.64591;5.47058;6.0733;3.86582;2.24783;1.60725;0.88396;0.860652;0.573137;0.473706;0.380235;0.271019;0.17974;0.146437;0.124533;0.107701;0.095756;14.4365;14.9017;16.2804;18.0451;29.2818;40.1655;40.8049;46.2204;31.7467;18.1311;15.9352;14.141;16.9108;13.44;11.0574;8.52469;8.5284;8.07831;6.1846;7.65871;4.28471;1.9749;1.61137;1.19431;1.25988;0.645944;0.435956;0.281244;0.269031;0.177833;0.125501;0.095373;0.068442;0.053203;0.047731;0.041504;63.3649;64.9835;70.35515;73.42465;104.5805;126.5985;232.5495;100.60085;72.881;77.13565;64.9557;68.5679;58.6853;47.20095;35.20345;25.08245;22.2591;21.15145;15.8442;13.5475;7.59493;5.66523;4.042855;3.2296;2.67104;1.316745;0.910508;0.606711;0.4627935;0.3880965;0.312498;0.2343665;0.1835435;0.148762;0.1278555;0.1136905;73.5644;75.2839;79.987;81.9383;127.342;176.291;309.461;127.302;90.6381;105.213;71.4661;76.0639;78.9517;62.3402;44.3744;28.1766;25.026;23.5806;18.198;14.4501;9.09139;7.11446;4.99722;4.23637;3.13228;1.85119;1.17787;0.84318;0.649103;0.544723;0.439531;0.330082;0.258963;0.209704;0.17499;0.149616;35.2893;37.1125;43.3373;45.8705;94.1453;95.2375;84.7995;57.0458;43.7625;45.0553;49.1485;39.0835;30.335;31.1348;29.3171;22.7446;19.6345;18.3524;13.0031;8.30778;5.18081;4.82517;3.41591;1.81483;1.62096;0.889281;0.685681;0.481095;0.353304;0.294465;0.228419;0.139974;0.116792;0.10004;0.08357;0.070033;6.702483173015327;1.7462318023252195
8;EMSC-19981008_0000001;1998-10-08 03:50:18;1310621;usp0008w5z;;19981008_0000001;GR;37.8227;20.3922;39.4;ISC-webservice;U;4.8;ISC-webservice;;;4.8;ISC-webservice;5.1;Mw;RCMTS;;;;;;;;;;;HI;ZAK1;00;HN;;;;;GR;37.785;20.9;;C;VS30;Vs30_ref;251.0;Stewart_et_al_2014;3;DH;;;44.9;59.735835141060846;275.5;;;;;A;0;3;140.0;2;230.0;Z;0.4;0.4;0.4;25.0;25.0;25.0;2.0;5.1;39.4;90;59.735835141060846;59.735835141060846;44.9;131.16;251.0;True;31.07;3;-59.302913;-62.816543;-14.830936;60.991686;75.592926;25.181366;2.088097;1.689768;0.536853;1.828995;2.41885;1.01362;0.147889;-0.149345;-0.07274;0.1486175;0.207299;0.121442;9.25;8.7;15.295;8.971;9.0925;10.61;7.24;4.76247;4.16453;1.9621;4.59223;5.03641;4.09282;82.8110895839;72.3558140768;41.8761074256;77.2896910136;85.585427664;65.7882480384;1.52213942034;1.30640225691;0.246374823967;1.4142709097;2.07620777272;0.752333979658;59.3413;61.3458;62.7156;70.0745;120.864;146.265;206.32;88.2339;77.3237;95.4118;67.2939;69.7628;61.5317;50.6497;32.1237;24.7355;19.7288;19.5546;14.5335;14.4258;8.55609;5.63566;4.94807;4.94214;3.91219;1.81322;1.17125;0.608518;0.551266;0.378901;0.355844;0.301224;0.212255;0.159704;0.127055;0.12013;63.1959;64.3866;73.3833;71.3787;104.747;114.743;251.487;112.92;65.7875;45.437;64.1229;61.6652;51.0925;37.8524;34.2133;25.6132;23.4849;21.6317;17.2503;9.43538;5.81342;6.3029;4.94771;2.97178;2.29275;1.48106;1.18883;0.884353;0.674572;0.62198;0.456248;0.251699;0.165481;0.131372;0.114686;0.103638;14.849;15.3015;16.7019;19.149;30.9899;43.5932;41.1445;47.5905;33.4059;18.4685;16.1853;14.7833;17.408;13.4139;13.0611;8.59843;9.25816;8.18491;7.60654;8.57961;5.25497;2.39221;2.36988;2.11974;1.78949;0.77672;0.858918;0.703843;0.525809;0.435007;0.276131;0.152226;0.117359;0.079828;0.063857;0.057245;61.0811;62.8659;67.05735;70.72625;108.796;127.9405;229.7635;99.6038;71.7325;74.28475;65.75435;66.7308;57.6441;45.90065;34.6145;24.6938;22.7268;21.3562;15.94015;13.80635;7.91244;5.75445;4.90561;3.790955;3.23771;1.555905;1.11795;0.8148185;0.654517;0.5037125;0.388571;0.267963;0.1987855;0.1608865;0.136065;0.118018;75.8772;76.9683;83.1315;82.3112;128.201;173.613;311.818;129.024;87.8908;102.156;70.981;72.9273;76.3745;60.3338;44.9089;27.1005;25.6472;24.0318;18.5952;15.0223;9.54697;7.27992;5.94742;4.92091;3.88141;2.13879;1.28442;0.94266;0.742467;0.67201;0.53651;0.373106;0.277873;0.218499;0.179475;0.155695;25.4247;26.3491;29.8623;37.1379;73.7082;67.3854;64.2734;50.9559;43.9349;45.4368;48.1726;38.8357;32.0033;30.9321;28.9881;22.1019;19.3221;18.2627;13.7143;9.18238;5.84269;5.06019;3.91588;2.54911;2.32134;1.40775;0.910733;0.562817;0.482864;0.378402;0.284279;0.190969;0.144905;0.115717;0.098369;0.080642;7.350212854677461;2.0349376465083333
9;EMSC-19981122_0000005;1998-11-22 21:52:52;1325352;usp0008ym2;;19981122_0000005;GR;38.088;20.4044;31.7;ISC-webservice;U;4.2;ISC-webservice;;;4.0;ISC-webservice;4.7;Mw;Pap;;;;;;;;;;;HL;ARGA;00;HN;;;;;GR;38.17704;20.47886;6;;;;;;;;3.655331;526.099066;11.8;33.82499076126999;213.5;;;;;D;0;3;60.0;2;330.0;Z;0.4;0.4;0.4;40.0;40.0;40.0;2.0;4.7;31.7;90;33.82499076126999;33.82499076126999;11.8;119.68;526.099066;False;31.07;3;36.062562;20.04425;22.995324;27.71722;36.062561;20.04425;0.797361;-0.578923;-0.407574;0.6406115;0.816318;0.551144;-0.067904;0.058829;-0.028018;0.06769835;0.075918;0.0526409;6.485;7.925;7.235;7.169;7.14;8.095;6.21;1.62774;1.6434;0.877614;1.64852;1.75476;1.61278;36.6752990615;37.3548856465;28.6717833054;37.1239898002;40.537657664;33.9573779648;0.382813825789;0.330502714158;0.230851494577;0.356658259201;0.405222221827;0.308094299844;36.2318;38.0146;42.0396;67.9646;83.692;107.711;59.8921;42.4883;44.3527;39.2869;23.0177;12.0967;8.48709;8.7997;7.43713;5.63325;4.96004;3.81868;4.07449;3.14235;2.10569;3.15707;2.54496;1.73299;1.42218;1.31471;0.626181;0.412363;0.273503;0.218033;0.166979;0.123864;0.098879;0.08145;0.068314;0.05832;20.1806;21.4587;40.6076;71.6371;57.6165;53.1259;39.2182;36.8409;48.7055;42.3385;34.2337;17.7773;13.875;17.1524;12.2787;8.32498;6.64195;5.50503;4.31386;3.91001;3.88654;1.91705;1.81813;1.5446;1.31018;0.639266;0.517584;0.438823;0.255919;0.175345;0.126217;0.094832;0.073706;0.058475;0.048547;0.040074;23.0174;29.0203;63.7046;87.496;68.1736;55.716;31.8608;23.7099;25.0589;20.7234;15.8271;8.24082;6.13594;4.74551;2.86754;2.5883;1.98448;2.3452;1.87021;2.15181;1.14259;1.02909;1.40007;1.33826;1.00276;0.471085;0.24159;0.173439;0.137403;0.13282;0.09616;0.065006;0.048905;0.038422;0.032645;0.029747;28.1494;31.3327;41.84145;66.60945;76.057;86.04825;44.13505;46.04275;50.44725;39.6419;29.16465;14.64005;11.78115;13.24125;9.604385;6.819555;5.82055;4.737075;3.977875;3.609725;2.98268;2.60382;1.89845;1.655435;1.41102;1.037195;0.5660755;0.425939;0.277213;0.216183;0.16055;0.113845;0.0868695;0.0689785;0.0575255;0.0509035;36.2318;38.0145;50.3508;75.0255;92.4536;107.73;61.4366;52.2221;53.5699;49.5252;41.2451;19.6277;15.9709;18.726;13.0514;8.32578;7.65369;6.67485;4.35644;4.22421;4.08978;3.28867;2.55696;1.76035;1.60417;1.32572;0.687078;0.483234;0.315352;0.226296;0.171408;0.124261;0.099946;0.083297;0.070647;0.060725;20.1805;21.4586;38.4795;59.4456;52.4398;48.2844;37.4484;36.8408;41.2186;35.2713;20.4449;11.0035;7.41509;8.30702;6.93982;5.10908;4.47296;3.09393;3.43323;3.14389;2.05424;1.51554;1.67204;1.51798;1.06557;0.47666;0.494528;0.372639;0.236466;0.168851;0.120598;0.084309;0.066927;0.055008;0.046179;0.039272;3.1483062524411083;0.8812647325024016
10;EMSC-19981122_0000005;1998-11-22 21:52:52;1325352;usp0008ym2;;19981122_0000005;GR;38.088;20.4044;31.7;ISC-webservice;U;4.2;ISC-webservice;;;4.0;ISC-webservice;4.7;Mw;Pap;;;;;;;;;;;HL;LXRA;00;HN;;;;;GR;38.19948;20.43735;8;;;;;;;;2.768686;483.338872;12.7;34.14937773957236;193.1;;;;;D;0;3;340.0;2;250.0;Z;0.4;0.4;0.4;40.0;40.0;40.0;2.0;4.7;31.7;90;34.14937773957236;34.14937773957236;12.7;119.68;483.338872;False;31.07;3;35.384908;-47.856726;-24.714125;46.8929655;56.204124;33.848804;0.899499;-1.443254;-0.336662;1.185825;1.6273;0.681983;0.059465;0.163514;0.05803;0.120392;0.170259;0.0553344;7.695;6.575;9.015;7.113;6.7275;7.805;6.51;1.68729;2.99463;1.101;2.39623;3.09339;1.61116;48.0149306516;53.5312379567;39.6108671251;50.8129575228;54.490077486;46.60920618;0.562587083086;0.873794987278;0.336322912465;0.718191015339;0.907378299002;0.529003735156;36.5458;48.0345;128.636;110.181;163.651;48.4924;51.8072;43.3582;35.6824;27.6357;25.7927;23.7668;17.9425;14.9111;11.2404;8.08835;5.771;5.17333;5.51619;3.63354;3.54011;2.77055;2.91559;1.70598;0.957788;0.677678;0.603102;0.466775;0.34881;0.266896;0.155473;0.105412;0.076524;0.063171;0.050227;0.045404;49.633;56.1388;159.068;136.29;194.442;71.0203;98.8642;83.5839;61.5625;33.637;29.0825;28.6456;28.6591;24.666;17.7992;15.7547;13.5466;12.0425;10.3361;8.37609;5.56605;4.17799;3.20711;2.5457;3.0665;1.93623;1.05641;0.75408;0.556769;0.46508;0.365103;0.245064;0.175306;0.136288;0.112011;0.094841;25.8294;43.5905;109.191;53.1532;50.295;30.6275;45.3992;34.9248;19.6111;16.9572;17.7562;13.5765;11.2829;8.90802;6.80423;5.68876;4.28478;4.23014;3.02262;2.91823;1.6117;2.22936;1.34727;0.932204;0.66955;0.635153;0.394935;0.424394;0.286228;0.206398;0.156585;0.100929;0.080498;0.065492;0.051267;0.040341;47.2297;57.8524;132.44;124.2965;180.769;62.7731;77.069;67.6129;51.0895;32.69845;27.0149;26.0674;22.8573;20.5024;14.64145;12.50075;10.8809;9.574375;7.843365;6.208055;4.25322;3.21754;2.9025;2.190485;2.38322;1.47351;0.787566;0.578501;0.4416925;0.3559465;0.275309;0.1882015;0.1372835;0.1070805;0.087367;0.0734885;57.8311;66.5045;186.21;173.831;222.629;71.5103;101.026;83.8241;63.3123;39.6333;31.7037;31.5368;31.949;28.3586;19.0204;16.6015;14.7041;12.8838;10.4794;8.49618;5.76174;4.36436;3.23401;2.62142;3.07961;1.95481;1.09316;0.78734;0.588782;0.484943;0.375053;0.255345;0.184591;0.141734;0.114097;0.095863;35.5409;47.2969;82.3262;75.7101;161.603;47.1435;49.3498;41.2057;34.8197;26.0046;21.3725;17.4294;14.27;12.3119;9.23529;7.10261;5.77055;4.60916;3.9967;3.04769;2.06866;2.18093;2.04457;1.6594;0.95913;0.570594;0.550756;0.422241;0.242883;0.174999;0.135242;0.096056;0.072199;0.056601;0.048737;0.041823;4.576094686330815;1.3861027545211184
