;event_id;event_time;ISC_ev_id;USGS_ev_id;INGV_ev_id;EMSC_ev_id;ev_nation_code;ev_latitude;ev_longitude;ev_depth_km;ev_hyp_ref;fm_type_code;ML;ML_ref;Mw;Mw_ref;Ms;Ms_ref;EMEC_Mw;EMEC_Mw_type;EMEC_Mw_ref;event_source_id;es_strike;es_dip;es_rake;es_strike_dip_rake_ref;es_z_top;es_z_top_ref;es_length;es_width;es_geometry_ref;network_code;station_code;location_code;instrument_code;sensor_depth_m;proximity_code;housing_code;installation_code;st_nation_code;st_latitude;st_longitude;st_elevation;ec8_code;ec8_code_method;ec8_code_ref;vs30_m_sec;vs30_ref;vs30_calc_method;vs30_meas_type;slope_deg;vs30_m_sec_WA;epi_dist;hypo_dist;epi_az;JB_dist;rup_dist;Rx_dist;Ry0_dist;instrument_type_code;late_triggered_flag_01;U_channel_code;U_azimuth_deg;V_channel_code;V_azimuth_deg;W_channel_code;U_hp;V_hp;W_hp;U_lp;V_lp;W_lp;max_usable_T;mag;hypo_depth;rake;rhypo;rrup;rjb;xvf;vs30;vs30measured;z1pt0;region;U_pga;V_pga;W_pga;rotD50_pga;rotD100_pga;rotD00_pga;U_pgv;V_pgv;W_pgv;rotD50_pgv;rotD100_pgv;rotD00_pgv;U_pgd;V_pgd;W_pgd;rotD50_pgd;rotD100_pgd;rotD00_pgd;U_T90;V_T90;W_T90;GM_T90;rotD50_T90;rotD100_T90;rotD00_T90;U_housner;V_housner;W_housner;rotD50_housner;rotD100_housner;rotD00_housner;U_CAV;V_CAV;W_CAV;rotD50_CAV;rotD100_CAV;rotD00_CAV;U_ia;V_ia;W_ia;rotD50_ia;rotD100_ia;rotD00_ia;U_T0_010;U_T0_025;U_T0_040;U_T0_050;U_T0_070;U_T0_100;U_T0_150;U_T0_200;U_T0_250;U_T0_300;U_T0_350;U_T0_400;U_T0_450;U_T0_500;U_T0_600;U_T0_700;U_T0_750;U_T0_800;U_T0_900;U_T1_000;U_T1_200;U_T1_400;U_T1_600;U_T1_800;U_T2_000;U_T2_500;U_T3_000;U_T3_500;U_T4_000;U_T4_500;U_T5_000;U_T6_000;U_T7_000;U_T8_000;U_T9_000;U_T10_000;V_T0_010;V_T0_025;V_T0_040;V_T0_050;V_T0_070;V_T0_100;V_T0_150;V_T0_200;V_T0_250;V_T0_300;V_T0_350;V_T0_400;V_T0_450;V_T0_500;V_T0_600;V_T0_700;V_T0_750;V_T0_800;V_T0_900;V_T1_000;V_T1_200;V_T1_400;V_T1_600;V_T1_800;V_T2_000;V_T2_500;V_T3_000;V_T3_500;V_T4_000;V_T4_500;V_T5_000;V_T6_000;V_T7_000;V_T8_000;V_T9_000;V_T10_000;W_T0_010;W_T0_025;W_T0_040;W_T0_050;W_T0_070;W_T0_100;W_T0_150;W_T0_200;W_T0_250;W_T0_300;W_T0_350;W_T0_400;W_T0_450;W_T0_500;W_T0_600;W_T0_700;W_T0_750;W_T0_800;W_T0_900;W_T1_000;W_T1_200;W_T1_400;W_T1_600;W_T1_800;W_T2_000;W_T2_500;W_T3_000;W_T3_500;W_T4_000;W_T4_500;W_T5_000;W_T6_000;W_T7_000;W_T8_000;W_T9_000;W_T10_000;rotD50_T0_010;rotD50_T0_025;rotD50_T0_040;rotD50_T0_050;rotD50_T0_070;rotD50_T0_100;rotD50_T0_150;rotD50_T0_200;rotD50_T0_250;rotD50_T0_300;rotD50_T0_350;rotD50_T0_400;rotD50_T0_450;rotD50_T0_500;rotD50_T0_600;rotD50_T0_700;rotD50_T0_750;rotD50_T0_800;rotD50_T0_900;rotD50_T1_000;rotD50_T1_200;rotD50_T1_400;rotD50_T1_600;rotD50_T1_800;rotD50_T2_000;rotD50_T2_500;rotD50_T3_000;rotD50_T3_500;rotD50_T4_000;rotD50_T4_500;rotD50_T5_000;rotD50_T6_000;rotD50_T7_000;rotD50_T8_000;rotD50_T9_000;rotD50_T10_000;rotD100_T0_010;rotD100_T0_025;rotD100_T0_040;rotD100_T0_050;rotD100_T0_070;rotD100_T0_100;rotD100_T0_150;rotD100_T0_200;rotD100_T0_250;rotD100_T0_300;rotD100_T0_350;rotD100_T0_400;rotD100_T0_450;rotD100_T0_500;rotD100_T0_600;rotD100_T0_700;rotD100_T0_750;rotD100_T0_800;rotD100_T0_900;rotD100_T1_000;rotD100_T1_200;rotD100_T1_400;rotD100_T1_600;rotD100_T1_800;rotD100_T2_000;rotD100_T2_500;rotD100_T3_000;rotD100_T3_500;rotD100_T4_000;rotD100_T4_500;rotD100_T5_000;rotD100_T6_000;rotD100_T7_000;rotD100_T8_000;rotD100_T9_000;rotD100_T10_000;rotD00_T0_010;rotD00_T0_025;rotD00_T0_040;rotD00_T0_050;rotD00_T0_070;rotD00_T0_100;rotD00_T0_150;rotD00_T0_200;rotD00_T0_250;rotD00_T0_300;rotD00_T0_350;rotD00_T0_400;rotD00_T0_450;rotD00_T0_500;rotD00_T0_600;rotD00_T0_700;rotD00_T0_750;rotD00_T0_800;rotD00_T0_900;rotD00_T1_000;rotD00_T1_200;rotD00_T1_400;rotD00_T1_600;rotD00_T1_800;rotD00_T2_000;rotD00_T2_500;rotD00_T3_000;rotD00_T3_500;rotD00_T4_000;rotD00_T4_500;rotD00_T5_000;rotD00_T6_000;rotD00_T7_000;rotD00_T8_000;rotD00_T9_000;rotD00_T10_000;rotD50_AvgSA[0,3];rotD50_AvgSA[0,6]
16;EMSC-20100312_0000003;2010-03-12 01:53:59;14402155;usp000h96n;;20100312_0000003;GR;36.3923;23.4691;65.4558;ISC-webservice;U;4.2;ISC-webservice;;;2.8;ISC-webservice;4.5;Mw;Pap10;;;;;;;;;;;HL;IACM;00;HN;0.0;;;;GR;35.3058;25.0709;45;;;;;;;;10.145915;816.166285;188.3;199.3523306952793;310.3;;;;;D;0;E;90.0;N;0.0;Z;0.15;0.15;0.15;30.0;30.0;30.0;5.333333333333334;4.5;65.4558;90;199.3523306952793;199.3523306952793;188.3;123.8;816.166285;False;31.07;3;1.012654;-1.344703;0.948975;1.1717085;1.344703;1.012654;-0.051866;-0.049212;0.035854;0.04792785;0.0553422;0.0425792;-0.003879;0.00329;0.002492;0.0037036;0.00400758;0.00311665;39.315;39.19;46.71;39.252;39.2675;40.315;38.335;0.142006;0.115191;0.0808572;0.132055;0.142414;0.109314;9.72278213799;9.21629223853;9.20118531539;9.4857264383;10.0047074732;8.91052512265;0.00341839212127;0.00283247779044;0.00251363246761;0.00312543487433;0.0034671564983;0.00278371339471;1.01485;1.03043;1.06761;1.18975;1.56488;1.80874;3.45924;3.17462;3.86271;2.81014;2.36297;1.84487;1.5989;1.80477;1.06508;0.790959;0.653733;0.651883;0.64054;0.503225;0.351752;0.164842;0.099037;0.066815;0.054292;0.033199;0.020777;0.015752;0.01309;0.010753;0.008831;0.007004;0.00579;0.00486;0.004234;0.003735;1.34545;1.37975;1.42379;1.60154;1.96963;2.06344;2.65821;4.21793;2.93301;2.8721;2.26367;1.79405;1.53481;1.65136;1.25286;0.5439;0.59376;0.583394;0.457713;0.280052;0.195606;0.130256;0.077274;0.057112;0.042691;0.022851;0.017453;0.013357;0.0111;0.01002;0.008231;0.005993;0.004531;0.003889;0.003449;0.002915;0.950546;0.974675;1.05027;1.14865;1.7202;2.36249;4.18155;3.63617;3.0115;1.68417;1.456;1.2125;1.27467;1.04534;0.681451;0.584014;0.450731;0.347912;0.270475;0.184897;0.094024;0.06903;0.046412;0.035539;0.029191;0.018114;0.013944;0.011425;0.009498;0.007255;0.005461;0.004677;0.003624;0.003138;0.002659;0.002268;1.17471;1.20097;1.25778;1.323225;1.762605;2.043375;3.213165;3.763755;3.018;2.654285;2.21694;1.81946;1.573975;1.8081;1.070235;0.658372;0.5923425;0.5772305;0.5568725;0.4757625;0.348352;0.1475385;0.0773305;0.05947;0.0467705;0.0283635;0.01969;0.01556;0.012583;0.010803;0.008846;0.0067735;0.005632;0.0048445;0.004098;0.0034665;1.34545;1.37975;1.42379;1.60154;1.96963;2.31215;3.63271;4.6531;4.05002;2.8721;2.42712;2.39329;1.85766;2.32336;1.38237;0.790959;0.655565;0.662698;0.652547;0.507565;0.376678;0.165512;0.099281;0.067197;0.054439;0.033943;0.021471;0.017675;0.013638;0.012118;0.009702;0.007521;0.006173;0.005248;0.00455;0.003957;1.01485;1.03043;1.06761;1.14199;1.47291;1.77912;2.45566;3.04905;2.61155;2.0649;1.80179;1.45048;1.43749;1.33538;0.854079;0.413773;0.430123;0.458029;0.363709;0.272664;0.195606;0.10858;0.071881;0.053066;0.041514;0.022851;0.016969;0.012468;0.010426;0.009093;0.007664;0.005603;0.004387;0.003707;0.003184;0.002897;0.16005294842505577;0.04353930013824187
17;EMSC-20100312_0000039;2010-03-12 11:42:49;14404584;usp000h984;;20100312_0000039;GR;35.3822;27.3886;32.1494;ISC-webservice;U;4.0;ISC-webservice;;;3.4;ISC-webservice;4.13;MwMb;ISC-webservice;;;;;;;;;;;GE;KARP;00;HN;0.0;;;;GR;35.5472;27.1612;528;;;;;;;;14.280055;925.130666;27.6;42.371498915662634;131.5;;;;;D;0;E;90.0;N;0.0;Z;0.25;0.25;0.25;30.0;30.0;30.0;3.2;4.13;32.1494;90;42.371498915662634;42.371498915662634;27.6;116.59;925.130666;False;31.07;3;-1.81596;-4.076552;-3.393509;3.1217055;4.076552;1.69197;0.050082;-0.075748;-0.062822;0.06862695;0.0757478;0.0381926;0.00334;0.005376;-0.00694;0.00444498;0.00547614;0.00255083;9.13;6.35;6.495;7.614;8.4725;9.465;6.22;0.0937636;0.178862;0.156997;0.1403575;0.179714;0.0919573;4.54759005966;6.07049465147;6.59462636969;5.42638363323;6.12690396757;4.45022774955;0.0028253061486;0.00692298132958;0.00795166911993;0.00487414391963;0.00709307141553;0.00265521556403;1.86477;2.19641;3.77178;7.32322;5.25572;4.96286;4.46445;2.98397;2.35026;1.78822;1.36635;1.00974;0.807771;0.774821;0.723181;0.76148;0.544539;0.466095;0.302804;0.281734;0.19979;0.106481;0.072125;0.062482;0.040712;0.025185;0.02077;0.013182;0.012336;0.011701;0.009175;0.00713;0.005738;0.004933;0.00428;0.003793;4.09365;4.44999;5.99559;7.64345;13.3651;11.7213;5.29244;4.40649;3.50457;2.46342;3.70323;2.02944;1.29734;1.31425;1.39906;1.36062;1.26542;1.08157;0.810758;0.608658;0.301673;0.219389;0.172575;0.124057;0.092168;0.05431;0.035677;0.025032;0.019161;0.01651;0.012678;0.009989;0.008093;0.00665;0.005668;0.004918;3.40246;3.59414;5.06135;7.21384;13.1531;14.1043;4.6117;2.87388;1.7683;2.32015;1.43379;1.18306;0.994032;1.06239;0.787634;0.623873;0.509074;0.493694;0.561382;0.588143;0.431593;0.354944;0.242668;0.15778;0.123258;0.076102;0.047635;0.032236;0.023201;0.019315;0.015641;0.010975;0.008097;0.006267;0.005295;0.004603;3.155875;3.413465;4.893285;7.537645;9.710355;9.317655;5.282285;3.378625;2.865425;2.47765;2.75026;1.62021;0.989851;0.93016;1.041625;1.02777;0.966451;0.81973;0.599947;0.451644;0.269435;0.1710185;0.1225805;0.08823;0.065793;0.038545;0.028339;0.0210635;0.017694;0.015723;0.0120475;0.0090825;0.007294;0.006161;0.005252;0.004603;4.09365;4.44999;6.12601;9.13541;13.5471;11.8208;5.70434;4.59174;3.60445;2.71552;3.71431;2.06243;1.32886;1.31425;1.43216;1.41802;1.30691;1.14229;0.829188;0.638721;0.345211;0.219389;0.172575;0.124058;0.092558;0.054312;0.035674;0.02518;0.020484;0.01815;0.015558;0.012208;0.009854;0.008214;0.007031;0.006138;1.72648;1.9692;3.39893;6.11886;5.17306;3.67114;4.26119;2.68876;2.09081;1.60834;1.23532;1.00975;0.756712;0.737762;0.721968;0.597693;0.544539;0.339884;0.200714;0.216027;0.193645;0.106481;0.064694;0.055209;0.037614;0.021253;0.017437;0.011527;0.008407;0.007927;0.005746;0.004428;0.003575;0.003032;0.00262;0.002348;0.21881038817378418;0.06222856899376863
18;EMSC-20100424_0000037;2010-04-24 15:01:10;14607261;usp000hbuw;2181569;20100424_0000037;;34.2407;26.0835;20.2761;ISC-webservice;TF;4.9;ISC-webservice;5.36;ISC-webservice;4.94;ISC-webservice;5.39;HaKaM0;HCMTS;;;;;;;;;;;GE;KARP;00;HN;0.0;;;;GR;35.5472;27.1612;528;;;;;;;;14.280055;925.130666;175.2;176.3693857539057;214.5;;;;;D;0;E;90.0;N;0.0;Z;0.03;0.03;0.03;30.0;30.0;30.0;26.666666666666668;5.39;20.2761;90;176.3693857539057;176.3693857539057;175.2;116.59;925.130666;False;31.07;3;0.117122;-0.141741;-0.139952;0.1160885;0.145013;0.093301;-0.015407;-0.021257;-0.021794;0.01872465;0.0224967;0.0133982;0.009681;-0.011215;-0.014089;0.009923765;0.0112932;0.00840867;87.515;86.975;82.58;87.245;87.33;91.905;83.685;0.0624821;0.079339;0.115564;0.07074105;0.0878529;0.059011;1.92629146947;2.50072947967;2.57974491991;2.21614386945;2.50568283974;1.90508571995;7.35728818593e-05;0.000127913215442;0.000144822793615;0.000100743050967;0.00012922999586;7.22560895516e-05;0.117333;0.122085;0.136634;0.147308;0.182097;0.304602;0.226843;0.185149;0.184783;0.259047;0.251784;0.198088;0.260123;0.229601;0.220167;0.243133;0.275997;0.231007;0.158148;0.191772;0.14283;0.150064;0.136056;0.111179;0.076196;0.090814;0.051174;0.049416;0.042357;0.05122;0.045081;0.029361;0.020207;0.020684;0.014617;0.009273;0.141772;0.142497;0.144795;0.143607;0.147893;0.202978;0.256805;0.244949;0.204713;0.268891;0.29254;0.331202;0.406844;0.400135;0.353151;0.440925;0.382824;0.355851;0.339596;0.273248;0.234923;0.134458;0.13334;0.121647;0.093934;0.104572;0.052952;0.04008;0.03371;0.047269;0.044164;0.021527;0.024031;0.022303;0.014483;0.011221;0.140058;0.140929;0.145878;0.140884;0.171179;0.265171;0.298378;0.213086;0.228197;0.272601;0.39443;0.289466;0.352086;0.374599;0.417033;0.399211;0.404272;0.418429;0.342536;0.388251;0.365994;0.195525;0.25709;0.242796;0.21996;0.094652;0.083896;0.053402;0.036643;0.037754;0.035012;0.023492;0.023051;0.023347;0.01423;0.014299;0.1162415;0.120268;0.131194;0.1384485;0.1529235;0.238459;0.2371045;0.2023015;0.2049865;0.261947;0.2808875;0.2798085;0.312766;0.3151115;0.3199345;0.3548715;0.289567;0.288441;0.2588415;0.2026235;0.197321;0.1424455;0.1346985;0.1152675;0.086085;0.094121;0.0519455;0.045957;0.038534;0.047821;0.0446225;0.0266835;0.021305;0.0212295;0.0145245;0.010633;0.145206;0.146071;0.148062;0.14801;0.182366;0.305956;0.26134;0.246409;0.229491;0.308463;0.302849;0.331202;0.420541;0.44538;0.401986;0.474097;0.402618;0.377342;0.339828;0.27528;0.244129;0.199323;0.176145;0.141786;0.104802;0.109718;0.053037;0.049514;0.045345;0.055338;0.049071;0.031745;0.02432;0.023585;0.01668;0.01333;0.093301;0.095753;0.10248;0.113004;0.135576;0.176384;0.195913;0.178996;0.178905;0.21152;0.243444;0.187399;0.250296;0.211262;0.180171;0.220148;0.259447;0.223496;0.156247;0.175591;0.14262;0.099581;0.105332;0.094912;0.071454;0.086285;0.046665;0.037713;0.03194;0.039572;0.024568;0.015445;0.019863;0.020351;0.012687;0.008196;0.13032330204131382;0.0718318363524885
19;EMSC-20100424_0000037;2010-04-24 15:01:10;14607261;usp000hbuw;2181569;20100424_0000037;;34.2407;26.0835;20.2761;ISC-webservice;TF;4.9;ISC-webservice;5.36;ISC-webservice;4.94;ISC-webservice;5.39;HaKaM0;HCMTS;;;;;;;;;;;HL;IACM;00;HN;0.0;;;;GR;35.3058;25.0709;45;;;;;;;;10.145915;816.166285;150.2;151.5623971544723;141.6;;;;;D;0;E;90.0;N;0.0;Z;0.1;0.1;0.1;30.0;30.0;30.0;8.0;5.39;20.2761;90;151.5623971544723;151.5623971544723;150.2;123.8;816.166285;False;31.07;3;0.793967;-0.660256;0.40757;0.712286;0.806631;0.625016;0.121496;-0.11387;0.038889;0.1136465;0.129946;0.0967267;0.026442;0.023684;0.009899;0.0246432;0.0292266;0.022025;80.19;80.67;82.115;80.43;80.835;81.845;80.1;0.593874;0.498972;0.178507;0.550108;0.599045;0.498972;15.5705631625;15.3776643095;7.95407105642;15.4091436709;15.7255852183;15.3067382919;0.0052418559755;0.00513887836545;0.00127279902872;0.0051903670497;0.0052713481654;0.00510938670056;0.794126;0.803926;0.807453;0.832879;0.845842;0.796689;0.817396;0.901541;1.19281;1.26431;1.54286;1.48913;1.73697;2.04849;2.25977;2.08075;2.57458;2.25099;2.17574;2.02042;2.19641;1.91736;1.3445;0.789578;0.568923;0.464038;0.247296;0.217374;0.146326;0.099522;0.06454;0.0519;0.029819;0.029177;0.021425;0.0182;0.66054;0.675951;0.7042;0.750794;0.686616;0.715017;0.727807;0.807681;1.15285;1.30586;1.64052;1.54891;2.23163;2.53716;2.06991;2.41365;2.01981;2.10538;1.95545;1.98435;2.28145;1.59628;0.897656;0.574447;0.462806;0.215242;0.14922;0.116269;0.099742;0.071505;0.052255;0.040085;0.025593;0.021828;0.020463;0.014722;0.408039;0.417071;0.453387;0.458772;0.534334;0.549106;0.532639;0.612847;0.691541;0.848377;0.823621;0.920516;0.844245;1.05049;1.36309;1.27435;1.35366;1.14624;1.0028;0.763346;0.45294;0.264124;0.229293;0.229898;0.200433;0.094158;0.068161;0.091839;0.065674;0.045754;0.025844;0.019044;0.021735;0.02206;0.015749;0.011489;0.712588;0.7258645;0.7583175;0.7893765;0.7635735;0.7632315;0.786862;0.9396625;1.22811;1.303195;1.640125;1.538185;1.943505;2.094675;2.15371;2.27355;2.454605;2.153455;2.110765;2.22423;2.253755;1.61283;1.0528;0.700222;0.5064945;0.346349;0.204923;0.170602;0.13272;0.0866965;0.061938;0.040601;0.0307225;0.0267125;0.020705;0.0162215;0.806636;0.817253;0.819388;0.847198;0.853041;0.812653;0.863251;1.01598;1.49601;1.63793;1.97776;1.78428;2.26109;2.55209;2.36206;2.69009;2.57946;2.27777;2.31363;2.58465;2.89682;1.93639;1.3505;0.793169;0.587666;0.464038;0.248703;0.222955;0.148219;0.101788;0.074165;0.052932;0.036196;0.029304;0.022716;0.018998;0.625311;0.629073;0.672888;0.703324;0.663332;0.682787;0.717523;0.807115;1.05378;1.15594;1.31029;1.35099;1.67146;1.84482;1.73336;1.84579;1.81229;1.73725;1.79345;1.87663;1.88779;1.45726;0.824966;0.556157;0.450512;0.208493;0.13635;0.116269;0.076877;0.06798;0.040609;0.036361;0.025598;0.021831;0.01793;0.012934;0.7974511172437064;0.26531675694399726
20;EMSC-20100606_0000027;2010-06-06 12:20:59;14743257;usp000hdnk;;20100606_0000027;GR;35.5293;24.796;58.4622;ISC-webservice;TF;4.4;ISC-webservice;4.55;ISC-webservice;3.23;ISC-webservice;4.9;Mw;Pap10;;;;;;;;;;;GE;KARP;00;HN;0.0;;;;GR;35.5472;27.1612;528;;;;;;;;14.280055;925.130666;214.5;222.32426504734025;270.2;;;;;D;0;E;90.0;N;0.0;Z;0.1;0.1;0.1;20.0;20.0;20.0;8.0;4.9;58.4622;90;222.32426504734025;222.32426504734025;214.5;116.59;925.130666;False;31.07;3;-0.17466;0.20431;-0.303929;0.2012035;0.222977;0.170119;-0.006879;-0.007034;0.010304;0.0071535;0.00812855;0.00666635;-0.000605;0.000702;-0.000776;0.0006605075;0.000732088;0.00053315;48.3;44.745;43.125;46.489;46.7925;48.49;43.68;0.0186728;0.0251174;0.0321632;0.02258365;0.0252649;0.0183027;2.1474696104;2.38381871022;3.14889179005;2.26876772217;2.48920403526;2.05209039976;0.000122288354955;0.000170086422609;0.000290904558025;0.000146187418876;0.000177146698939;0.000115228076876;0.176261;0.182915;0.248509;0.311706;0.483656;0.577288;0.500932;0.466651;0.299247;0.31334;0.48706;0.327215;0.234314;0.184772;0.20412;0.156142;0.109569;0.087923;0.084693;0.062504;0.0262;0.021131;0.014044;0.010343;0.006128;0.00469;0.002977;0.002646;0.001751;0.001376;0.001395;0.000789;0.000655;0.000604;0.000547;0.000511;0.204313;0.211551;0.290924;0.347402;0.543811;0.800034;0.582798;0.647733;0.482493;0.314917;0.366967;0.372482;0.268746;0.266949;0.196973;0.224452;0.152129;0.139358;0.103325;0.096146;0.048288;0.033482;0.019923;0.015245;0.015209;0.010575;0.004589;0.003077;0.002808;0.002697;0.001846;0.001314;0.000996;0.000893;0.000722;0.000587;0.304914;0.315482;0.384758;0.446138;0.610307;0.93669;1.07831;0.96847;0.538806;0.566883;0.647854;0.482704;0.361556;0.383312;0.243613;0.246052;0.205964;0.168919;0.1608;0.086263;0.063713;0.036335;0.027853;0.017618;0.01298;0.007754;0.005187;0.003888;0.00288;0.002525;0.00215;0.001958;0.001246;0.001022;0.000849;0.000743;0.202761;0.2116575;0.266526;0.3295345;0.5133455;0.6864895;0.5402825;0.576665;0.34637;0.3129855;0.4157915;0.3554765;0.2364155;0.2112705;0.195576;0.1881675;0.12772;0.1140325;0.09305;0.0792635;0.044781;0.030005;0.0162285;0.013894;0.012326;0.007814;0.0037625;0.0028525;0.002177;0.0019305;0.001587;0.001169;0.0009195;0.000746;0.000623;0.000539;0.226573;0.243186;0.297311;0.378019;0.565819;0.800034;0.595149;0.648761;0.487767;0.33311;0.503006;0.37809;0.268746;0.267709;0.210378;0.235803;0.173395;0.139358;0.117282;0.109699;0.051079;0.035175;0.022036;0.015895;0.015708;0.010638;0.004589;0.003133;0.00283;0.002697;0.001878;0.001361;0.00106;0.000893;0.000721;0.000589;0.171407;0.178353;0.248509;0.288625;0.467465;0.530224;0.491921;0.404692;0.289027;0.288014;0.332839;0.298209;0.210838;0.151994;0.153874;0.116337;0.091993;0.083604;0.075638;0.047184;0.0262;0.021097;0.013079;0.00967;0.006128;0.004601;0.002533;0.002254;0.001751;0.00135;0.001276;0.000785;0.000655;0.000582;0.000538;0.000496;0.03302160688756166;0.008535595348889091
