;event_id;event_time;ISC_ev_id;USGS_ev_id;INGV_ev_id;EMSC_ev_id;ev_nation_code;ev_latitude;ev_longitude;ev_depth_km;ev_hyp_ref;fm_type_code;ML;ML_ref;Mw;Mw_ref;Ms;Ms_ref;EMEC_Mw;EMEC_Mw_type;EMEC_Mw_ref;event_source_id;es_strike;es_dip;es_rake;es_strike_dip_rake_ref;es_z_top;es_z_top_ref;es_length;es_width;es_geometry_ref;network_code;station_code;location_code;instrument_code;sensor_depth_m;proximity_code;housing_code;installation_code;st_nation_code;st_latitude;st_longitude;st_elevation;ec8_code;ec8_code_method;ec8_code_ref;vs30_m_sec;vs30_ref;vs30_calc_method;vs30_meas_type;slope_deg;vs30_m_sec_WA;epi_dist;hypo_dist;epi_az;JB_dist;rup_dist;Rx_dist;Ry0_dist;instrument_type_code;late_triggered_flag_01;U_channel_code;U_azimuth_deg;V_channel_code;V_azimuth_deg;W_channel_code;U_hp;V_hp;W_hp;U_lp;V_lp;W_lp;max_usable_T;mag;hypo_depth;rake;rhypo;rrup;rjb;xvf;vs30;vs30measured;z1pt0;region;U_pga;V_pga;W_pga;rotD50_pga;rotD100_pga;rotD00_pga;U_pgv;V_pgv;W_pgv;rotD50_pgv;rotD100_pgv;rotD00_pgv;U_pgd;V_pgd;W_pgd;rotD50_pgd;rotD100_pgd;rotD00_pgd;U_T90;V_T90;W_T90;GM_T90;rotD50_T90;rotD100_T90;rotD00_T90;U_housner;V_housner;W_housner;rotD50_housner;rotD100_housner;rotD00_housner;U_CAV;V_CAV;W_CAV;rotD50_CAV;rotD100_CAV;rotD00_CAV;U_ia;V_ia;W_ia;rotD50_ia;rotD100_ia;rotD00_ia;U_T0_010;U_T0_025;U_T0_040;U_T0_050;U_T0_070;U_T0_100;U_T0_150;U_T0_200;U_T0_250;U_T0_300;U_T0_350;U_T0_400;U_T0_450;U_T0_500;U_T0_600;U_T0_700;U_T0_750;U_T0_800;U_T0_900;U_T1_000;U_T1_200;U_T1_400;U_T1_600;U_T1_800;U_T2_000;U_T2_500;U_T3_000;U_T3_500;U_T4_000;U_T4_500;U_T5_000;U_T6_000;U_T7_000;U_T8_000;U_T9_000;U_T10_000;V_T0_010;V_T0_025;V_T0_040;V_T0_050;V_T0_070;V_T0_100;V_T0_150;V_T0_200;V_T0_250;V_T0_300;V_T0_350;V_T0_400;V_T0_450;V_T0_500;V_T0_600;V_T0_700;V_T0_750;V_T0_800;V_T0_900;V_T1_000;V_T1_200;V_T1_400;V_T1_600;V_T1_800;V_T2_000;V_T2_500;V_T3_000;V_T3_500;V_T4_000;V_T4_500;V_T5_000;V_T6_000;V_T7_000;V_T8_000;V_T9_000;V_T10_000;W_T0_010;W_T0_025;W_T0_040;W_T0_050;W_T0_070;W_T0_100;W_T0_150;W_T0_200;W_T0_250;W_T0_300;W_T0_350;W_T0_400;W_T0_450;W_T0_500;W_T0_600;W_T0_700;W_T0_750;W_T0_800;W_T0_900;W_T1_000;W_T1_200;W_T1_400;W_T1_600;W_T1_800;W_T2_000;W_T2_500;W_T3_000;W_T3_500;W_T4_000;W_T4_500;W_T5_000;W_T6_000;W_T7_000;W_T8_000;W_T9_000;W_T10_000;rotD50_T0_010;rotD50_T0_025;rotD50_T0_040;rotD50_T0_050;rotD50_T0_070;rotD50_T0_100;rotD50_T0_150;rotD50_T0_200;rotD50_T0_250;rotD50_T0_300;rotD50_T0_350;rotD50_T0_400;rotD50_T0_450;rotD50_T0_500;rotD50_T0_600;rotD50_T0_700;rotD50_T0_750;rotD50_T0_800;rotD50_T0_900;rotD50_T1_000;rotD50_T1_200;rotD50_T1_400;rotD50_T1_600;rotD50_T1_800;rotD50_T2_000;rotD50_T2_500;rotD50_T3_000;rotD50_T3_500;rotD50_T4_000;rotD50_T4_500;rotD50_T5_000;rotD50_T6_000;rotD50_T7_000;rotD50_T8_000;rotD50_T9_000;rotD50_T10_000;rotD100_T0_010;rotD100_T0_025;rotD100_T0_040;rotD100_T0_050;rotD100_T0_070;rotD100_T0_100;rotD100_T0_150;rotD100_T0_200;rotD100_T0_250;rotD100_T0_300;rotD100_T0_350;rotD100_T0_400;rotD100_T0_450;rotD100_T0_500;rotD100_T0_600;rotD100_T0_700;rotD100_T0_750;rotD100_T0_800;rotD100_T0_900;rotD100_T1_000;rotD100_T1_200;rotD100_T1_400;rotD100_T1_600;rotD100_T1_800;rotD100_T2_000;rotD100_T2_500;rotD100_T3_000;rotD100_T3_500;rotD100_T4_000;rotD100_T4_500;rotD100_T5_000;rotD100_T6_000;rotD100_T7_000;rotD100_T8_000;rotD100_T9_000;rotD100_T10_000;rotD00_T0_010;rotD00_T0_025;rotD00_T0_040;rotD00_T0_050;rotD00_T0_070;rotD00_T0_100;rotD00_T0_150;rotD00_T0_200;rotD00_T0_250;rotD00_T0_300;rotD00_T0_350;rotD00_T0_400;rotD00_T0_450;rotD00_T0_500;rotD00_T0_600;rotD00_T0_700;rotD00_T0_750;rotD00_T0_800;rotD00_T0_900;rotD00_T1_000;rotD00_T1_200;rotD00_T1_400;rotD00_T1_600;rotD00_T1_800;rotD00_T2_000;rotD00_T2_500;rotD00_T3_000;rotD00_T3_500;rotD00_T4_000;rotD00_T4_500;rotD00_T5_000;rotD00_T6_000;rotD00_T7_000;rotD00_T8_000;rotD00_T9_000;rotD00_T10_000;rotD50_AvgSA[0,3];rotD50_AvgSA[0,6]
21;EMSC-20100606_0000027;2010-06-06 12:20:59;14743257;usp000hdnk;;20100606_0000027;GR;35.5293;24.796;58.4622;ISC-webservice;TF;4.4;ISC-webservice;4.55;ISC-webservice;3.23;ISC-webservice;4.9;Mw;Pap10;;;;;;;;;;;HL;IACM;00;HN;0.0;;;;GR;35.3058;25.0709;45;;;;;;;;10.145915;816.166285;35.2;68.24125459602864;314.9;;;;;D;0;E;90.0;N;0.0;Z;0.1;0.1;0.1;30.0;30.0;30.0;8.0;4.9;58.4622;90;68.24125459602864;68.24125459602864;35.2;123.8;816.166285;False;31.07;3;13.715537;-14.276186;8.423239;14.189671;16.553181;10.104699;0.56884;0.689785;0.347171;0.675005;0.870646;0.457044;0.037087;0.0516;-0.021796;0.0452182;0.058129;0.0368373;16.46;18.025;20.39;17.225;17.2125;19.315;15.985;1.3904;1.4494;0.701555;1.41011;1.54765;1.28063;59.7687952669;57.6264970284;48.7767613282;58.6667963755;63.8933136404;53.0006506269;0.277434562561;0.284231785056;0.162388407539;0.280833173809;0.352481252921;0.209185075648;13.7215;14.0506;15.124;14.9477;16.796;17.2799;30.3826;48.6937;39.8726;30.2562;28.457;20.7055;18.5694;15.8858;12.1045;10.3414;7.49528;5.7464;4.85649;3.43178;2.34987;1.79;1.21217;0.837773;0.598036;0.275972;0.226912;0.160448;0.130207;0.112637;0.095875;0.072401;0.05812;0.048846;0.042098;0.036451;14.3026;14.3859;14.5421;15.8921;17.2964;18.2404;26.4275;48.9189;32.8021;40.6997;42.0256;30.7223;23.7987;24.1117;11.1132;7.52163;6.81632;6.04162;4.07144;3.87603;2.00447;1.54587;1.02291;0.721309;0.581003;0.383793;0.280625;0.21582;0.173067;0.14883;0.123156;0.092042;0.074124;0.061039;0.053102;0.047475;8.42842;8.6927;9.96331;10.5703;17.0694;23.21;26.778;37.8062;23.5481;13.835;14.7809;10.3397;10.6749;8.14059;7.70879;4.29884;4.16856;3.21213;1.78749;1.51469;0.796995;0.574529;0.434704;0.319039;0.258846;0.163698;0.123471;0.092447;0.067274;0.056331;0.049036;0.039491;0.032316;0.026592;0.02242;0.019496;14.1907;14.3201;14.61275;15.47525;17.16355;17.79335;28.54825;46.2906;34.7501;35.2438;34.60455;27.3021;23.06195;19.0385;11.8385;8.816545;7.458935;5.846835;4.470775;3.707585;2.239035;1.57809;1.019475;0.783118;0.597319;0.338904;0.250699;0.194443;0.1564085;0.1367065;0.1136275;0.0858275;0.0688105;0.0576475;0.050323;0.0452125;16.5754;16.6997;16.7387;18.0715;20.9519;22.5883;31.0429;50.2547;45.627;48.0622;48.7503;32.1184;26.2742;24.2674;13.0864;10.3664;9.01846;7.52167;5.21503;4.26391;2.59759;1.89131;1.21412;0.853872;0.651172;0.413817;0.303096;0.232604;0.185146;0.158432;0.12971;0.09626;0.076975;0.066892;0.059006;0.053463;10.1312;10.2896;11.2418;12.3597;14.3811;15.1816;21.2823;39.5519;28.6979;20.453;23.1506;20.6847;17.8159;14.3857;10.6474;7.21095;6.30152;4.76402;3.87684;3.14871;1.57049;1.32578;0.854602;0.592159;0.467305;0.275972;0.200883;0.153866;0.125492;0.110842;0.092172;0.071864;0.057927;0.048191;0.041696;0.036457;1.8799001488901936;0.528044290541454
22;EMSC-20100626_0000059;2010-06-26 21:43:26;14788249;;2214309;20100626_0000059;;34.4494;24.6221;51.3108;ISC-webservice;U;4.2;ISC-webservice;;;2.6;ISC-webservice;4.9;Mw;Pap10;;;;;;;;;;;HL;IACM;00;HN;0.0;;;;GR;35.3058;25.0709;45;;;;;;;;10.145915;816.166285;103.5;115.52076954660578;203.5;;;;;D;0;E;90.0;N;0.0;Z;0.15;0.15;0.15;30.0;30.0;30.0;5.333333333333334;4.9;51.3108;90;115.52076954660578;115.52076954660578;103.5;123.8;816.166285;False;31.07;3;0.206891;0.195335;0.202088;0.209035;0.232101;0.18516;-0.012693;0.008779;-0.006435;0.0102634;0.0132636;0.00859868;0.00117;0.00095;-0.000464;0.00102966;0.0011945;0.000830872;121.605;161.03;183.2;139.936;145.7175;161.21;121.285;0.0393664;0.0327705;0.0176315;0.0348684;0.0395079;0.0327705;3.4110170047;3.96748801544;4.64554453998;3.70235334593;4.07235929997;3.29785025521;0.000205268573114;0.00023115834839;0.00027031615533;0.000218213472412;0.000255355738016;0.000181071233504;0.207321;0.215348;0.247927;0.286375;0.288912;0.344557;0.516874;0.612682;0.856894;0.71635;0.501746;0.45467;0.566694;0.544469;0.275904;0.1935;0.153622;0.121567;0.152309;0.127385;0.135464;0.066109;0.039814;0.028465;0.021525;0.00944;0.006559;0.004688;0.003868;0.00337;0.002387;0.001832;0.001644;0.001171;0.001101;0.000877;0.195363;0.196897;0.272649;0.275337;0.308212;0.405815;0.442798;0.636277;0.810019;0.582981;0.450315;0.434806;0.430542;0.398019;0.283426;0.187386;0.136631;0.132672;0.12315;0.127257;0.070887;0.052071;0.035076;0.022748;0.016688;0.008305;0.006123;0.003976;0.003015;0.002455;0.002318;0.001975;0.001283;0.001083;0.000926;0.000846;0.202092;0.210069;0.228793;0.330081;0.368845;0.547882;0.645762;0.338806;0.389813;0.254906;0.350437;0.321629;0.231722;0.217311;0.17015;0.140699;0.117462;0.091782;0.062695;0.052663;0.030522;0.018299;0.012164;0.006813;0.006167;0.005417;0.003832;0.002144;0.001667;0.001459;0.001094;0.000838;0.000698;0.00066;0.000539;0.00043;0.2103595;0.2189965;0.259258;0.2924435;0.3090705;0.35829;0.488578;0.6298385;0.797977;0.592565;0.4613015;0.42773;0.4387425;0.475966;0.281358;0.1846415;0.147572;0.134456;0.1307585;0.1262435;0.1122965;0.0561715;0.036605;0.024642;0.0171135;0.008761;0.006286;0.0040345;0.003344;0.0026325;0.002295;0.0018445;0.001363;0.0011335;0.0010385;0.000901;0.232185;0.242373;0.287585;0.325284;0.347562;0.407059;0.552351;0.672833;0.884072;0.766927;0.585529;0.49407;0.566694;0.616261;0.297365;0.19728;0.164055;0.155719;0.162766;0.131852;0.13579;0.076032;0.044419;0.028465;0.021601;0.011512;0.007527;0.004942;0.003896;0.003371;0.002551;0.001985;0.001755;0.001453;0.001263;0.000935;0.185622;0.186433;0.240067;0.258661;0.271883;0.302975;0.442798;0.512323;0.61329;0.483284;0.345068;0.33873;0.3717;0.317586;0.250895;0.147121;0.127649;0.117759;0.094868;0.11087;0.070887;0.042655;0.032462;0.022748;0.014563;0.007854;0.005611;0.003758;0.002844;0.002271;0.002073;0.001731;0.001139;0.001027;0.000883;0.000713;0.04758816587787762;0.012061739639219846
23;EMSC-20101205_0000062;2010-12-05 23:20:16;15696383;usp000hqjn;;20101205_0000062;;35.3136;28.6013;37.4968;ISC-webservice;U;4.2;ISC-webservice;;;4.15;ISC-webservice;5.2;Mw;Pap10;;;;;;;;;;;GE;KARP;00;HN;0.0;;;;GR;35.5472;27.1612;528;;;;;;;;14.280055;925.130666;133.3;138.4734631986938;100.8;;;;;D;0;E;90.0;N;0.0;Z;0.1;0.1;0.1;20.0;20.0;20.0;8.0;5.2;37.4968;90;138.4734631986938;138.4734631986938;133.3;116.59;925.130666;False;31.07;3;0.122989;-0.136263;0.144689;0.123503;0.136849;0.113821;0.009469;0.012428;0.009488;0.009817845;0.0134958;0.00764337;0.001734;-0.002744;-0.002235;0.00233315;0.00319756;0.00152516;49.91;55.565;59.015;52.662;53.625;57.64;49.845;0.0338262;0.0504346;0.036238;0.04202345;0.0508711;0.033587;1.21487701993;1.5565150455;1.70673334935;1.41594137517;1.56029808997;1.21487701993;5.00629684092e-05;6.90207382606e-05;7.83021018631e-05;5.95418518833e-05;6.98741196159e-05;4.92095969613e-05;0.123233;0.127613;0.137113;0.200456;0.202138;0.305588;0.352018;0.224598;0.187479;0.161416;0.146783;0.190885;0.2419;0.202007;0.289581;0.263139;0.215044;0.196712;0.226931;0.17112;0.099444;0.059105;0.041744;0.029404;0.020224;0.014916;0.015421;0.011783;0.013668;0.011396;0.008104;0.005389;0.003971;0.002697;0.001907;0.001321;0.137103;0.14267;0.164184;0.181565;0.245608;0.276716;0.273227;0.248085;0.199419;0.187619;0.214009;0.23876;0.23455;0.223168;0.397649;0.361368;0.349529;0.364553;0.29192;0.218146;0.222821;0.135032;0.055477;0.044063;0.029061;0.027292;0.022408;0.014793;0.009336;0.008746;0.008356;0.006635;0.004347;0.003367;0.002561;0.001876;0.144957;0.14928;0.247311;0.238421;0.300368;0.347677;0.385659;0.311295;0.386648;0.253038;0.224223;0.240678;0.220232;0.234759;0.218661;0.177501;0.209078;0.187641;0.160502;0.180967;0.125361;0.062541;0.044505;0.038332;0.033716;0.02257;0.01729;0.015897;0.017768;0.012666;0.009698;0.005177;0.004114;0.003004;0.001832;0.001737;0.1235525;0.1309925;0.149914;0.181857;0.2078025;0.282511;0.3083005;0.227045;0.1912595;0.1726695;0.2015605;0.2099665;0.23331;0.2142895;0.3156;0.312607;0.2688765;0.279172;0.2432495;0.1881865;0.1743185;0.096215;0.046923;0.039036;0.0259145;0.02281;0.0174985;0.0134975;0.0119745;0.010121;0.00823;0.0058765;0.0041865;0.002791;0.002087;0.001415;0.13808;0.143967;0.172697;0.213932;0.263936;0.307851;0.358405;0.248085;0.244356;0.189085;0.21708;0.257081;0.276776;0.232105;0.408752;0.362164;0.350346;0.364864;0.295671;0.226716;0.222821;0.13527;0.055477;0.046824;0.034241;0.027331;0.023086;0.016843;0.01623;0.011705;0.01163;0.007317;0.004648;0.003367;0.002614;0.001876;0.113845;0.118058;0.137113;0.146948;0.187136;0.249859;0.246673;0.183309;0.160289;0.1422;0.122407;0.158406;0.181729;0.195107;0.27391;0.246818;0.203723;0.196219;0.189015;0.108268;0.097836;0.05606;0.033397;0.029404;0.019317;0.014916;0.013442;0.009197;0.007083;0.006129;0.004977;0.002958;0.003206;0.002634;0.001742;0.001267;0.06621434968867336;0.02661825377400354
24;EMSC-20101214_0000064;2010-12-14 23:01:59;15797678;;;20101214_0000064;TR;36.5986;28.0533;66.4916;ISC-webservice;U;4.0;ISC-webservice;4.6;ISC-webservice;2.6;ISC-webservice;4.29;MWML90;KOERI;;;;;;;;;;;GE;KARP;00;HN;0.0;;;;GR;35.5472;27.1612;528;;;;;;;;14.280055;925.130666;141.7;156.52483148229229;34.3;;;;;D;0;E;90.0;N;0.0;Z;0.1;0.1;0.1;30.0;30.0;30.0;8.0;4.29;66.4916;90;156.52483148229229;156.52483148229229;141.7;116.59;925.130666;False;31.07;3;-0.454193;0.356544;0.559516;0.406857;0.564524;0.334171;0.009752;-0.008259;0.011097;0.008934285;0.0106764;0.00767761;-0.000493;0.000726;0.000935;0.00058004;0.000786082;0.000424369;24.215;27.295;26.285;25.709;26.2625;27.3;24.01;0.0153678;0.0203345;0.0268711;0.01813005;0.0209376;0.0152366;1.36576194949;1.73450728006;2.17288055031;1.56212089932;1.75064145895;1.36360186036;0.000151577425783;0.000204199474529;0.000331545821396;0.00017788844612;0.000210559032827;0.000145217840646;0.454219;0.512133;0.756541;1.23137;1.6686;1.19461;0.441794;0.474806;0.506325;0.404327;0.328182;0.265557;0.210421;0.162189;0.100916;0.097472;0.099681;0.085752;0.059547;0.042127;0.023989;0.016434;0.012011;0.009557;0.00746;0.00434;0.003697;0.003095;0.002113;0.0018;0.001421;0.001093;0.000982;0.000822;0.000778;0.000647;0.35981;0.415167;0.6695;1.09836;1.50989;1.34712;0.77482;0.393041;0.319144;0.360338;0.325116;0.191367;0.218865;0.175613;0.15502;0.144084;0.125355;0.105917;0.09648;0.075749;0.045318;0.024502;0.015888;0.01301;0.010767;0.006888;0.004524;0.002592;0.002393;0.002421;0.001641;0.001265;0.000991;0.000812;0.000717;0.000624;0.57108;0.614362;1.04611;1.24643;1.53264;1.86369;0.82343;0.512796;0.318378;0.392558;0.344539;0.4245;0.353839;0.287146;0.202239;0.151571;0.144902;0.126803;0.138702;0.111085;0.056006;0.0368;0.025111;0.018558;0.012962;0.007156;0.004921;0.004152;0.002943;0.002543;0.001981;0.001623;0.001224;0.001056;0.000902;0.000755;0.410419;0.466586;0.712631;1.14499;1.67143;1.292195;0.610232;0.4442;0.406571;0.3594795;0.326236;0.271656;0.2141735;0.174371;0.142556;0.115638;0.1091135;0.093763;0.0818995;0.0662175;0.038435;0.01996;0.0135805;0.0105015;0.00834;0.005261;0.0039525;0.002876;0.0024555;0.001942;0.001586;0.0012105;0.0010365;0.000876;0.000776;0.000661;0.573138;0.648464;0.961405;1.5261;1.97585;1.41304;0.779245;0.511823;0.53325;0.439628;0.367243;0.294483;0.253648;0.190185;0.157499;0.16008;0.141638;0.127107;0.098282;0.083398;0.045472;0.026612;0.017497;0.014313;0.011477;0.007013;0.004666;0.003404;0.00275;0.002505;0.00182;0.001407;0.001139;0.000956;0.000874;0.000739;0.334978;0.37145;0.50643;0.602368;1.33698;0.889213;0.42648;0.28358;0.298185;0.267453;0.233788;0.191367;0.180272;0.143305;0.100916;0.092894;0.095361;0.081621;0.053026;0.038349;0.022838;0.015621;0.01085;0.008584;0.006823;0.003935;0.003118;0.002336;0.001839;0.001524;0.001199;0.000945;0.000814;0.000671;0.000615;0.000503;0.028384041682058287;0.008125208401328986
25;EMSC-20101214_0000064;2010-12-14 23:01:59;15797678;;;20101214_0000064;TR;36.5986;28.0533;66.4916;ISC-webservice;U;4.0;ISC-webservice;4.6;ISC-webservice;2.6;ISC-webservice;4.29;MWML90;KOERI;;;;;;;;;;;HL;KSL;00;HN;0.0;;;;GR;36.15031;29.58561;64;;;;;;;;8.539093;774.63288;146.2;160.61000239885433;290.3;;;;;D;0;E;90.0;N;0.0;Z;0.3;0.3;0.3;30.0;30.0;30.0;2.666666666666667;4.29;66.4916;90;160.61000239885433;160.61000239885433;146.2;115.49;774.63288;False;31.07;4;0.053618;-0.031185;0.050965;0.052567;0.058588;0.031185;-0.003851;-0.001971;-0.001883;0.00304968;0.00385081;0.00187;0.000326;0.000162;-0.000119;0.0002621595;0.000331037;0.000158046;42.135;48.25;46.19;45.089;44.375;48.265;42.03;0.00970636;0.00528045;0.0039761;0.00760706;0.00980428;0.00492375;0.355265110153;0.258114974994;0.29944983998;0.311048627552;0.355265110153;0.257733574965;5.2412633453e-06;2.26962734958e-06;3.05888261758e-06;3.75544276462e-06;5.2412633453e-06;2.26962734958e-06;0.05372;0.054647;0.060942;0.059397;0.064017;0.10208;0.145381;0.147045;0.156258;0.109352;0.13777;0.185425;0.175915;0.176176;0.125053;0.073015;0.054137;0.037108;0.02244;0.023122;0.016064;0.012261;0.008251;0.005884;0.00468;0.003085;0.001886;0.001582;0.001141;0.000884;0.000754;0.000513;0.000434;0.000358;0.00031;0.00027;0.031186;0.031465;0.036813;0.03939;0.0585;0.096626;0.081287;0.106337;0.084797;0.072739;0.082624;0.089331;0.098204;0.081337;0.045572;0.025332;0.022607;0.020533;0.02098;0.018495;0.010949;0.006955;0.006349;0.003533;0.002769;0.0016;0.001438;0.001174;0.000702;0.000681;0.000526;0.00029;0.000217;0.000163;0.000129;0.000107;0.050966;0.054059;0.064918;0.073772;0.132105;0.149311;0.100545;0.086043;0.106473;0.115057;0.073646;0.082202;0.07094;0.043707;0.030845;0.020235;0.016305;0.014367;0.013654;0.012215;0.006705;0.005332;0.002851;0.002435;0.001854;0.001251;0.001013;0.000681;0.000482;0.000405;0.000308;0.000275;0.000205;0.00018;0.000159;0.000138;0.05262;0.053446;0.056085;0.0625965;0.0662035;0.0970755;0.1151105;0.1233355;0.114279;0.0900455;0.114764;0.1408955;0.140242;0.138315;0.095324;0.0528835;0.039565;0.027857;0.021131;0.020783;0.013026;0.0090995;0.00645;0.004967;0.0037735;0.0024055;0.001733;0.001277;0.0008645;0.000784;0.0006395;0.000426;0.000337;0.0002865;0.000249;0.0002185;0.05873;0.059249;0.06617;0.067637;0.078;0.114251;0.145385;0.152679;0.156742;0.109449;0.138517;0.18656;0.183436;0.179512;0.12597;0.073206;0.054137;0.037108;0.024291;0.023184;0.017368;0.012827;0.008996;0.006447;0.00468;0.003107;0.00189;0.001627;0.001163;0.000941;0.000762;0.000521;0.000441;0.000366;0.000318;0.000278;0.031186;0.031465;0.034773;0.037833;0.058285;0.080314;0.072744;0.099599;0.075619;0.060662;0.078363;0.088897;0.076418;0.061701;0.02799;0.022803;0.020651;0.017559;0.018817;0.017175;0.009664;0.0067;0.005179;0.0035;0.002758;0.001428;0.001362;0.001079;0.000678;0.000597;0.000501;0.000275;0.000206;0.000153;0.00012;9.8e-05;0.01055743722715279;0.0030013590311568656
