;event_id;event_time;ISC_ev_id;USGS_ev_id;INGV_ev_id;EMSC_ev_id;ev_nation_code;ev_latitude;ev_longitude;ev_depth_km;ev_hyp_ref;fm_type_code;ML;ML_ref;Mw;Mw_ref;Ms;Ms_ref;EMEC_Mw;EMEC_Mw_type;EMEC_Mw_ref;event_source_id;es_strike;es_dip;es_rake;es_strike_dip_rake_ref;es_z_top;es_z_top_ref;es_length;es_width;es_geometry_ref;network_code;station_code;location_code;instrument_code;sensor_depth_m;proximity_code;housing_code;installation_code;st_nation_code;st_latitude;st_longitude;st_elevation;ec8_code;ec8_code_method;ec8_code_ref;vs30_m_sec;vs30_ref;vs30_calc_method;vs30_meas_type;slope_deg;vs30_m_sec_WA;epi_dist;hypo_dist;epi_az;JB_dist;rup_dist;Rx_dist;Ry0_dist;instrument_type_code;late_triggered_flag_01;U_channel_code;U_azimuth_deg;V_channel_code;V_azimuth_deg;W_channel_code;U_hp;V_hp;W_hp;U_lp;V_lp;W_lp;max_usable_T;mag;hypo_depth;rake;rhypo;rrup;rjb;xvf;vs30;vs30measured;z1pt0;region;U_pga;V_pga;W_pga;rotD50_pga;rotD100_pga;rotD00_pga;U_pgv;V_pgv;W_pgv;rotD50_pgv;rotD100_pgv;rotD00_pgv;U_pgd;V_pgd;W_pgd;rotD50_pgd;rotD100_pgd;rotD00_pgd;U_T90;V_T90;W_T90;GM_T90;rotD50_T90;rotD100_T90;rotD00_T90;U_housner;V_housner;W_housner;rotD50_housner;rotD100_housner;rotD00_housner;U_CAV;V_CAV;W_CAV;rotD50_CAV;rotD100_CAV;rotD00_CAV;U_ia;V_ia;W_ia;rotD50_ia;rotD100_ia;rotD00_ia;U_T0_010;U_T0_025;U_T0_040;U_T0_050;U_T0_070;U_T0_100;U_T0_150;U_T0_200;U_T0_250;U_T0_300;U_T0_350;U_T0_400;U_T0_450;U_T0_500;U_T0_600;U_T0_700;U_T0_750;U_T0_800;U_T0_900;U_T1_000;U_T1_200;U_T1_400;U_T1_600;U_T1_800;U_T2_000;U_T2_500;U_T3_000;U_T3_500;U_T4_000;U_T4_500;U_T5_000;U_T6_000;U_T7_000;U_T8_000;U_T9_000;U_T10_000;V_T0_010;V_T0_025;V_T0_040;V_T0_050;V_T0_070;V_T0_100;V_T0_150;V_T0_200;V_T0_250;V_T0_300;V_T0_350;V_T0_400;V_T0_450;V_T0_500;V_T0_600;V_T0_700;V_T0_750;V_T0_800;V_T0_900;V_T1_000;V_T1_200;V_T1_400;V_T1_600;V_T1_800;V_T2_000;V_T2_500;V_T3_000;V_T3_500;V_T4_000;V_T4_500;V_T5_000;V_T6_000;V_T7_000;V_T8_000;V_T9_000;V_T10_000;W_T0_010;W_T0_025;W_T0_040;W_T0_050;W_T0_070;W_T0_100;W_T0_150;W_T0_200;W_T0_250;W_T0_300;W_T0_350;W_T0_400;W_T0_450;W_T0_500;W_T0_600;W_T0_700;W_T0_750;W_T0_800;W_T0_900;W_T1_000;W_T1_200;W_T1_400;W_T1_600;W_T1_800;W_T2_000;W_T2_500;W_T3_000;W_T3_500;W_T4_000;W_T4_500;W_T5_000;W_T6_000;W_T7_000;W_T8_000;W_T9_000;W_T10_000;rotD50_T0_010;rotD50_T0_025;rotD50_T0_040;rotD50_T0_050;rotD50_T0_070;rotD50_T0_100;rotD50_T0_150;rotD50_T0_200;rotD50_T0_250;rotD50_T0_300;rotD50_T0_350;rotD50_T0_400;rotD50_T0_450;rotD50_T0_500;rotD50_T0_600;rotD50_T0_700;rotD50_T0_750;rotD50_T0_800;rotD50_T0_900;rotD50_T1_000;rotD50_T1_200;rotD50_T1_400;rotD50_T1_600;rotD50_T1_800;rotD50_T2_000;rotD50_T2_500;rotD50_T3_000;rotD50_T3_500;rotD50_T4_000;rotD50_T4_500;rotD50_T5_000;rotD50_T6_000;rotD50_T7_000;rotD50_T8_000;rotD50_T9_000;rotD50_T10_000;rotD100_T0_010;rotD100_T0_025;rotD100_T0_040;rotD100_T0_050;rotD100_T0_070;rotD100_T0_100;rotD100_T0_150;rotD100_T0_200;rotD100_T0_250;rotD100_T0_300;rotD100_T0_350;rotD100_T0_400;rotD100_T0_450;rotD100_T0_500;rotD100_T0_600;rotD100_T0_700;rotD100_T0_750;rotD100_T0_800;rotD100_T0_900;rotD100_T1_000;rotD100_T1_200;rotD100_T1_400;rotD100_T1_600;rotD100_T1_800;rotD100_T2_000;rotD100_T2_500;rotD100_T3_000;rotD100_T3_500;rotD100_T4_000;rotD100_T4_500;rotD100_T5_000;rotD100_T6_000;rotD100_T7_000;rotD100_T8_000;rotD100_T9_000;rotD100_T10_000;rotD00_T0_010;rotD00_T0_025;rotD00_T0_040;rotD00_T0_050;rotD00_T0_070;rotD00_T0_100;rotD00_T0_150;rotD00_T0_200;rotD00_T0_250;rotD00_T0_300;rotD00_T0_350;rotD00_T0_400;rotD00_T0_450;rotD00_T0_500;rotD00_T0_600;rotD00_T0_700;rotD00_T0_750;rotD00_T0_800;rotD00_T0_900;rotD00_T1_000;rotD00_T1_200;rotD00_T1_400;rotD00_T1_600;rotD00_T1_800;rotD00_T2_000;rotD00_T2_500;rotD00_T3_000;rotD00_T3_500;rotD00_T4_000;rotD00_T4_500;rotD00_T5_000;rotD00_T6_000;rotD00_T7_000;rotD00_T8_000;rotD00_T9_000;rotD00_T10_000;rotD50_AvgSA[0,3];rotD50_AvgSA[0,6]
36;EMSC-20110403_0000051;2011-04-03 23:53:40;16406033;usp000hz7r;2333869;20110403_0000051;;35.7563;21.9562;17.3178;ISC-webservice;U;4.0;ISC-webservice;;;3.77;ISC-webservice;4.75;MWML92;DGA16;;;;;;;;;;;HL;ANKY;00;HN;0.0;;;;GR;35.86704;23.30117;143;;;;;;;;6.937541;695.873582;122.2;123.42101197462286;264.6;;;;;D;0;E;90.0;N;0.0;Z;0.15;0.15;0.15;30.0;30.0;30.0;5.333333333333334;4.75;17.3178;90;123.42101197462286;123.42101197462286;122.2;125.68;695.873582;False;31.07;3;0.093382;0.103315;0.051878;0.095176;0.110475;0.087836;0.009019;0.011983;0.005155;0.01014265;0.0120473;0.0081349;0.001893;0.001942;-0.000952;0.00194796;0.00211709;0.00181159;56.05;57.88;52.895;56.958;56.9225;58.055;53.39;0.0453521;0.0452839;0.0192292;0.045318;0.0483569;0.0425657;1.09110277475;1.14637871021;0.736847700189;1.11852756046;1.27468915973;0.938167994913;3.90723853964e-05;4.26054532288e-05;1.7670811933e-05;4.08389166879e-05;5.08806873834e-05;3.07971461803e-05;0.093831;0.093784;0.094925;0.095859;0.105323;0.123052;0.18584;0.217545;0.210154;0.220713;0.306116;0.290754;0.301046;0.247163;0.233109;0.252848;0.227258;0.1793;0.202794;0.15162;0.1892;0.139714;0.079031;0.050202;0.038356;0.020207;0.013234;0.008662;0.006942;0.006465;0.004994;0.004108;0.00281;0.001987;0.001667;0.001293;0.103478;0.104334;0.1043;0.10635;0.120384;0.119208;0.196057;0.179092;0.206586;0.269186;0.239985;0.308964;0.298285;0.322913;0.301559;0.279617;0.213657;0.192369;0.146715;0.165994;0.152893;0.147891;0.069513;0.044127;0.037622;0.023259;0.012374;0.008032;0.006404;0.006503;0.007014;0.00497;0.003563;0.002255;0.001673;0.00126;0.052019;0.052513;0.053302;0.056257;0.069724;0.107708;0.141735;0.209455;0.153323;0.148888;0.170206;0.165319;0.129446;0.140967;0.150764;0.143383;0.146259;0.137137;0.069649;0.05995;0.049481;0.033618;0.025992;0.019765;0.014218;0.009361;0.00822;0.007283;0.004798;0.003409;0.002272;0.002342;0.001237;0.001002;0.000767;0.000581;0.0951945;0.095871;0.0960215;0.0985885;0.1062785;0.1233655;0.189161;0.195969;0.202998;0.2220285;0.2874335;0.3011715;0.298429;0.3069175;0.289086;0.2699525;0.2146545;0.193655;0.175753;0.1587335;0.1662685;0.134686;0.077941;0.0465805;0.0378115;0.0219215;0.0131625;0.0086485;0.0068705;0.0065855;0.006172;0.004545;0.0030465;0.00214;0.001669;0.0012775;0.110836;0.111356;0.111791;0.115029;0.130499;0.145423;0.244798;0.258699;0.221508;0.27008;0.327963;0.345268;0.370326;0.333613;0.315275;0.288827;0.24644;0.205631;0.234423;0.196226;0.190902;0.147989;0.0835;0.050202;0.040585;0.028785;0.014559;0.009698;0.007104;0.006865;0.007095;0.005995;0.004033;0.002737;0.001825;0.001427;0.087954;0.088677;0.088809;0.09042;0.094004;0.106435;0.151036;0.151622;0.176765;0.18362;0.236468;0.230593;0.266225;0.210351;0.195961;0.205019;0.198055;0.166681;0.123485;0.101655;0.142414;0.118862;0.066068;0.04238;0.035145;0.016779;0.011067;0.007921;0.006032;0.00586;0.004119;0.002842;0.00193;0.00159;0.001298;0.001108;0.06905310111933785;0.022244959925144348
37;EMSC-20110403_0000051;2011-04-03 23:53:40;16406033;usp000hz7r;2333869;20110403_0000051;;35.7563;21.9562;17.3178;ISC-webservice;U;4.0;ISC-webservice;;;3.77;ISC-webservice;4.75;MWML92;DGA16;;;;;;;;;;;HL;MNVA;00;HN;0.0;;;;GR;36.68709;23.03734;12;;;;;;;;2.2317;445.191501;141.8;142.8535830731592;223.6;;;;;D;0;E;125.0;N;35.0;Z;0.15;0.15;0.15;30.0;30.0;30.0;5.333333333333334;4.75;17.3178;90;142.8535830731592;142.8535830731592;141.8;75.15;445.191501;False;31.07;3;0.043429;0.040628;0.034508;0.0437665;0.049179;0.037034;-0.005578;0.007052;0.00643;0.005771115;0.00797039;0.00476846;-0.001733;-0.00216;-0.002217;0.001872985;0.00238245;0.00144062;62.055;54.45;58.035;58.128;57.2125;63.03;53.7;0.0337429;0.030544;0.0346761;0.0319028;0.0340327;0.0289159;0.466675914978;0.455670005066;0.463493219999;0.460565479898;0.492814139764;0.438246655142;7.36740816615e-06;7.06704030362e-06;6.94681439379e-06;7.21722635462e-06;7.84901243011e-06;6.58544183782e-06;0.04346;0.043758;0.043831;0.044398;0.04584;0.057343;0.046076;0.064878;0.081919;0.08818;0.111698;0.135762;0.110822;0.103148;0.156149;0.089638;0.087258;0.07896;0.086777;0.115157;0.064948;0.066074;0.078324;0.082596;0.073559;0.026719;0.016225;0.010947;0.008518;0.005965;0.004638;0.003946;0.002434;0.001718;0.001364;0.001127;0.040634;0.041102;0.041369;0.041726;0.046569;0.049617;0.060944;0.066902;0.07983;0.113762;0.090847;0.103183;0.079947;0.095207;0.117578;0.113829;0.115921;0.111613;0.09765;0.103536;0.103369;0.085932;0.076428;0.048271;0.034971;0.021742;0.019267;0.014702;0.010183;0.008083;0.007722;0.003427;0.002566;0.002306;0.00165;0.001194;0.034558;0.035051;0.036259;0.03584;0.036651;0.046587;0.052777;0.076196;0.073305;0.07785;0.056431;0.092689;0.071445;0.084688;0.081792;0.097274;0.109146;0.09697;0.100799;0.10022;0.089518;0.097731;0.092764;0.07093;0.057229;0.034805;0.021387;0.015106;0.012785;0.009854;0.006819;0.00355;0.002381;0.001553;0.00152;0.00123;0.0438305;0.044268;0.0445875;0.0454935;0.0497565;0.05592;0.057113;0.0676485;0.087541;0.099497;0.0940555;0.1147795;0.1007915;0.1031595;0.129482;0.0993545;0.0957145;0.0899845;0.0876215;0.111664;0.0896905;0.0684675;0.0718565;0.0616515;0.05744;0.0249045;0.0185175;0.0133345;0.010115;0.00777;0.0065955;0.003516;0.002501;0.00201;0.001493;0.0011525;0.049183;0.049988;0.050211;0.049389;0.056565;0.059879;0.061071;0.074935;0.098775;0.11381;0.118023;0.137113;0.111754;0.111956;0.162191;0.126617;0.123239;0.115085;0.110447;0.119222;0.103369;0.087184;0.07853;0.082596;0.074627;0.030534;0.020271;0.015523;0.011533;0.009318;0.008267;0.004047;0.002772;0.002479;0.001775;0.001321;0.03705;0.037315;0.038296;0.037774;0.043404;0.04873;0.044228;0.056852;0.071813;0.085524;0.083797;0.101591;0.077351;0.093925;0.112696;0.081026;0.080507;0.076394;0.068816;0.069542;0.064948;0.059553;0.055014;0.04409;0.032957;0.017418;0.01308;0.009683;0.006126;0.005033;0.003839;0.002876;0.00183;0.001188;0.000865;0.000766;0.05385930450659988;0.01986501729460264
38;EMSC-20110927_0000038;2011-09-27 12:25:13;17273032;usp000j8mn;;20110927_0000038;;34.2905;23.7886;23.4574;ISC-webservice;U;4.56;ISC-webservice;;;;;4.19;MWML92;DGA16;;;;;;;;;;;HL;ANKY;00;HN;0.0;;;;GR;35.86704;23.30117;143;;;;;;;;6.937541;695.873582;180.5;182.01785520865803;165.6;;;;;D;0;E;90.0;N;0.0;Z;0.15;0.15;0.15;30.0;30.0;30.0;5.333333333333334;4.19;23.4574;90;182.01785520865803;182.01785520865803;180.5;125.68;695.873582;False;31.07;3;-0.02696;0.022862;-0.062313;0.0259175;0.034798;0.021312;-0.002832;-0.002502;-0.001553;0.00286024;0.0031919;0.00192342;0.001341;0.00096;-0.00065;0.001243295;0.00138131;0.000688405;94.7;97.835;105.12;96.255;96.1725;97.845;94.445;0.0144193;0.0102152;0.00721749;0.01305075;0.0144193;0.00964114;0.35601962501;0.322691840119;0.415019685132;0.3395303324;0.369431090153;0.308223055002;2.72564648749e-06;2.17713155085e-06;4.12735537612e-06;2.45139042499e-06;2.92523266407e-06;1.97755027941e-06;0.029429;0.059188;0.096544;0.064494;0.028338;0.025912;0.022006;0.024801;0.027896;0.028057;0.02737;0.031644;0.033724;0.029582;0.032767;0.047122;0.047152;0.049281;0.042961;0.044162;0.03443;0.026308;0.028168;0.030718;0.02753;0.025877;0.010114;0.007374;0.008302;0.007104;0.004862;0.00308;0.001867;0.001272;0.001101;0.000811;0.023047;0.059272;0.118979;0.039263;0.020174;0.025839;0.015411;0.018633;0.020778;0.021028;0.028016;0.030792;0.033246;0.037888;0.037788;0.030666;0.025737;0.030656;0.028657;0.026376;0.024774;0.021457;0.018974;0.017637;0.017985;0.015368;0.009982;0.009757;0.005596;0.005427;0.0037;0.002585;0.002541;0.001058;0.000714;0.000508;0.062328;0.125367;0.233448;0.089574;0.033503;0.053928;0.015866;0.017877;0.019053;0.027578;0.0296;0.02482;0.037057;0.031312;0.030064;0.021509;0.022653;0.023346;0.013547;0.012324;0.016003;0.01155;0.010768;0.012586;0.014443;0.01369;0.008918;0.005432;0.006323;0.004408;0.002582;0.001957;0.000947;0.000907;0.000609;0.000455;0.0275795;0.057696;0.1087875;0.05882;0.0225455;0.0258755;0.017933;0.0215795;0.025732;0.0278505;0.0286155;0.0316485;0.0323755;0.0342535;0.036808;0.040196;0.0420185;0.043031;0.0345985;0.0350565;0.0293655;0.023032;0.0256015;0.0243225;0.0257225;0.021206;0.010366;0.0087925;0.00643;0.0059345;0.004254;0.0030395;0.0022015;0.0012195;0.0008545;0.000702;0.034805;0.063666;0.129951;0.065355;0.029314;0.03028;0.022012;0.026788;0.028779;0.029521;0.032441;0.038601;0.036051;0.039048;0.043591;0.051583;0.052814;0.050095;0.043084;0.044162;0.034656;0.026656;0.02979;0.030926;0.027901;0.026811;0.011355;0.010534;0.008765;0.008147;0.005103;0.003431;0.002834;0.001355;0.001102;0.000812;0.022058;0.050057;0.06862;0.039263;0.017875;0.017317;0.013864;0.017914;0.019666;0.021028;0.024876;0.028167;0.030484;0.029048;0.030943;0.029891;0.024769;0.028757;0.025821;0.024153;0.022406;0.020245;0.01707;0.016235;0.016343;0.011995;0.009048;0.006618;0.00525;0.004771;0.003132;0.002165;0.001636;0.000791;0.000548;0.000364;0.024012449252086048;0.011483981878198327
39;EMSC-20110927_0000038;2011-09-27 12:25:13;17273032;usp000j8mn;;20110927_0000038;;34.2905;23.7886;23.4574;ISC-webservice;U;4.56;ISC-webservice;;;;;4.19;MWML92;DGA16;;;;;;;;;;;HL;SIVA;00;HN;0.0;;;;GR;35.01746;24.80996;110;;;;;;;;0.236315;268.163516;123.6;125.80623837775295;229.6;;;;;D;0;E;90.0;N;0.0;Z;0.15;0.15;0.15;30.0;30.0;30.0;5.333333333333334;4.19;23.4574;90;125.80623837775295;125.80623837775295;123.6;150.0;268.163516;False;31.07;3;-0.075918;0.083031;0.036543;0.078573;0.089093;0.064885;-0.008327;-0.007074;0.003785;0.008397415;0.00929302;0.00692018;-0.002028;0.001389;-0.001069;0.00177518;0.00200037;0.00139467;61.37;63.28;64.095;62.318;62.0575;64.21;60.61;0.0411576;0.0373265;0.0182313;0.04052735;0.043766;0.0350815;1.26014526489;1.07435027522;0.597052304918;1.17158055027;1.26187800527;1.06725952951;4.64420291765e-05;3.26886503648e-05;9.88999964373e-06;3.9565348084e-05;4.66440637805e-05;3.24866035779e-05;0.075991;0.077443;0.079507;0.082928;0.082332;0.082031;0.096101;0.120715;0.160235;0.21854;0.178762;0.188982;0.260022;0.248327;0.305281;0.231064;0.221531;0.187129;0.251476;0.196631;0.138352;0.096686;0.060812;0.038196;0.034537;0.018378;0.014497;0.012502;0.006496;0.004945;0.004502;0.003489;0.003074;0.001684;0.001211;0.000977;0.083035;0.08309;0.083165;0.084172;0.087733;0.092171;0.114043;0.125245;0.135579;0.155904;0.142909;0.149023;0.219933;0.262639;0.18447;0.2895;0.266407;0.21084;0.174964;0.165379;0.069364;0.062795;0.062294;0.053617;0.04555;0.023559;0.018169;0.012899;0.009585;0.007664;0.005676;0.004086;0.002293;0.001695;0.001216;0.000826;0.036683;0.03769;0.042696;0.042206;0.039922;0.046919;0.062266;0.055916;0.089391;0.124596;0.139618;0.131212;0.138728;0.097042;0.105988;0.095937;0.082202;0.087763;0.055378;0.0509;0.042577;0.033351;0.028724;0.026996;0.027376;0.015344;0.011975;0.007553;0.0063;0.005092;0.00287;0.002506;0.00139;0.000898;0.000757;0.000679;0.0786125;0.080007;0.080928;0.0830225;0.0829165;0.085416;0.097853;0.11937;0.148246;0.179258;0.1799635;0.1799135;0.2580045;0.250319;0.2522185;0.261777;0.2485665;0.19987;0.1933095;0.202441;0.114399;0.085273;0.060613;0.047844;0.0400755;0.0222555;0.016308;0.012688;0.008811;0.006682;0.0053065;0.0035675;0.0025595;0.0016885;0.0012135;0.0009745;0.089201;0.089456;0.090218;0.091316;0.09343;0.097652;0.117761;0.140553;0.160234;0.222581;0.191929;0.228431;0.319905;0.343391;0.308009;0.292953;0.269594;0.214381;0.258104;0.225092;0.146885;0.107179;0.068504;0.057063;0.045556;0.025945;0.019989;0.014097;0.009805;0.007771;0.006175;0.004448;0.003214;0.002166;0.00157;0.001036;0.065014;0.066376;0.065363;0.06726;0.067421;0.068648;0.083821;0.100353;0.126035;0.14701;0.142909;0.149023;0.165878;0.192423;0.182468;0.185608;0.197916;0.174168;0.17326;0.140621;0.069001;0.055286;0.046981;0.038196;0.030432;0.017427;0.012657;0.009883;0.006495;0.004754;0.003956;0.003034;0.002165;0.00144;0.001045;0.000786;0.06519786449250446;0.021305204797007135
40;EMSC-20111129_0000029;2011-11-29 14:07:19;600007503;usp000jbkq;2457999;20111129_0000029;;35.8979;28.5236;31.968;ISC-webservice;U;4.1;ISC-webservice;;;2.7;ISC-webservice;4.43;MWML92;DGA16;;;;;;;;;;;GE;KARP;00;HN;0.0;;;;GR;35.5472;27.1612;528;;;;;;;;14.280055;925.130666;129.3;133.1932544237883;72.1;;;;;D;0;E;90.0;N;0.0;Z;0.1;0.1;0.1;30.0;30.0;30.0;8.0;4.43;31.968;90;133.1932544237883;133.1932544237883;129.3;116.59;925.130666;False;31.07;3;0.096296;-0.188098;0.254353;0.144629;0.192598;0.087732;-0.005035;-0.008217;0.008384;0.00657424;0.00849269;0.00498202;-0.00063;-0.001125;0.001177;0.0008576825;0.00119788;0.000622913;34.27;28.66;31.37;31.34;30.7425;34.395;28.4;0.0197775;0.0319324;0.0285845;0.0268119;0.0325017;0.0186932;0.762264730356;0.998886484795;1.16644914451;0.893860927096;0.998886484795;0.762264730356;2.67282443152e-05;5.34479880375e-05;7.19473378693e-05;4.0088107488e-05;5.35753820095e-05;2.66008302672e-05;0.097323;0.105349;0.178085;0.222813;0.24642;0.297881;0.365652;0.203305;0.150813;0.185539;0.20846;0.197534;0.142886;0.097074;0.14412;0.149293;0.133456;0.153396;0.107654;0.069996;0.054021;0.029733;0.024087;0.015697;0.015783;0.005797;0.00394;0.003735;0.003038;0.002147;0.001325;0.000925;0.000805;0.00062;0.000509;0.000519;0.189995;0.201404;0.262006;0.266;0.405216;0.65108;0.388099;0.286766;0.329901;0.347586;0.284413;0.248921;0.266217;0.270168;0.286078;0.245744;0.202961;0.181399;0.188369;0.144875;0.082313;0.051274;0.03168;0.02303;0.01481;0.008429;0.00768;0.004476;0.003671;0.003318;0.002603;0.001534;0.000962;0.000786;0.00071;0.000691;0.254393;0.26915;0.455507;0.415058;0.541677;0.694503;0.941423;0.237735;0.165961;0.195772;0.182763;0.166844;0.177597;0.142915;0.233949;0.239185;0.157329;0.177454;0.159081;0.182721;0.077072;0.050657;0.032568;0.019551;0.013668;0.007636;0.007753;0.005384;0.00329;0.002706;0.002497;0.001888;0.001404;0.00105;0.000869;0.000736;0.1455655;0.152907;0.2176085;0.225321;0.29972;0.5061705;0.3878215;0.246691;0.2442555;0.277378;0.2500445;0.229203;0.1935225;0.191684;0.2389415;0.211816;0.17383;0.166471;0.1408785;0.1096005;0.072113;0.045539;0.0328885;0.0189955;0.0144375;0.0078935;0.005509;0.0041315;0.003303;0.0024245;0.0019895;0.001316;0.000904;0.000765;0.0006395;0.0005685;0.193933;0.205785;0.271672;0.268798;0.408199;0.709878;0.47856;0.287632;0.33309;0.359932;0.331997;0.252438;0.273682;0.270168;0.29748;0.248833;0.202961;0.186023;0.192407;0.146063;0.088324;0.056928;0.036153;0.023252;0.015906;0.010228;0.00768;0.004477;0.003685;0.003428;0.002813;0.001657;0.001054;0.000853;0.00077;0.000735;0.087798;0.091044;0.15748;0.199469;0.230043;0.224374;0.26388;0.190858;0.136155;0.160475;0.126566;0.130482;0.123896;0.091741;0.138676;0.145546;0.119808;0.150399;0.07922;0.049764;0.03595;0.020856;0.022432;0.015643;0.012737;0.005797;0.003797;0.00273;0.002256;0.001996;0.001305;0.000912;0.000756;0.000588;0.000502;0.000482;0.03846607563034995;0.010293236441505106
