;event_id;event_time;ISC_ev_id;USGS_ev_id;INGV_ev_id;EMSC_ev_id;ev_nation_code;ev_latitude;ev_longitude;ev_depth_km;ev_hyp_ref;fm_type_code;ML;ML_ref;Mw;Mw_ref;Ms;Ms_ref;EMEC_Mw;EMEC_Mw_type;EMEC_Mw_ref;event_source_id;es_strike;es_dip;es_rake;es_strike_dip_rake_ref;es_z_top;es_z_top_ref;es_length;es_width;es_geometry_ref;network_code;station_code;location_code;instrument_code;sensor_depth_m;proximity_code;housing_code;installation_code;st_nation_code;st_latitude;st_longitude;st_elevation;ec8_code;ec8_code_method;ec8_code_ref;vs30_m_sec;vs30_ref;vs30_calc_method;vs30_meas_type;slope_deg;vs30_m_sec_WA;epi_dist;hypo_dist;epi_az;JB_dist;rup_dist;Rx_dist;Ry0_dist;instrument_type_code;late_triggered_flag_01;U_channel_code;U_azimuth_deg;V_channel_code;V_azimuth_deg;W_channel_code;U_hp;V_hp;W_hp;U_lp;V_lp;W_lp;max_usable_T;mag;hypo_depth;rake;rhypo;rrup;rjb;xvf;vs30;vs30measured;z1pt0;region;U_pga;V_pga;W_pga;rotD50_pga;rotD100_pga;rotD00_pga;U_pgv;V_pgv;W_pgv;rotD50_pgv;rotD100_pgv;rotD00_pgv;U_pgd;V_pgd;W_pgd;rotD50_pgd;rotD100_pgd;rotD00_pgd;U_T90;V_T90;W_T90;GM_T90;rotD50_T90;rotD100_T90;rotD00_T90;U_housner;V_housner;W_housner;rotD50_housner;rotD100_housner;rotD00_housner;U_CAV;V_CAV;W_CAV;rotD50_CAV;rotD100_CAV;rotD00_CAV;U_ia;V_ia;W_ia;rotD50_ia;rotD100_ia;rotD00_ia;U_T0_010;U_T0_025;U_T0_040;U_T0_050;U_T0_070;U_T0_100;U_T0_150;U_T0_200;U_T0_250;U_T0_300;U_T0_350;U_T0_400;U_T0_450;U_T0_500;U_T0_600;U_T0_700;U_T0_750;U_T0_800;U_T0_900;U_T1_000;U_T1_200;U_T1_400;U_T1_600;U_T1_800;U_T2_000;U_T2_500;U_T3_000;U_T3_500;U_T4_000;U_T4_500;U_T5_000;U_T6_000;U_T7_000;U_T8_000;U_T9_000;U_T10_000;V_T0_010;V_T0_025;V_T0_040;V_T0_050;V_T0_070;V_T0_100;V_T0_150;V_T0_200;V_T0_250;V_T0_300;V_T0_350;V_T0_400;V_T0_450;V_T0_500;V_T0_600;V_T0_700;V_T0_750;V_T0_800;V_T0_900;V_T1_000;V_T1_200;V_T1_400;V_T1_600;V_T1_800;V_T2_000;V_T2_500;V_T3_000;V_T3_500;V_T4_000;V_T4_500;V_T5_000;V_T6_000;V_T7_000;V_T8_000;V_T9_000;V_T10_000;W_T0_010;W_T0_025;W_T0_040;W_T0_050;W_T0_070;W_T0_100;W_T0_150;W_T0_200;W_T0_250;W_T0_300;W_T0_350;W_T0_400;W_T0_450;W_T0_500;W_T0_600;W_T0_700;W_T0_750;W_T0_800;W_T0_900;W_T1_000;W_T1_200;W_T1_400;W_T1_600;W_T1_800;W_T2_000;W_T2_500;W_T3_000;W_T3_500;W_T4_000;W_T4_500;W_T5_000;W_T6_000;W_T7_000;W_T8_000;W_T9_000;W_T10_000;rotD50_T0_010;rotD50_T0_025;rotD50_T0_040;rotD50_T0_050;rotD50_T0_070;rotD50_T0_100;rotD50_T0_150;rotD50_T0_200;rotD50_T0_250;rotD50_T0_300;rotD50_T0_350;rotD50_T0_400;rotD50_T0_450;rotD50_T0_500;rotD50_T0_600;rotD50_T0_700;rotD50_T0_750;rotD50_T0_800;rotD50_T0_900;rotD50_T1_000;rotD50_T1_200;rotD50_T1_400;rotD50_T1_600;rotD50_T1_800;rotD50_T2_000;rotD50_T2_500;rotD50_T3_000;rotD50_T3_500;rotD50_T4_000;rotD50_T4_500;rotD50_T5_000;rotD50_T6_000;rotD50_T7_000;rotD50_T8_000;rotD50_T9_000;rotD50_T10_000;rotD100_T0_010;rotD100_T0_025;rotD100_T0_040;rotD100_T0_050;rotD100_T0_070;rotD100_T0_100;rotD100_T0_150;rotD100_T0_200;rotD100_T0_250;rotD100_T0_300;rotD100_T0_350;rotD100_T0_400;rotD100_T0_450;rotD100_T0_500;rotD100_T0_600;rotD100_T0_700;rotD100_T0_750;rotD100_T0_800;rotD100_T0_900;rotD100_T1_000;rotD100_T1_200;rotD100_T1_400;rotD100_T1_600;rotD100_T1_800;rotD100_T2_000;rotD100_T2_500;rotD100_T3_000;rotD100_T3_500;rotD100_T4_000;rotD100_T4_500;rotD100_T5_000;rotD100_T6_000;rotD100_T7_000;rotD100_T8_000;rotD100_T9_000;rotD100_T10_000;rotD00_T0_010;rotD00_T0_025;rotD00_T0_040;rotD00_T0_050;rotD00_T0_070;rotD00_T0_100;rotD00_T0_150;rotD00_T0_200;rotD00_T0_250;rotD00_T0_300;rotD00_T0_350;rotD00_T0_400;rotD00_T0_450;rotD00_T0_500;rotD00_T0_600;rotD00_T0_700;rotD00_T0_750;rotD00_T0_800;rotD00_T0_900;rotD00_T1_000;rotD00_T1_200;rotD00_T1_400;rotD00_T1_600;rotD00_T1_800;rotD00_T2_000;rotD00_T2_500;rotD00_T3_000;rotD00_T3_500;rotD00_T4_000;rotD00_T4_500;rotD00_T5_000;rotD00_T6_000;rotD00_T7_000;rotD00_T8_000;rotD00_T9_000;rotD00_T10_000;rotD50_AvgSA[0,3];rotD50_AvgSA[0,6]
5;EMSC-20091107_0000005;2009-11-07 03:13:43;13918549;usp000h3tw;;20091107_0000005;;36.0444;31.813;76.3084;ISC-webservice;U;4.4;ISC-webservice;3.9;ISC-webservice;4.7;ISC-webservice;4.46;MwMb;ISC-webservice;;;;;;;;;;;GE;CSS;00;HL;0.0;;;;CY;34.9611;33.331;396;;;;;;;;6.75297;684.436239;182.8;198.087889358638;311.6;;;;;D;0;E;90.0;N;0.0;Z;0.2;0.2;0.2;30.0;30.0;30.0;4.0;4.46;76.3084;90;198.087889358638;198.087889358638;182.8;128.27;684.436239;False;31.07;2;-0.068103;0.063325;0.056449;0.06462;0.070495;0.058018;-0.003658;0.003147;0.00277;0.003406915;0.00378865;0.00271355;-0.000548;0.000635;0.00038;0.0005502305;0.00067136;0.000427065;37.55;38.255;42.095;37.901;38.0725;38.72;37.2;0.01349;0.0135758;0.00974501;0.0139182;0.0142264;0.01349;0.67254704022;0.663265225698;0.66921971537;0.666663152406;0.689585599532;0.63598213522;1.69052164296e-05;1.60299554382e-05;1.62682371761e-05;1.64675832851e-05;1.78104397001e-05;1.5124735126e-05;0.06957;0.077841;0.140915;0.152478;0.173907;0.18708;0.15871;0.102488;0.071176;0.081583;0.09858;0.144637;0.113713;0.083163;0.079459;0.08575;0.082154;0.092953;0.070361;0.059388;0.034495;0.024305;0.015461;0.015388;0.011244;0.005624;0.003105;0.002441;0.001883;0.001537;0.001325;0.000867;0.000611;0.000484;0.00042;0.000363;0.063728;0.070323;0.140621;0.211299;0.183054;0.183132;0.213253;0.098592;0.099965;0.10468;0.111393;0.093853;0.109601;0.106822;0.082319;0.090361;0.074259;0.074725;0.068305;0.044268;0.027029;0.020968;0.015021;0.011928;0.016419;0.012868;0.005278;0.00361;0.002167;0.001646;0.001307;0.000871;0.000617;0.00047;0.000391;0.000371;0.056552;0.06693;0.131086;0.188147;0.173592;0.161758;0.146223;0.093357;0.067196;0.061238;0.066363;0.082434;0.09323;0.087459;0.070437;0.053486;0.052204;0.047302;0.052905;0.031592;0.020104;0.020808;0.013759;0.008464;0.006756;0.005147;0.002393;0.002258;0.001549;0.001399;0.00088;0.000549;0.000423;0.000329;0.000282;0.000235;0.0655445;0.0718735;0.1403135;0.1860675;0.181378;0.199497;0.1739745;0.09982;0.0778525;0.096508;0.1045095;0.116679;0.1087085;0.1049345;0.0814325;0.089913;0.0795795;0.0851085;0.0748985;0.0526725;0.031978;0.022597;0.0153585;0.012599;0.014176;0.0097535;0.004519;0.0031075;0.002015;0.001553;0.001283;0.000836;0.0006045;0.0004675;0.0003885;0.000347;0.071467;0.079266;0.145994;0.219458;0.206206;0.209538;0.221099;0.107272;0.100472;0.107057;0.127361;0.144825;0.125526;0.128235;0.089742;0.1104;0.09809;0.094498;0.081766;0.062294;0.034744;0.024756;0.016068;0.016647;0.016924;0.013036;0.005574;0.0042;0.002685;0.002005;0.001434;0.000914;0.000677;0.000491;0.000421;0.000372;0.059143;0.066182;0.123745;0.152478;0.154558;0.172684;0.148615;0.093176;0.064235;0.07208;0.090974;0.086484;0.079821;0.078842;0.072919;0.066614;0.071062;0.061789;0.064272;0.039645;0.026934;0.016805;0.012989;0.010865;0.010905;0.00521;0.003105;0.00229;0.00167;0.001234;0.000976;0.000627;0.000484;0.000393;0.000335;0.000275;0.023811078153925733;0.0065602807315768875
6;EMSC-20091201_0000021;2009-12-01 17:54:03;13979390;usp000h4n7;;20091201_0000021;GR;36.2274;26.9512;127.5831;ISC-webservice;TF;4.38;ISC-webservice;4.27;ISC-webservice;;;4.7;Mw;Pap10;;;;;;;;;;;GE;KARP;00;HN;0.0;;;;GR;35.5472;27.1612;528;;;;;;;;14.280055;925.130666;77.8;149.43322055557124;346.0;;;;;D;0;E;90.0;N;0.0;Z;0.1;0.1;0.1;30.0;30.0;30.0;8.0;4.7;127.5831;90;149.43322055557124;149.43322055557124;77.8;116.59;925.130666;False;31.07;3;0.896802;1.413163;-1.102607;1.142213;1.443512;0.864096;-0.017324;0.045118;0.031682;0.03708995;0.047182;0.0173239;0.000892;-0.002965;-0.0015;0.00209161;0.00296349;0.000672443;18.765;11.72;16.52;14.83;17.6975;18.935;11.7;0.028116;0.0805232;0.0586736;0.059441;0.0810337;0.0274032;2.86629766714;3.01073622033;3.8053632044;2.97431832073;3.08217181387;2.85457766497;0.000800946642578;0.00104000398408;0.00146470775031;0.000920475283846;0.00104704498027;0.00079390561385;0.902519;1.06833;2.21988;4.21229;2.31802;1.78459;1.94317;1.81418;1.16875;0.85546;0.599796;0.504005;0.456221;0.296139;0.158273;0.150292;0.116953;0.083125;0.055669;0.044395;0.026995;0.022513;0.019946;0.013859;0.011441;0.008101;0.005852;0.004487;0.003415;0.002854;0.002363;0.001858;0.001643;0.001273;0.001103;0.000952;1.41797;1.47209;1.75636;3.17111;2.86532;2.50114;1.94574;3.16109;2.56876;2.70946;2.20553;1.70835;1.29361;0.999515;0.586205;0.427605;0.386863;0.312153;0.163654;0.14806;0.12126;0.077756;0.059953;0.048463;0.040206;0.025018;0.017404;0.013702;0.011378;0.009986;0.008562;0.006721;0.005454;0.004678;0.003954;0.003428;1.10477;1.22608;2.02039;2.85225;4.09443;2.95111;2.40405;4.05191;2.63107;1.90491;1.38025;0.974745;0.916324;0.625103;0.480703;0.324493;0.22202;0.157418;0.125703;0.112047;0.077588;0.04383;0.041866;0.030941;0.021375;0.013807;0.011906;0.009829;0.007837;0.006706;0.005174;0.003957;0.00324;0.00279;0.002396;0.002193;1.144275;1.22326;1.964995;3.487595;2.584245;2.04466;1.979165;2.250245;2.01422;2.04044;1.598675;1.24252;0.96523;0.753681;0.424858;0.303799;0.277044;0.2257875;0.119075;0.1048755;0.0860175;0.0550985;0.042393;0.0344245;0.028487;0.0176975;0.0123065;0.009689;0.0080555;0.0070835;0.0060675;0.0047865;0.003915;0.0033815;0.002872;0.002499;1.44452;1.50118;2.23572;4.21343;3.18319;2.57936;2.40543;3.17429;2.75691;2.76056;2.21429;1.70877;1.30306;1.0046;0.586205;0.427605;0.389592;0.317947;0.168398;0.148317;0.121642;0.077921;0.059953;0.048638;0.040278;0.025028;0.017404;0.013702;0.011381;0.009992;0.008562;0.006721;0.005454;0.004678;0.003954;0.003428;0.870191;1.01654;1.70134;2.6109;2.09416;1.54659;1.54824;1.64551;0.730075;0.583665;0.599796;0.487616;0.439181;0.281593;0.158273;0.130997;0.101723;0.069359;0.053986;0.041696;0.026995;0.020504;0.017932;0.012078;0.010265;0.006744;0.004562;0.003458;0.002586;0.002427;0.002061;0.001606;0.001348;0.001126;0.00101;0.000953;0.08536094443755987;0.026460016647971693
7;EMSC-20100105_0000004;2010-01-05 02:47:16;14216064;usp000h5r4;2144809;20100105_0000004;GR;36.1489;25.4242;116.6182;ISC-webservice;NF;4.5;ISC-webservice;4.3;ISC-webservice;2.8;ISC-webservice;4.8;Mw;Pap10;;;;;;;;;;;GE;KARP;00;HN;0.0;;;;GR;35.5472;27.1612;528;;;;;;;;14.280055;925.130666;170.5;206.56731244618544;293.6;;;;;D;0;E;90.0;N;0.0;Z;0.2;0.2;0.2;30.0;30.0;30.0;4.0;4.8;116.6182;90;206.56731244618544;206.56731244618544;170.5;116.59;925.130666;False;31.07;3;0.697856;-0.6695;-1.050965;0.683678;0.952918;0.407795;-0.008455;0.011361;-0.012514;0.01105875;0.0123542;0.00655976;-0.000261;-0.000401;0.000347;0.000317533;0.000416599;0.000228836;27.17;29.975;27.925;28.538;28.76;31.395;26.7;0.00912391;0.0167464;0.0139636;0.01337865;0.0168153;0.00894127;1.80235048128;2.06119343582;2.58545165687;1.93442715966;2.17445753414;1.67467210507;0.000243992457128;0.000293106147844;0.000530405556367;0.000268549269123;0.000357547251875;0.000179551392638;0.702843;0.822236;2.13322;1.75542;1.82061;1.71552;0.517737;0.461664;0.317676;0.285759;0.270797;0.135998;0.100871;0.078269;0.068238;0.037851;0.030501;0.0291;0.025274;0.016515;0.012054;0.008114;0.006048;0.005144;0.004535;0.003253;0.002381;0.001681;0.001492;0.001407;0.001035;0.000826;0.00073;0.000656;0.00059;0.000526;0.677105;0.737131;1.17111;1.22706;2.206;1.77488;0.923224;0.902327;0.547798;0.394149;0.33057;0.269035;0.192603;0.118431;0.095742;0.079551;0.072701;0.059626;0.064847;0.042855;0.024094;0.015945;0.013307;0.00945;0.008309;0.004537;0.002985;0.002223;0.00183;0.001537;0.001271;0.001031;0.000907;0.000814;0.000721;0.000652;1.05604;1.24462;2.29216;2.18348;2.94642;3.56455;1.00824;0.552798;0.332821;0.334951;0.260179;0.215316;0.14261;0.147914;0.058536;0.090361;0.095495;0.074154;0.04127;0.025218;0.021649;0.012353;0.008786;0.006852;0.006676;0.003922;0.003058;0.002318;0.001876;0.001707;0.001485;0.001309;0.001092;0.000962;0.000855;0.000766;0.689974;0.780425;1.608535;1.626975;2.05085;1.722475;0.7921205;0.686613;0.475962;0.3242235;0.2971385;0.2180585;0.1573655;0.109017;0.0829005;0.056736;0.0522175;0.0462405;0.045854;0.031449;0.018011;0.012376;0.010089;0.008312;0.006873;0.004017;0.0029645;0.0022295;0.0018605;0.0016615;0.0013055;0.0010545;0.0009025;0.00081;0.00072;0.000649;0.971232;1.10369;2.14058;1.7898;2.58613;2.25702;0.926341;0.91037;0.55322;0.417437;0.365397;0.289255;0.199801;0.125395;0.103522;0.079912;0.072996;0.059626;0.064847;0.043909;0.024094;0.016106;0.013307;0.009981;0.008412;0.004911;0.003268;0.002371;0.002088;0.001923;0.001458;0.001199;0.001052;0.000929;0.000825;0.000747;0.417;0.562186;1.07589;1.21115;1.29533;1.25498;0.496268;0.363014;0.248148;0.224781;0.253304;0.121784;0.091968;0.078269;0.054826;0.032844;0.029731;0.027479;0.022411;0.014861;0.011632;0.008114;0.006048;0.004407;0.003927;0.002402;0.002051;0.001553;0.001181;0.001181;0.000859;0.000676;0.000589;0.000485;0.000422;0.000376;0.021375658185156177;0.006511705135733718
8;EMSC-20100105_0000004;2010-01-05 02:47:16;14216064;usp000h5r4;2144809;20100105_0000004;GR;36.1489;25.4242;116.6182;ISC-webservice;NF;4.5;ISC-webservice;4.3;ISC-webservice;2.8;ISC-webservice;4.8;Mw;Pap10;;;;;;;;;;;HL;IACM;00;HN;0.0;;;;GR;35.3058;25.0709;45;;;;;;;;10.145915;816.166285;98.9;152.9085170003293;18.8;;;;;D;0;E;90.0;N;0.0;Z;0.15;0.15;0.15;30.0;30.0;30.0;5.333333333333334;4.8;116.6182;90;152.9085170003293;152.9085170003293;98.9;123.8;816.166285;False;31.07;3;1.340505;1.380162;2.044287;1.3571605;1.402582;1.210925;0.065187;-0.065577;-0.04589;0.0606611;0.0655769;0.0499818;0.004993;-0.004034;-0.002505;0.00487598;0.00520658;0.00398484;24.2;25.555;29.0;24.868;24.985;25.635;23.99;0.179972;0.167722;0.100929;0.1735425;0.181518;0.16674;9.15236254339;9.71299444926;9.52458907538;9.4730863203;9.92337884136;9.05122506439;0.00413691528144;0.00456143971498;0.00373409914842;0.0043491776256;0.00466425759372;0.00403409796195;1.35192;1.40045;2.13992;2.75138;2.99117;3.22573;3.52785;3.83062;3.77977;2.53359;2.80662;3.2618;2.4773;2.00181;1.4229;0.859266;0.900756;0.726073;0.604883;0.529658;0.52772;0.315556;0.192587;0.114987;0.075364;0.047789;0.033426;0.024773;0.019354;0.016731;0.013159;0.009597;0.007657;0.006462;0.005641;0.004954;1.3979;1.48222;1.7712;2.6192;3.16931;4.8264;2.76814;3.87593;4.81975;4.17675;3.41222;2.95914;2.35823;2.10606;1.17708;0.961446;0.911069;0.777735;0.516161;0.468471;0.424893;0.254237;0.124845;0.094611;0.067165;0.036835;0.026861;0.018167;0.013468;0.011905;0.01017;0.00746;0.006419;0.005177;0.004661;0.004153;2.05762;2.17131;3.06733;2.72382;4.00291;7.44529;3.32262;2.39995;2.35126;1.44331;1.471;1.61601;1.66914;1.79712;1.16848;0.713605;0.584736;0.434091;0.375647;0.26092;0.156229;0.081584;0.05372;0.042118;0.033787;0.024065;0.017124;0.013098;0.010706;0.009246;0.008085;0.006613;0.005269;0.004407;0.003848;0.003376;1.363935;1.427485;1.854315;2.723595;2.990375;3.899545;3.23929;3.678965;4.255575;3.212135;3.27259;2.958445;2.41804;2.155325;1.398595;0.9125565;0.912678;0.738937;0.5771505;0.5083625;0.4779645;0.2877815;0.147856;0.10516;0.0741705;0.043877;0.0296685;0.021451;0.0163005;0.0141875;0.0108885;0.008239;0.0065425;0.0055695;0.004658;0.0041215;1.40779;1.49713;2.3481;2.9996;3.21676;4.93314;3.99434;3.92342;5.16897;4.26271;3.83222;3.4056;2.79281;2.50871;1.47141;0.993927;0.985352;0.799888;0.654337;0.582509;0.549803;0.333769;0.198529;0.123899;0.080689;0.04801;0.033426;0.024773;0.019354;0.016731;0.013682;0.009844;0.007744;0.006532;0.005725;0.005008;1.21522;1.28432;1.69458;2.41416;2.5537;3.12325;2.63029;3.07822;3.73088;2.53359;2.66627;2.89043;2.0219;1.88447;1.00634;0.816887;0.767975;0.626753;0.417362;0.328568;0.357613;0.252991;0.124024;0.083403;0.067165;0.036833;0.024195;0.016741;0.013424;0.011655;0.009772;0.007115;0.006125;0.004994;0.004354;0.003792;0.23266484256533523;0.05965726735146401
9;EMSC-20100716_0000025;2010-07-16 08:11:02;14992685;usp000hfbp;;20100716_0000025;GR;36.8323;26.9143;167.1351;ISC-webservice;SS;5.1;ISC-webservice;5.15;ISC-webservice;5.0;ISC-webservice;5.18;HaKaM0;HCMTS;;;;;;;;;;;GE;KARP;00;HN;0.0;;;;GR;35.5472;27.1612;528;;;;;;;;14.280055;925.130666;144.3;220.80903888203943;351.2;;;;;D;0;E;90.0;N;0.0;Z;0.1;0.1;0.1;30.0;30.0;30.0;8.0;5.18;167.1351;90;220.80903888203943;220.80903888203943;144.3;116.59;925.130666;False;31.07;3;-2.970736;6.999521;-6.696788;5.2480765;7.027682;2.935354;-0.081355;0.205396;-0.22926;0.153309;0.207788;0.0813551;-0.006217;0.007829;0.014764;0.008537175;0.00939809;0.00613629;27.66;12.99;25.095;18.955;23.8425;27.67;12.775;0.207302;0.373434;0.4389;0.3071455;0.381775;0.20177;15.4502421732;21.9154874519;27.4076846097;19.2979371934;21.9370046138;15.4502421732;0.016486356671;0.0408996028774;0.0554546582648;0.0286929788348;0.0408996028774;0.016486356671;3.00338;3.22208;5.13646;8.91115;9.93847;9.92116;11.3949;5.87051;4.36305;5.37234;3.80383;2.79773;2.06271;1.97622;2.66502;1.31621;1.12249;0.805336;0.657749;0.618607;0.317483;0.234493;0.170068;0.100197;0.071489;0.050438;0.042801;0.034315;0.023794;0.017796;0.015075;0.011513;0.008849;0.007441;0.006328;0.005598;7.00567;7.55738;9.04851;10.5159;14.4907;29.6341;21.1998;14.6233;8.25633;12.4764;9.07511;4.84666;4.78443;4.26503;3.85642;2.09801;1.57894;1.25827;0.905798;0.635925;0.460214;0.329985;0.184149;0.18553;0.151558;0.116936;0.069059;0.046462;0.038383;0.032096;0.026707;0.021485;0.018447;0.016255;0.014448;0.012884;6.78397;7.4001;9.18822;12.6315;18.8509;31.5148;12.0832;20.5677;8.14456;9.73475;5.82081;4.73041;5.54408;6.48189;3.86118;2.9511;2.38819;2.78278;1.9737;0.923998;0.741402;0.475329;0.340396;0.223461;0.170826;0.153317;0.093108;0.087829;0.063342;0.04792;0.032889;0.030845;0.027875;0.024231;0.020663;0.017794;5.26131;5.66515;7.157645;9.83799;12.8719;21.60815;16.08235;11.0716;6.48225;9.436095;6.94681;4.121455;3.613105;3.38407;3.673025;1.587215;1.41502;1.147065;0.8458745;0.646635;0.4385165;0.283646;0.1821415;0.144787;0.113347;0.0912985;0.0592165;0.042598;0.0332875;0.028043;0.022607;0.017466;0.0142815;0.012457;0.011039;0.009831;7.04365;7.60076;9.16722;10.6858;14.9148;29.6341;21.2219;14.9804;8.68379;13.3369;9.81914;5.50221;4.97424;4.40994;4.09887;2.1286;1.63049;1.27568;1.00987;0.684799;0.513102;0.378876;0.202905;0.190941;0.154441;0.120991;0.071714;0.050623;0.038467;0.032819;0.026974;0.021959;0.018717;0.016483;0.014672;0.013102;2.94204;3.16592;5.10643;7.9623;9.79579;8.98195;11.026;5.65906;4.23357;5.37234;2.90325;2.04706;2.06271;1.92199;2.66502;1.23763;1.12249;0.775274;0.510005;0.511767;0.303261;0.169409;0.130025;0.096267;0.071123;0.044468;0.036405;0.030333;0.021667;0.017308;0.014914;0.011393;0.008755;0.007313;0.006181;0.00546;0.41647750576722986;0.11683350954929803
