;event_id;event_time;ISC_ev_id;USGS_ev_id;INGV_ev_id;EMSC_ev_id;ev_nation_code;ev_latitude;ev_longitude;ev_depth_km;ev_hyp_ref;fm_type_code;ML;ML_ref;Mw;Mw_ref;Ms;Ms_ref;EMEC_Mw;EMEC_Mw_type;EMEC_Mw_ref;event_source_id;es_strike;es_dip;es_rake;es_strike_dip_rake_ref;es_z_top;es_z_top_ref;es_length;es_width;es_geometry_ref;network_code;station_code;location_code;instrument_code;sensor_depth_m;proximity_code;housing_code;installation_code;st_nation_code;st_latitude;st_longitude;st_elevation;ec8_code;ec8_code_method;ec8_code_ref;vs30_m_sec;vs30_ref;vs30_calc_method;vs30_meas_type;slope_deg;vs30_m_sec_WA;epi_dist;hypo_dist;epi_az;JB_dist;rup_dist;Rx_dist;Ry0_dist;instrument_type_code;late_triggered_flag_01;U_channel_code;U_azimuth_deg;V_channel_code;V_azimuth_deg;W_channel_code;U_hp;V_hp;W_hp;U_lp;V_lp;W_lp;max_usable_T;mag;hypo_depth;rake;rhypo;rrup;rjb;xvf;vs30;vs30measured;z1pt0;region;U_pga;V_pga;W_pga;rotD50_pga;rotD100_pga;rotD00_pga;U_pgv;V_pgv;W_pgv;rotD50_pgv;rotD100_pgv;rotD00_pgv;U_pgd;V_pgd;W_pgd;rotD50_pgd;rotD100_pgd;rotD00_pgd;U_T90;V_T90;W_T90;GM_T90;rotD50_T90;rotD100_T90;rotD00_T90;U_housner;V_housner;W_housner;rotD50_housner;rotD100_housner;rotD00_housner;U_CAV;V_CAV;W_CAV;rotD50_CAV;rotD100_CAV;rotD00_CAV;U_ia;V_ia;W_ia;rotD50_ia;rotD100_ia;rotD00_ia;U_T0_010;U_T0_025;U_T0_040;U_T0_050;U_T0_070;U_T0_100;U_T0_150;U_T0_200;U_T0_250;U_T0_300;U_T0_350;U_T0_400;U_T0_450;U_T0_500;U_T0_600;U_T0_700;U_T0_750;U_T0_800;U_T0_900;U_T1_000;U_T1_200;U_T1_400;U_T1_600;U_T1_800;U_T2_000;U_T2_500;U_T3_000;U_T3_500;U_T4_000;U_T4_500;U_T5_000;U_T6_000;U_T7_000;U_T8_000;U_T9_000;U_T10_000;V_T0_010;V_T0_025;V_T0_040;V_T0_050;V_T0_070;V_T0_100;V_T0_150;V_T0_200;V_T0_250;V_T0_300;V_T0_350;V_T0_400;V_T0_450;V_T0_500;V_T0_600;V_T0_700;V_T0_750;V_T0_800;V_T0_900;V_T1_000;V_T1_200;V_T1_400;V_T1_600;V_T1_800;V_T2_000;V_T2_500;V_T3_000;V_T3_500;V_T4_000;V_T4_500;V_T5_000;V_T6_000;V_T7_000;V_T8_000;V_T9_000;V_T10_000;W_T0_010;W_T0_025;W_T0_040;W_T0_050;W_T0_070;W_T0_100;W_T0_150;W_T0_200;W_T0_250;W_T0_300;W_T0_350;W_T0_400;W_T0_450;W_T0_500;W_T0_600;W_T0_700;W_T0_750;W_T0_800;W_T0_900;W_T1_000;W_T1_200;W_T1_400;W_T1_600;W_T1_800;W_T2_000;W_T2_500;W_T3_000;W_T3_500;W_T4_000;W_T4_500;W_T5_000;W_T6_000;W_T7_000;W_T8_000;W_T9_000;W_T10_000;rotD50_T0_010;rotD50_T0_025;rotD50_T0_040;rotD50_T0_050;rotD50_T0_070;rotD50_T0_100;rotD50_T0_150;rotD50_T0_200;rotD50_T0_250;rotD50_T0_300;rotD50_T0_350;rotD50_T0_400;rotD50_T0_450;rotD50_T0_500;rotD50_T0_600;rotD50_T0_700;rotD50_T0_750;rotD50_T0_800;rotD50_T0_900;rotD50_T1_000;rotD50_T1_200;rotD50_T1_400;rotD50_T1_600;rotD50_T1_800;rotD50_T2_000;rotD50_T2_500;rotD50_T3_000;rotD50_T3_500;rotD50_T4_000;rotD50_T4_500;rotD50_T5_000;rotD50_T6_000;rotD50_T7_000;rotD50_T8_000;rotD50_T9_000;rotD50_T10_000;rotD100_T0_010;rotD100_T0_025;rotD100_T0_040;rotD100_T0_050;rotD100_T0_070;rotD100_T0_100;rotD100_T0_150;rotD100_T0_200;rotD100_T0_250;rotD100_T0_300;rotD100_T0_350;rotD100_T0_400;rotD100_T0_450;rotD100_T0_500;rotD100_T0_600;rotD100_T0_700;rotD100_T0_750;rotD100_T0_800;rotD100_T0_900;rotD100_T1_000;rotD100_T1_200;rotD100_T1_400;rotD100_T1_600;rotD100_T1_800;rotD100_T2_000;rotD100_T2_500;rotD100_T3_000;rotD100_T3_500;rotD100_T4_000;rotD100_T4_500;rotD100_T5_000;rotD100_T6_000;rotD100_T7_000;rotD100_T8_000;rotD100_T9_000;rotD100_T10_000;rotD00_T0_010;rotD00_T0_025;rotD00_T0_040;rotD00_T0_050;rotD00_T0_070;rotD00_T0_100;rotD00_T0_150;rotD00_T0_200;rotD00_T0_250;rotD00_T0_300;rotD00_T0_350;rotD00_T0_400;rotD00_T0_450;rotD00_T0_500;rotD00_T0_600;rotD00_T0_700;rotD00_T0_750;rotD00_T0_800;rotD00_T0_900;rotD00_T1_000;rotD00_T1_200;rotD00_T1_400;rotD00_T1_600;rotD00_T1_800;rotD00_T2_000;rotD00_T2_500;rotD00_T3_000;rotD00_T3_500;rotD00_T4_000;rotD00_T4_500;rotD00_T5_000;rotD00_T6_000;rotD00_T7_000;rotD00_T8_000;rotD00_T9_000;rotD00_T10_000;rotD50_AvgSA[0,3];rotD50_AvgSA[0,6]
15;EMSC-20101217_0000017;2010-12-17 09:37:47;15806976;usp000hr10;2294049;20101217_0000017;GR;36.9624;23.9897;109.3245;ISC-webservice;TF;4.7;ISC-webservice;4.61;ISC-webservice;4.2;ISC-webservice;5.4;Mw;Pap10;;;;;;;;;;;HL;MNVA;00;HN;0.0;;;;GR;36.68709;23.03734;12;;;;;;;;2.2317;445.191501;90.3;141.7954029588054;69.9;;;;;D;0;E;125.0;N;35.0;Z;0.1;0.1;0.1;30.0;30.0;30.0;8.0;5.4;109.3245;90;141.7954029588054;141.7954029588054;90.3;75.15;445.191501;False;31.07;3;0.660264;1.482728;0.541;1.1159095;1.545372;0.587799;-0.033659;0.04766;-0.025794;0.0412748;0.0581102;0.0298581;0.00297;-0.003094;0.001923;0.003138175;0.00415511;0.00241359;17.755;13.165;24.34;15.289;14.6975;20.24;11.73;0.0923552;0.0982613;0.0611254;0.0933376;0.0998341;0.0895652;1.95154796548;2.63473071579;2.44165404254;2.32310720027;2.63626133485;1.94876800058;0.0003366168202;0.000849383505333;0.000386824454487;0.000593000168305;0.000853822491631;0.000332177882602;0.661738;0.681445;0.723508;0.788;0.85884;1.32878;1.08539;1.26367;1.26173;1.55429;1.91175;1.86852;1.18119;1.16171;0.815988;0.648401;0.642319;0.592982;0.400277;0.265435;0.164447;0.109826;0.079289;0.054387;0.046256;0.023048;0.017822;0.015282;0.0114;0.01029;0.007788;0.005179;0.004047;0.003277;0.002785;0.002324;1.48876;1.54016;1.65539;1.92367;2.4304;3.74618;3.11746;2.30725;4.30516;2.74287;2.40926;1.65817;1.58803;1.77345;0.727126;0.435575;0.362081;0.320498;0.316946;0.270539;0.120906;0.07518;0.057696;0.050138;0.040528;0.035104;0.025277;0.019561;0.014871;0.012455;0.009162;0.006144;0.004727;0.003804;0.003249;0.002757;0.54554;0.577296;0.708991;0.991756;0.946583;1.6207;1.29178;1.38363;1.30904;0.940532;1.29351;1.20014;1.27951;1.08118;0.454668;0.354583;0.306785;0.282088;0.216863;0.164286;0.079934;0.057348;0.042075;0.030362;0.03114;0.022838;0.012806;0.009249;0.007894;0.006243;0.004429;0.00388;0.002705;0.002507;0.001985;0.001724;1.1168;1.149455;1.249305;1.541005;1.81008;2.82831;2.45741;1.86682;3.104405;2.310425;2.19186;1.722865;1.529305;1.435065;0.739;0.523068;0.4932045;0.44789;0.348558;0.267987;0.1466475;0.096336;0.0719055;0.0519785;0.043148;0.029526;0.0204895;0.015674;0.0118845;0.010356;0.0085425;0.006045;0.0048865;0.0041345;0.0035635;0.0031335;1.55535;1.60942;1.72569;1.97871;2.47605;3.92035;3.26946;2.52546;4.3731;3.12597;2.80726;1.86852;1.71774;1.78469;0.901961;0.65835;0.648065;0.59903;0.471954;0.320261;0.165313;0.110015;0.079659;0.070352;0.056419;0.035104;0.025538;0.019953;0.015033;0.012698;0.009929;0.007273;0.005591;0.004586;0.003873;0.003404;0.588209;0.60784;0.684984;0.764911;0.852458;1.18174;1.08539;1.26367;1.10084;1.1685;1.17558;1.3279;0.974673;0.916285;0.618829;0.350419;0.286065;0.22256;0.176338;0.128998;0.083236;0.056416;0.047078;0.042952;0.032933;0.019279;0.013737;0.011298;0.009214;0.008182;0.006878;0.005178;0.00394;0.00324;0.002675;0.002325;0.13593625466696557;0.038636636004545734
16;EMSC-20110401_0000033;2011-04-01 13:29:11;600575114;usp000hz2h;2332319;20110401_0000033;GR;35.7317;26.5466;75.5295;ISC-webservice;SS;6.0;ISC-webservice;6.1;ISC-webservice;5.7;ISC-webservice;6.0;Mw;GEOFON;;;;;;;;;;;GE;KARP;00;HN;0.0;;;;GR;35.5472;27.1612;528;;;;;;;;14.280055;925.130666;59.3;96.0270554075777;290.4;;;;;D;0;E;90.0;N;0.0;Z;0.03;0.03;0.03;30.0;30.0;30.0;26.666666666666668;6.0;75.5295;90;96.0270554075777;96.0270554075777;59.3;116.59;925.130666;False;31.07;3;-47.461693;89.840114;-67.452185;67.995449;90.530579;45.997585;-1.409346;-3.657554;-3.501978;2.645595;3.74143;1.39042;0.198308;0.369119;-0.479992;0.343396;0.3762;0.184006;15.31;9.945;13.76;12.339;13.2825;15.31;9.865;4.84012;9.57113;11.5146;7.361775;9.59865;4.83123;154.581640728;221.228070192;239.281227614;194.177194826;221.228070192;154.581640728;2.3774511802;6.29233966943;6.11482026469;4.33489525372;6.29233966943;2.3774511802;47.6128;50.4519;82.1906;100.977;107.263;115.594;133.858;115.371;89.6567;95.0177;63.5611;52.4566;37.5741;26.9552;19.2946;20.8373;23.3431;29.1296;26.9642;19.6201;9.32206;5.71906;6.51722;4.14296;4.01593;2.12962;1.00906;0.909475;0.734907;0.640027;0.626399;0.440373;0.403501;0.297455;0.222295;0.176169;90.2854;94.0393;104.92;130.12;145.978;311.698;272.478;285.289;211.378;182.645;141.326;137.558;96.0135;63.7376;58.0865;58.3514;50.2633;47.9157;40.0686;27.3245;19.7586;10.6932;10.3051;8.7626;6.89907;3.85343;3.02954;1.88987;1.5178;1.29271;1.02162;0.737275;0.549309;0.424031;0.344042;0.291107;67.4541;71.4391;104.892;111.113;239.962;152.752;179.79;215.747;199.358;157.536;152.656;92.9009;62.5673;50.1684;59.1145;53.3305;62.0263;63.3607;48.0336;43.7197;45.2427;26.9108;13.7206;7.7347;6.09705;4.34592;3.31256;2.11114;2.09352;1.91288;1.46577;0.977204;0.72144;0.533177;0.450222;0.390395;68.7071;72.3239;86.12385;108.0865;125.1075;232.615;199.1815;207.2245;156.663;146.515;113.21;99.4087;75.28575;45.80005;42.5167;41.5965;38.0543;35.14545;28.7222;24.475;14.1103;8.939895;8.70429;6.930585;5.69621;3.015165;2.30507;1.481905;1.073675;0.9158665;0.7278315;0.5545475;0.447339;0.350995;0.286676;0.2426935;90.7275;94.6142;105.537;137.286;146.269;313.987;275.363;285.612;220.3;182.645;141.371;140.007;98.8869;64.7475;58.1201;58.7857;51.4145;48.7392;40.1871;27.469;19.8073;10.862;10.7982;9.37725;7.22998;3.85343;3.02954;1.88987;1.5178;1.29468;1.02767;0.738537;0.564586;0.442767;0.359456;0.303795;46.0461;49.11;73.5728;98.7345;107.263;113.945;117.448;95.9776;85.0674;80.8988;63.5611;46.2433;37.5741;24.3693;19.2946;19.1259;23.3431;24.0211;23.4035;13.5814;7.58381;4.61;4.32864;3.29432;3.12282;2.12962;1.00906;0.895722;0.65331;0.599933;0.566521;0.440372;0.36816;0.277798;0.216018;0.175728;12.585678547387543;3.49314082182791
17;EMSC-20110401_0000033;2011-04-01 13:29:11;600575114;usp000hz2h;2332319;20110401_0000033;GR;35.7317;26.5466;75.5295;ISC-webservice;SS;6.0;ISC-webservice;6.1;ISC-webservice;5.7;ISC-webservice;6.0;Mw;GEOFON;;;;;;;;;;;HL;ANKY;00;HN;0.0;;;;GR;35.86704;23.30117;143;;;;;;;;6.937541;695.873582;293.7;303.25631958831457;92.0;;;;;D;0;E;90.0;N;0.0;Z;0.05;0.05;0.05;30.0;30.0;30.0;16.0;6.0;75.5295;90;303.25631958831457;303.25631958831457;293.7;125.68;695.873582;False;31.07;3;0.719157;0.858693;-0.736132;0.8122585;0.977493;0.622405;0.106454;-0.119706;-0.056463;0.107781;0.14137;0.0756711;-0.03076;0.039531;0.01934;0.0355408;0.0454543;0.0301717;110.965;95.395;89.295;102.886;102.155;111.985;93.41;0.555162;0.579274;0.229274;0.56632;0.650844;0.455684;14.9035444351;14.2447286685;10.3071964053;14.59279207;15.0718010338;14.0172493413;0.00383022961887;0.00372657025117;0.00217427769329;0.00377840022279;0.00384903812179;0.00370776185347;0.719225;0.728682;0.779452;1.35932;3.16668;1.3996;1.77354;1.50986;1.72417;1.8354;1.64909;2.13835;1.64014;1.63211;1.43422;1.24678;1.66864;1.4305;1.5961;1.34228;1.97334;1.69197;1.31505;1.08572;0.804215;0.522647;0.373694;0.321202;0.288272;0.205173;0.15262;0.089255;0.057186;0.04174;0.03917;0.038639;0.858809;0.867159;0.869918;1.01003;1.28267;1.1924;1.4392;1.64713;1.77256;2.28175;1.89567;1.7807;1.39397;1.37633;1.24918;1.55734;2.09951;1.87682;1.81137;1.61709;1.90396;2.29622;1.28314;0.916229;0.717769;0.461992;0.276819;0.363392;0.336624;0.23204;0.150053;0.112539;0.054813;0.039742;0.033044;0.028988;0.737961;0.801352;1.23657;1.85768;3.61499;1.95225;1.63284;1.49733;1.31933;1.21416;1.3198;1.59908;1.3979;0.892941;0.732561;0.690496;0.75289;0.55826;0.503746;0.687848;0.723139;0.590033;0.396495;0.391627;0.372023;0.213055;0.178374;0.160359;0.180391;0.163368;0.115979;0.082374;0.051389;0.030125;0.021114;0.017342;0.812646;0.8188255;0.877061;1.168775;2.33361;1.30825;1.63712;1.63183;1.76095;2.12191;1.968985;1.911885;1.435525;1.44585;1.26491;1.410725;1.666315;1.52497;1.60926;1.516285;1.946405;2.016965;1.299095;1.013035;0.7778395;0.4639855;0.3151095;0.3138235;0.310236;0.2267145;0.1571165;0.0964345;0.058232;0.0415955;0.0370365;0.03399;0.977599;0.987609;1.01258;1.53438;3.29064;1.48337;1.85796;1.77983;1.98916;2.36341;2.22477;2.17977;1.75481;1.63211;1.6332;1.80552;2.11903;1.91288;1.87652;1.68701;2.17734;2.77507;1.83628;1.09678;0.903377;0.534836;0.374446;0.36418;0.363433;0.252742;0.185917;0.11357;0.066809;0.052431;0.042948;0.040404;0.622891;0.636433;0.77944;0.973636;1.15816;1.13311;1.37837;1.48834;1.42444;1.71688;1.62503;1.6529;1.30712;1.05153;1.11733;0.95268;1.30832;1.23928;1.27177;1.1297;1.10768;1.13851;0.716098;0.669778;0.697246;0.417394;0.271177;0.272126;0.279229;0.19384;0.138689;0.086691;0.05283;0.032029;0.027143;0.024832;0.9224814460360373;0.42123826661325975
18;EMSC-20110401_0000033;2011-04-01 13:29:11;600575114;usp000hz2h;2332319;20110401_0000033;GR;35.7317;26.5466;75.5295;ISC-webservice;SS;6.0;ISC-webservice;6.1;ISC-webservice;5.7;ISC-webservice;6.0;Mw;GEOFON;;;;;;;;;;;HL;IACM;00;HN;0.0;;;;GR;35.3058;25.0709;45;;;;;;;;10.145915;816.166285;142.0;160.83751232299633;70.1;;;;;D;0;E;90.0;N;0.0;Z;0.05;0.05;0.05;30.0;30.0;30.0;16.0;6.0;75.5295;90;160.83751232299633;160.83751232299633;142.0;123.8;816.166285;False;31.07;3;23.405927;-21.415741;-13.453261;21.532242;25.004354;17.869694;-1.701766;1.594116;-0.669651;1.612285;1.74165;1.50132;-0.351394;0.24167;-0.073564;0.3117095;0.352219;0.241637;57.195;52.81;51.735;54.959;56.7325;57.55;52.56;9.46882;7.84933;2.51777;8.749785;9.60732;7.73143;266.496824333;245.151677068;141.240723143;256.796767711;269.61315709;242.828359429;1.99543931699;1.81742357845;0.67005337544;1.90643139543;2.11029596329;1.70256682904;23.415;23.7834;25.1877;25.3204;28.2811;45.672;57.5388;57.3571;52.6723;62.4295;46.5995;53.0234;61.1721;39.1001;40.2922;40.0156;39.6499;35.5398;29.0774;33.3691;40.0458;31.9167;15.4528;12.4207;7.96829;5.13216;3.34672;2.13891;1.33212;0.968039;0.749166;0.490432;0.339276;0.264763;0.224371;0.186353;21.4566;21.7478;22.4991;24.1317;27.9455;46.1363;62.9474;58.598;59.3155;91.2014;82.884;77.9915;58.1529;42.7691;40.1578;24.4592;22.0569;25.3909;23.2903;33.0069;36.5635;20.8237;14.8882;9.1997;6.75382;2.65196;1.94338;1.37981;1.09441;0.833737;0.558513;0.402489;0.295367;0.22371;0.177484;0.152305;13.5411;13.9209;15.6928;16.1917;26.1091;37.4867;43.8355;31.8389;31.1335;34.5269;32.7405;34.9449;36.1721;23.366;26.1037;18.5691;13.9793;13.9804;9.17794;8.8518;4.79567;3.38215;2.43681;2.24555;1.51215;0.870041;0.61794;0.450958;0.530848;0.406026;0.295442;0.150014;0.120203;0.085376;0.066777;0.06637;21.5629;21.83515;22.81455;24.73335;27.89555;44.32135;56.1564;56.4061;52.78195;76.0213;62.0376;69.83355;62.3974;46.0426;40.03665;29.7805;31.32805;30.0995;29.4518;32.6381;38.04055;28.56175;14.9551;10.6723;7.112845;3.87786;2.46349;1.55552;1.19093;0.908316;0.6423755;0.4337395;0.3046785;0.2499825;0.211258;0.1728905;25.0119;25.1497;25.7349;28.0668;31.5227;48.4487;65.0664;60.5179;60.1789;95.4129;84.2195;81.6589;66.6213;51.4649;49.4591;40.0581;39.9395;36.0101;31.0734;35.6914;43.3142;32.5147;16.1027;12.6035;8.07794;5.18708;3.35754;2.14251;1.38139;1.02726;0.749167;0.501962;0.345084;0.275306;0.225865;0.186402;17.9376;18.213;19.7175;20.6289;24.2384;37.1674;48.9599;47.3;46.288;51.5545;45.5658;48.6696;49.3708;36.8079;30.4956;22.4218;20.7653;23.5623;22.8035;25.5824;34.0485;19.9187;12.3552;8.46651;6.15883;2.34581;1.872;1.28402;1.01521;0.764188;0.543205;0.366964;0.291577;0.223714;0.177489;0.152316;13.345899732753177;3.427706343409063
19;EMSC-20110401_0000033;2011-04-01 13:29:11;600575114;usp000hz2h;2332319;20110401_0000033;GR;35.7317;26.5466;75.5295;ISC-webservice;SS;6.0;ISC-webservice;6.1;ISC-webservice;5.7;ISC-webservice;6.0;Mw;GEOFON;;;;;;;;;;;HL;KSL;00;HN;0.0;;;;GR;36.15031;29.58561;64;;;;;;;;8.539093;774.63288;278.1;288.1741060023437;261.3;;;;;D;0;E;90.0;N;0.0;Z;0.05;0.05;0.05;30.0;30.0;30.0;16.0;6.0;75.5295;90;288.1741060023437;288.1741060023437;278.1;115.49;774.63288;False;31.07;4;-1.908421;0.962418;-1.068718;1.6190035;1.970552;0.916;0.249608;0.201893;0.153722;0.212876;0.272029;0.192276;-0.070828;0.113406;-0.056018;0.0844845;0.113806;0.0645743;85.805;82.885;74.965;84.332;84.8425;85.84;82.885;1.128;0.822604;0.710513;1.015235;1.13807;0.808197;21.2588064855;14.5788126147;13.1379584053;18.1548466986;21.2588064855;14.5788126147;0.0107601332796;0.00450257121677;0.00416679216117;0.00763135205432;0.0107601332796;0.00450257121677;1.91144;1.9521;1.9409;2.00245;2.0388;2.30635;3.25469;3.97867;3.81351;4.17025;4.4595;6.01391;6.35503;5.12882;6.51322;6.71486;4.74019;3.50556;3.16249;2.59683;2.70002;2.70488;2.0006;1.82882;1.6679;1.04982;0.614329;0.652809;0.600437;0.33836;0.234175;0.181595;0.091237;0.071684;0.056462;0.053318;0.962431;1.00136;0.995748;1.0691;1.13234;1.57029;1.78727;2.21507;2.81158;2.94363;2.30371;2.15486;1.76368;2.09517;2.11282;2.0348;1.38049;1.37758;2.00165;2.02397;1.9319;1.22808;1.2855;1.63581;1.74269;1.44023;1.02884;0.575744;0.420862;0.336939;0.373782;0.245982;0.165292;0.087072;0.056013;0.044195;1.07128;1.09825;1.10695;1.21159;1.45881;2.01544;2.30995;2.64549;2.40302;3.05193;3.0874;2.86674;2.22575;1.50658;1.77356;1.69669;1.45071;1.41342;2.03169;2.71331;1.48942;1.43546;1.54379;1.47544;1.09577;0.794197;0.408914;0.297761;0.27559;0.218189;0.140519;0.139948;0.094351;0.069181;0.039851;0.032298;1.621045;1.65865;1.671415;1.67574;1.73515;2.086365;2.43492;3.1906;3.41926;3.21245;3.61177;4.25247;4.501915;3.62662;4.934905;4.846445;3.37221;2.491105;2.336995;2.482065;2.266135;2.044465;1.60532;1.642985;1.706495;1.222765;0.9008395;0.5975065;0.4685925;0.33629;0.3075895;0.236755;0.137264;0.0785385;0.0573035;0.047576;1.97497;2.02709;2.00058;2.04669;2.07378;2.41173;3.25469;3.97867;4.4615;4.32867;4.58834;6.01391;6.35503;5.12882;6.53466;6.74006;4.74019;3.51886;3.16498;2.92524;2.74293;2.77196;2.11373;1.88773;1.94084;1.58257;1.02884;0.743425;0.618849;0.386428;0.398486;0.261501;0.171827;0.088044;0.064521;0.054994;0.917861;0.945725;0.985094;1.04088;1.08219;1.50011;1.71409;1.94474;2.68999;2.59719;2.30371;2.10248;1.69878;1.76892;2.10465;1.89105;1.38049;1.28718;1.88223;2.02397;1.82227;1.07226;1.2387;1.28785;1.3586;0.982974;0.57397;0.488539;0.34768;0.272397;0.189068;0.166598;0.091237;0.067583;0.050584;0.039026;1.8750213345047;0.859735376124536
