;event_id;event_time;ISC_ev_id;USGS_ev_id;INGV_ev_id;EMSC_ev_id;ev_nation_code;ev_latitude;ev_longitude;ev_depth_km;ev_hyp_ref;fm_type_code;ML;ML_ref;Mw;Mw_ref;Ms;Ms_ref;EMEC_Mw;EMEC_Mw_type;EMEC_Mw_ref;event_source_id;es_strike;es_dip;es_rake;es_strike_dip_rake_ref;es_z_top;es_z_top_ref;es_length;es_width;es_geometry_ref;network_code;station_code;location_code;instrument_code;sensor_depth_m;proximity_code;housing_code;installation_code;st_nation_code;st_latitude;st_longitude;st_elevation;ec8_code;ec8_code_method;ec8_code_ref;vs30_m_sec;vs30_ref;vs30_calc_method;vs30_meas_type;slope_deg;vs30_m_sec_WA;epi_dist;hypo_dist;epi_az;JB_dist;rup_dist;Rx_dist;Ry0_dist;instrument_type_code;late_triggered_flag_01;U_channel_code;U_azimuth_deg;V_channel_code;V_azimuth_deg;W_channel_code;U_hp;V_hp;W_hp;U_lp;V_lp;W_lp;max_usable_T;mag;hypo_depth;rake;rhypo;rrup;rjb;xvf;vs30;vs30measured;z1pt0;region;U_pga;V_pga;W_pga;rotD50_pga;rotD100_pga;rotD00_pga;U_pgv;V_pgv;W_pgv;rotD50_pgv;rotD100_pgv;rotD00_pgv;U_pgd;V_pgd;W_pgd;rotD50_pgd;rotD100_pgd;rotD00_pgd;U_T90;V_T90;W_T90;GM_T90;rotD50_T90;rotD100_T90;rotD00_T90;U_housner;V_housner;W_housner;rotD50_housner;rotD100_housner;rotD00_housner;U_CAV;V_CAV;W_CAV;rotD50_CAV;rotD100_CAV;rotD00_CAV;U_ia;V_ia;W_ia;rotD50_ia;rotD100_ia;rotD00_ia;U_T0_010;U_T0_025;U_T0_040;U_T0_050;U_T0_070;U_T0_100;U_T0_150;U_T0_200;U_T0_250;U_T0_300;U_T0_350;U_T0_400;U_T0_450;U_T0_500;U_T0_600;U_T0_700;U_T0_750;U_T0_800;U_T0_900;U_T1_000;U_T1_200;U_T1_400;U_T1_600;U_T1_800;U_T2_000;U_T2_500;U_T3_000;U_T3_500;U_T4_000;U_T4_500;U_T5_000;U_T6_000;U_T7_000;U_T8_000;U_T9_000;U_T10_000;V_T0_010;V_T0_025;V_T0_040;V_T0_050;V_T0_070;V_T0_100;V_T0_150;V_T0_200;V_T0_250;V_T0_300;V_T0_350;V_T0_400;V_T0_450;V_T0_500;V_T0_600;V_T0_700;V_T0_750;V_T0_800;V_T0_900;V_T1_000;V_T1_200;V_T1_400;V_T1_600;V_T1_800;V_T2_000;V_T2_500;V_T3_000;V_T3_500;V_T4_000;V_T4_500;V_T5_000;V_T6_000;V_T7_000;V_T8_000;V_T9_000;V_T10_000;W_T0_010;W_T0_025;W_T0_040;W_T0_050;W_T0_070;W_T0_100;W_T0_150;W_T0_200;W_T0_250;W_T0_300;W_T0_350;W_T0_400;W_T0_450;W_T0_500;W_T0_600;W_T0_700;W_T0_750;W_T0_800;W_T0_900;W_T1_000;W_T1_200;W_T1_400;W_T1_600;W_T1_800;W_T2_000;W_T2_500;W_T3_000;W_T3_500;W_T4_000;W_T4_500;W_T5_000;W_T6_000;W_T7_000;W_T8_000;W_T9_000;W_T10_000;rotD50_T0_010;rotD50_T0_025;rotD50_T0_040;rotD50_T0_050;rotD50_T0_070;rotD50_T0_100;rotD50_T0_150;rotD50_T0_200;rotD50_T0_250;rotD50_T0_300;rotD50_T0_350;rotD50_T0_400;rotD50_T0_450;rotD50_T0_500;rotD50_T0_600;rotD50_T0_700;rotD50_T0_750;rotD50_T0_800;rotD50_T0_900;rotD50_T1_000;rotD50_T1_200;rotD50_T1_400;rotD50_T1_600;rotD50_T1_800;rotD50_T2_000;rotD50_T2_500;rotD50_T3_000;rotD50_T3_500;rotD50_T4_000;rotD50_T4_500;rotD50_T5_000;rotD50_T6_000;rotD50_T7_000;rotD50_T8_000;rotD50_T9_000;rotD50_T10_000;rotD100_T0_010;rotD100_T0_025;rotD100_T0_040;rotD100_T0_050;rotD100_T0_070;rotD100_T0_100;rotD100_T0_150;rotD100_T0_200;rotD100_T0_250;rotD100_T0_300;rotD100_T0_350;rotD100_T0_400;rotD100_T0_450;rotD100_T0_500;rotD100_T0_600;rotD100_T0_700;rotD100_T0_750;rotD100_T0_800;rotD100_T0_900;rotD100_T1_000;rotD100_T1_200;rotD100_T1_400;rotD100_T1_600;rotD100_T1_800;rotD100_T2_000;rotD100_T2_500;rotD100_T3_000;rotD100_T3_500;rotD100_T4_000;rotD100_T4_500;rotD100_T5_000;rotD100_T6_000;rotD100_T7_000;rotD100_T8_000;rotD100_T9_000;rotD100_T10_000;rotD00_T0_010;rotD00_T0_025;rotD00_T0_040;rotD00_T0_050;rotD00_T0_070;rotD00_T0_100;rotD00_T0_150;rotD00_T0_200;rotD00_T0_250;rotD00_T0_300;rotD00_T0_350;rotD00_T0_400;rotD00_T0_450;rotD00_T0_500;rotD00_T0_600;rotD00_T0_700;rotD00_T0_750;rotD00_T0_800;rotD00_T0_900;rotD00_T1_000;rotD00_T1_200;rotD00_T1_400;rotD00_T1_600;rotD00_T1_800;rotD00_T2_000;rotD00_T2_500;rotD00_T3_000;rotD00_T3_500;rotD00_T4_000;rotD00_T4_500;rotD00_T5_000;rotD00_T6_000;rotD00_T7_000;rotD00_T8_000;rotD00_T9_000;rotD00_T10_000;rotD50_AvgSA[0,3];rotD50_AvgSA[0,6]
35;EMSC-20111005_0000060;2011-10-05 14:41:30;17330085;usp000j8yk;2437489;20111005_0000060;GR;36.0948;23.3723;71.4269;ISC-webservice;U;4.3;ISC-webservice;;;2.6;ISC-webservice;4.59;MWML92;DGA16;;;;;;;;;;;HL;IACM;00;HN;0.0;;;;GR;35.3058;25.0709;45;;;;;;;;10.145915;816.166285;176.9;190.7758161917018;300.2;;;;;D;0;E;90.0;N;0.0;Z;0.15;0.15;0.15;30.0;30.0;30.0;5.333333333333334;4.59;71.4269;90;190.7758161917018;190.7758161917018;176.9;123.8;816.166285;False;31.07;3;0.247901;0.230725;0.270492;0.2336165;0.249093;0.218355;-0.008355;-0.008101;-0.006752;0.008199675;0.00895667;0.00721827;-0.000635;0.000743;-0.000529;0.00066694;0.000748192;0.000587975;161.815;188.0;201.14;174.417;179.6575;188.05;161.785;0.0256331;0.0253265;0.0132311;0.0254757;0.0272466;0.024581;4.43400346521;5.26901516499;6.6039167743;4.87056535545;5.36117446086;4.34171305;0.000297839856613;0.000356431016918;0.000502132738576;0.000327135427048;0.000376041719252;0.000278229123998;0.248785;0.270831;0.408116;0.454922;0.423702;0.582305;0.705544;0.774936;0.585967;0.699129;0.412543;0.447337;0.267521;0.226306;0.208273;0.193373;0.16456;0.12008;0.10056;0.069973;0.056829;0.033747;0.021414;0.01275;0.008679;0.005408;0.003451;0.002589;0.002523;0.002184;0.001456;0.001309;0.000874;0.000803;0.000617;0.000611;0.233496;0.286354;0.449064;0.495405;0.517902;0.470811;0.594042;0.924623;0.685614;0.639678;0.354766;0.314479;0.339361;0.336336;0.208134;0.150293;0.120895;0.092558;0.081967;0.069199;0.050011;0.040268;0.022877;0.016399;0.012452;0.006598;0.003695;0.003275;0.002714;0.002343;0.001735;0.001323;0.001255;0.000932;0.000807;0.000672;0.27188;0.385091;0.612825;0.698614;0.691534;0.928303;0.717079;0.610316;0.449248;0.336414;0.226491;0.180699;0.170733;0.139365;0.115982;0.102012;0.068252;0.05717;0.039643;0.032305;0.015052;0.009939;0.006379;0.005643;0.004697;0.003471;0.002967;0.00265;0.002567;0.002066;0.00168;0.001608;0.000987;0.00085;0.000772;0.000633;0.2357665;0.2724525;0.425754;0.4566195;0.4506945;0.5308415;0.650421;0.875237;0.6243495;0.6706275;0.385664;0.3664265;0.3293125;0.287292;0.214362;0.1682325;0.1381285;0.108808;0.086655;0.068996;0.0547825;0.0367475;0.0228215;0.0144575;0.010515;0.005668;0.0036945;0.0030965;0.0026145;0.002183;0.001702;0.0013305;0.0011705;0.000889;0.0007755;0.000661;0.250255;0.287651;0.460134;0.501282;0.519227;0.629303;0.887419;1.0183;0.759059;0.751691;0.47777;0.463162;0.404697;0.393916;0.225217;0.196865;0.168495;0.122272;0.103489;0.07362;0.061208;0.043058;0.028377;0.017327;0.012631;0.006742;0.003834;0.003391;0.002751;0.002381;0.001894;0.001562;0.001281;0.001005;0.000842;0.000723;0.221585;0.256959;0.337825;0.407333;0.412652;0.45962;0.556328;0.620859;0.484713;0.564174;0.306519;0.298539;0.255739;0.180115;0.190238;0.125765;0.114641;0.086313;0.072878;0.05556;0.043935;0.032423;0.018838;0.01275;0.008163;0.005085;0.003353;0.002552;0.002363;0.001877;0.001456;0.001113;0.000873;0.000706;0.000618;0.000594;0.03300868458609001;0.008954196678971694
36;EMSC-20111005_0000060;2011-10-05 14:41:30;17330085;usp000j8yk;2437489;20111005_0000060;GR;36.0948;23.3723;71.4269;ISC-webservice;U;4.3;ISC-webservice;;;2.6;ISC-webservice;4.59;MWML92;DGA16;;;;;;;;;;;HL;NOAC;00;HN;0.0;;;;GR;37.97384;23.71767;93;;;;;;;;6.833563;689.429247;210.8;222.57232991459205;188.5;;;;;D;0;E;90.0;N;0.0;Z;0.3;0.3;0.3;30.0;30.0;30.0;2.666666666666667;4.59;71.4269;90;222.57232991459205;222.57232991459205;210.8;-51.78;689.429247;False;31.07;3;-0.068955;-0.071309;0.056069;0.0684595;0.071449;0.057275;0.002632;-0.002697;0.001353;0.00266451;0.00299219;0.00182854;0.000174;0.000162;-9.3e-05;0.000161167;0.000208956;0.00013053;55.29;56.575;78.405;55.929;55.9325;72.595;49.26;0.00592375;0.00539524;0.00360943;0.00564774;0.00607806;0.00469068;0.568113035161;0.466450729963;0.444979445254;0.521005949939;0.591829025075;0.436218229836;9.45698992779e-06;6.80882088551e-06;5.19945392646e-06;8.13290599054e-06;1.08354977977e-05;5.43030481177e-06;0.068981;0.069182;0.075471;0.083237;0.170666;0.126821;0.244465;0.184419;0.194264;0.176568;0.159231;0.104736;0.107164;0.07189;0.045093;0.02953;0.025782;0.021988;0.018779;0.013341;0.005348;0.004762;0.003925;0.003127;0.002418;0.002005;0.001166;0.000905;0.000792;0.000617;0.000424;0.000389;0.000324;0.000266;0.000233;0.000202;0.071673;0.07314;0.077066;0.079305;0.124222;0.154389;0.233108;0.195825;0.204624;0.129542;0.127286;0.107424;0.081525;0.044058;0.033864;0.029028;0.025638;0.019266;0.012691;0.009695;0.007528;0.006861;0.004277;0.004281;0.002981;0.001472;0.000815;0.000693;0.000507;0.000521;0.000403;0.000265;0.000255;0.000206;0.000173;0.000151;0.056205;0.061514;0.059741;0.074824;0.080809;0.157894;0.240243;0.122561;0.081259;0.076983;0.057736;0.04427;0.033767;0.038812;0.037584;0.027676;0.024277;0.01894;0.01031;0.007412;0.005785;0.003539;0.002939;0.002285;0.001919;0.001113;0.000778;0.000641;0.00043;0.000327;0.0003;0.000213;0.00017;0.000134;0.000118;0.000107;0.068499;0.0694205;0.0740815;0.078385;0.133089;0.139895;0.2340915;0.1844315;0.19698;0.155111;0.1407;0.1062405;0.0958235;0.0591085;0.040239;0.028541;0.024927;0.0222955;0.0154835;0.011921;0.006374;0.006024;0.004219;0.0033235;0.002507;0.0018075;0.001033;0.0009025;0.000609;0.0005585;0.0004405;0.000324;0.0002815;0.000227;0.00019;0.000165;0.071739;0.07314;0.077154;0.08722;0.171807;0.158189;0.280164;0.202903;0.253281;0.206576;0.175997;0.128715;0.1241;0.074912;0.045174;0.03045;0.027424;0.024205;0.019262;0.013341;0.007575;0.006934;0.005152;0.004284;0.003005;0.002019;0.001251;0.001002;0.000794;0.000636;0.000466;0.000404;0.000336;0.000278;0.000245;0.000212;0.057583;0.059591;0.061078;0.074783;0.100979;0.12242;0.191688;0.13373;0.086438;0.073569;0.05702;0.073892;0.073261;0.035869;0.025979;0.024826;0.021895;0.016987;0.011507;0.009446;0.005348;0.003945;0.002642;0.002231;0.001971;0.001244;0.000815;0.000676;0.000507;0.000427;0.000364;0.000252;0.000207;0.000172;0.000149;0.000129;0.007669589541932492;0.00212823605888982
37;EMSC-20111005_0000060;2011-10-05 14:41:30;17330085;usp000j8yk;2437489;20111005_0000060;GR;36.0948;23.3723;71.4269;ISC-webservice;U;4.3;ISC-webservice;;;2.6;ISC-webservice;4.59;MWML92;DGA16;;;;;;;;;;;HL;SIVA;00;HN;0.0;;;;GR;35.01746;24.80996;110;;;;;;;;0.236315;268.163516;176.9;190.7758161917018;312.9;;;;;D;0;E;90.0;N;0.0;Z;0.15;0.15;0.15;30.0;30.0;30.0;5.333333333333334;4.59;71.4269;90;190.7758161917018;190.7758161917018;176.9;150.0;268.163516;False;31.07;3;-0.042075;-0.04715;-0.046072;0.0458295;0.049835;0.039236;0.002761;0.002969;0.001417;0.002854595;0.0032072;0.00220309;0.000306;-0.000258;-0.000206;0.000285387;0.000321441;0.000219039;136.99;103.95;130.8;119.332;123.2575;144.905;90.115;0.00822939;0.00775942;0.00445845;0.007993915;0.00916439;0.00715685;0.736321984863;0.62595989004;0.58625753012;0.682384752477;0.737636240115;0.625284629974;1.00940149981e-05;8.38820136729e-06;6.08101310356e-06;9.24110996297e-06;1.0474421217e-05;8.00779262259e-06;0.042185;0.043632;0.046465;0.048898;0.065663;0.07508;0.091959;0.112741;0.130146;0.126012;0.121989;0.124872;0.103352;0.093416;0.092793;0.056026;0.05905;0.062918;0.03855;0.022979;0.016065;0.008158;0.007861;0.005178;0.003881;0.00281;0.002049;0.001464;0.001287;0.001013;0.000794;0.000587;0.00045;0.000405;0.000313;0.00029;0.04718;0.047638;0.058594;0.052731;0.06509;0.080971;0.128556;0.135286;0.139366;0.101466;0.126687;0.094476;0.086726;0.089763;0.113435;0.055073;0.048789;0.047421;0.038184;0.022178;0.013425;0.007755;0.005795;0.004794;0.003351;0.002363;0.001462;0.001108;0.001;0.000722;0.000757;0.000624;0.000398;0.000303;0.00022;0.000199;0.046512;0.048367;0.059579;0.06255;0.064238;0.109118;0.069307;0.070637;0.097655;0.104105;0.080644;0.082805;0.07281;0.066711;0.035169;0.030807;0.021039;0.016242;0.01622;0.013682;0.007877;0.004043;0.003701;0.00306;0.002885;0.00163;0.001473;0.001397;0.001067;0.000861;0.000717;0.000647;0.000499;0.000296;0.000246;0.000191;0.0458455;0.04719;0.0543245;0.0549865;0.068214;0.0769605;0.1083355;0.1269295;0.137872;0.1208495;0.12074;0.1045565;0.091718;0.0929615;0.0991695;0.0567445;0.0505925;0.055398;0.038536;0.023613;0.016673;0.008546;0.006846;0.0047655;0.004059;0.0024305;0.0017275;0.001196;0.001125;0.0008915;0.000789;0.0005775;0.000407;0.000375;0.0002785;0.0002405;0.049842;0.050849;0.060994;0.057348;0.070512;0.082022;0.139371;0.141747;0.18998;0.13561;0.140108;0.124872;0.107185;0.107868;0.13035;0.063246;0.065838;0.075886;0.050054;0.02593;0.018153;0.009535;0.008376;0.005622;0.004559;0.002818;0.002131;0.001507;0.001288;0.001;0.000928;0.00064;0.000463;0.000439;0.000317;0.000289;0.039313;0.041123;0.046465;0.047397;0.062137;0.073416;0.082439;0.112462;0.110077;0.08401;0.088048;0.087677;0.08114;0.080755;0.059721;0.051282;0.042965;0.036784;0.030231;0.020494;0.013296;0.007301;0.005544;0.004513;0.003152;0.001918;0.001355;0.001046;0.000892;0.000722;0.000599;0.00048;0.000297;0.000221;0.000196;0.00019;0.010962832024648053;0.0033067589969673814
38;EMSC-20111009_0000044;2011-10-09 21:23:11;17337106;usp000j953;;20111009_0000044;;35.8575;22.1953;58.3975;ISC-webservice;SS;3.31;ISC-webservice;4.29;ISC-webservice;3.45;ISC-webservice;4.43;MWML92;DGA16;;;;;;;;;;;HL;ANKY;00;HN;0.0;;;;GR;35.86704;23.30117;143;;;;;;;;6.937541;695.873582;99.9;115.7163687913253;269.7;;;;;D;0;E;90.0;N;0.0;Z;0.15;0.15;0.15;30.0;30.0;30.0;5.333333333333334;4.43;58.3975;90;115.7163687913253;115.7163687913253;99.9;125.68;695.873582;False;31.07;3;0.078292;-0.066708;-0.048589;0.0686135;0.09297;0.056571;0.009589;-0.005667;-0.003014;0.007964035;0.00976798;0.00535855;-0.001445;-0.000889;0.0004;0.001184635;0.00155775;0.000855445;42.605;41.605;65.72;42.102;42.055;42.62;41.175;0.0380421;0.0227717;0.0116032;0.0314186;0.0394654;0.0202364;0.760031960111;0.74156682986;0.612409090116;0.751708969855;0.852783330049;0.63169111501;1.98562926926e-05;1.88462490753e-05;1.02228291547e-05;1.93512722369e-05;2.51006344073e-05;1.36019112374e-05;0.0783;0.07952;0.07924;0.089354;0.086444;0.102923;0.169399;0.230204;0.20736;0.164087;0.180644;0.199343;0.185252;0.142497;0.135718;0.174148;0.191918;0.221161;0.214292;0.218909;0.166131;0.094206;0.06106;0.040264;0.026686;0.011659;0.008084;0.007463;0.004809;0.003976;0.002666;0.001982;0.001501;0.001109;0.000981;0.000781;0.066746;0.067044;0.068735;0.071914;0.082514;0.105921;0.135108;0.146751;0.204397;0.239899;0.1855;0.185691;0.188136;0.211599;0.187448;0.143964;0.135686;0.167056;0.138492;0.099149;0.061883;0.04127;0.026082;0.01452;0.011638;0.010555;0.009177;0.006781;0.004691;0.002915;0.00231;0.001164;0.000996;0.000811;0.000707;0.000564;0.048609;0.050221;0.062802;0.064779;0.090659;0.121124;0.138863;0.173589;0.163575;0.13406;0.13603;0.103586;0.091269;0.115073;0.072223;0.065953;0.06562;0.065584;0.047473;0.040483;0.032542;0.019718;0.01461;0.012502;0.00831;0.004333;0.004193;0.003362;0.002626;0.001615;0.001078;0.000593;0.000481;0.000378;0.000387;0.000269;0.068647;0.069553;0.070992;0.08221;0.08468;0.103955;0.1458015;0.200561;0.202899;0.20482;0.19012;0.1912415;0.180551;0.1833565;0.167197;0.161679;0.177305;0.1982635;0.179533;0.169006;0.12366;0.0681515;0.043999;0.0292735;0.0200275;0.0111325;0.0085175;0.007115;0.0047485;0.003486;0.002502;0.0017015;0.001208;0.000982;0.000811;0.0006615;0.093114;0.094291;0.097638;0.099007;0.097739;0.111486;0.196428;0.272214;0.233876;0.257667;0.225949;0.222202;0.208;0.212037;0.206594;0.18016;0.202644;0.237726;0.241296;0.234512;0.169191;0.094756;0.061483;0.040264;0.026974;0.014585;0.009922;0.007628;0.006168;0.004913;0.003059;0.00198;0.001621;0.001186;0.000982;0.000798;0.056637;0.056907;0.0586;0.067871;0.064032;0.094897;0.12851;0.134613;0.13311;0.154495;0.165913;0.130853;0.162714;0.136018;0.12262;0.112853;0.109861;0.117615;0.097838;0.067329;0.054713;0.037778;0.025193;0.014126;0.011358;0.008892;0.007052;0.004765;0.003419;0.002753;0.002188;0.001166;0.000966;0.000736;0.000655;0.000534;0.04412804708977771;0.012315923183698787
39;EMSC-20111009_0000044;2011-10-09 21:23:11;17337106;usp000j953;;20111009_0000044;;35.8575;22.1953;58.3975;ISC-webservice;SS;3.31;ISC-webservice;4.29;ISC-webservice;3.45;ISC-webservice;4.43;MWML92;DGA16;;;;;;;;;;;HL;MNVA;00;HN;0.0;;;;GR;36.68709;23.03734;12;;;;;;;;2.2317;445.191501;119.2;132.736234714753;219.7;;;;;D;0;E;125.0;N;35.0;Z;0.15;0.15;0.15;30.0;30.0;30.0;5.333333333333334;4.43;58.3975;90;132.736234714753;132.736234714753;119.2;75.15;445.191501;False;31.07;3;-0.039239;-0.033095;0.0414;0.034269;0.039915;0.03162;0.004239;0.0024;0.003601;0.003600175;0.00454473;0.002399;0.000974;0.000566;-0.000677;0.0006965065;0.000995294;0.000500389;42.77;41.675;41.59;42.219;42.775;43.44;41.485;0.0179465;0.0118115;0.01315;0.0149665;0.0189864;0.0107728;0.341492170074;0.33683781994;0.369283465044;0.33862339497;0.345179360062;0.331908625062;3.871375094e-06;3.66923000603e-06;4.49727405562e-06;3.77030446667e-06;3.8734323051e-06;3.66717531966e-06;0.039328;0.042129;0.041135;0.039981;0.045089;0.051986;0.051856;0.064277;0.064565;0.064979;0.081949;0.080122;0.071463;0.090084;0.060441;0.070959;0.078399;0.076622;0.090964;0.089744;0.055748;0.045244;0.033888;0.027937;0.018349;0.010481;0.00645;0.003837;0.00362;0.002804;0.001959;0.001427;0.000989;0.000891;0.000582;0.00054;0.033115;0.03468;0.036117;0.036158;0.042189;0.052718;0.063852;0.07593;0.103533;0.106397;0.082222;0.077313;0.067647;0.059352;0.049245;0.055004;0.058631;0.051129;0.048053;0.039226;0.037307;0.02401;0.0191;0.012625;0.013812;0.009723;0.006276;0.00382;0.002522;0.001731;0.001627;0.001067;0.000875;0.000511;0.000431;0.000314;0.041506;0.042801;0.046984;0.041681;0.047544;0.084873;0.068581;0.123669;0.095835;0.116973;0.078886;0.08977;0.097537;0.095776;0.069352;0.041149;0.048486;0.059387;0.06452;0.041961;0.026267;0.018815;0.015622;0.018423;0.019065;0.012282;0.008615;0.004564;0.003173;0.003147;0.001605;0.00107;0.000679;0.000548;0.000392;0.000339;0.0342965;0.036644;0.0359795;0.0369445;0.0411175;0.048756;0.0600675;0.065849;0.0833755;0.0983325;0.0851985;0.0772515;0.0723105;0.0778235;0.0588105;0.0655885;0.069207;0.0666525;0.0726715;0.068821;0.0465075;0.032691;0.025742;0.0209895;0.0150155;0.010413;0.0066785;0.004064;0.002723;0.0019815;0.001628;0.0010765;0.0008885;0.0006555;0.000457;0.000392;0.03993;0.042662;0.041371;0.041044;0.046743;0.052718;0.066603;0.076232;0.105791;0.120211;0.103634;0.081298;0.08519;0.096835;0.067666;0.082464;0.096492;0.091524;0.097863;0.096102;0.06577;0.046137;0.034319;0.029015;0.019705;0.011422;0.007106;0.004522;0.00383;0.002803;0.002197;0.001447;0.001068;0.000923;0.000635;0.000551;0.031635;0.032921;0.03354;0.033112;0.034332;0.04092;0.049365;0.060606;0.061694;0.064979;0.072708;0.05494;0.050316;0.044381;0.047674;0.049819;0.045584;0.035372;0.034917;0.024442;0.029521;0.015371;0.018961;0.012625;0.012345;0.009632;0.005613;0.003187;0.00234;0.001546;0.001196;0.000928;0.000725;0.000502;0.000419;0.000315;0.025721951235437714;0.007250655969840083
