;event_id;event_time;ISC_ev_id;USGS_ev_id;INGV_ev_id;EMSC_ev_id;ev_nation_code;ev_latitude;ev_longitude;ev_depth_km;ev_hyp_ref;fm_type_code;ML;ML_ref;Mw;Mw_ref;Ms;Ms_ref;EMEC_Mw;EMEC_Mw_type;EMEC_Mw_ref;event_source_id;es_strike;es_dip;es_rake;es_strike_dip_rake_ref;es_z_top;es_z_top_ref;es_length;es_width;es_geometry_ref;network_code;station_code;location_code;instrument_code;sensor_depth_m;proximity_code;housing_code;installation_code;st_nation_code;st_latitude;st_longitude;st_elevation;ec8_code;ec8_code_method;ec8_code_ref;vs30_m_sec;vs30_ref;vs30_calc_method;vs30_meas_type;slope_deg;vs30_m_sec_WA;epi_dist;hypo_dist;epi_az;JB_dist;rup_dist;Rx_dist;Ry0_dist;instrument_type_code;late_triggered_flag_01;U_channel_code;U_azimuth_deg;V_channel_code;V_azimuth_deg;W_channel_code;U_hp;V_hp;W_hp;U_lp;V_lp;W_lp;max_usable_T;mag;hypo_depth;rake;rhypo;rrup;rjb;xvf;vs30;vs30measured;z1pt0;region;U_pga;V_pga;W_pga;rotD50_pga;rotD100_pga;rotD00_pga;U_pgv;V_pgv;W_pgv;rotD50_pgv;rotD100_pgv;rotD00_pgv;U_pgd;V_pgd;W_pgd;rotD50_pgd;rotD100_pgd;rotD00_pgd;U_T90;V_T90;W_T90;GM_T90;rotD50_T90;rotD100_T90;rotD00_T90;U_housner;V_housner;W_housner;rotD50_housner;rotD100_housner;rotD00_housner;U_CAV;V_CAV;W_CAV;rotD50_CAV;rotD100_CAV;rotD00_CAV;U_ia;V_ia;W_ia;rotD50_ia;rotD100_ia;rotD00_ia;U_T0_010;U_T0_025;U_T0_040;U_T0_050;U_T0_070;U_T0_100;U_T0_150;U_T0_200;U_T0_250;U_T0_300;U_T0_350;U_T0_400;U_T0_450;U_T0_500;U_T0_600;U_T0_700;U_T0_750;U_T0_800;U_T0_900;U_T1_000;U_T1_200;U_T1_400;U_T1_600;U_T1_800;U_T2_000;U_T2_500;U_T3_000;U_T3_500;U_T4_000;U_T4_500;U_T5_000;U_T6_000;U_T7_000;U_T8_000;U_T9_000;U_T10_000;V_T0_010;V_T0_025;V_T0_040;V_T0_050;V_T0_070;V_T0_100;V_T0_150;V_T0_200;V_T0_250;V_T0_300;V_T0_350;V_T0_400;V_T0_450;V_T0_500;V_T0_600;V_T0_700;V_T0_750;V_T0_800;V_T0_900;V_T1_000;V_T1_200;V_T1_400;V_T1_600;V_T1_800;V_T2_000;V_T2_500;V_T3_000;V_T3_500;V_T4_000;V_T4_500;V_T5_000;V_T6_000;V_T7_000;V_T8_000;V_T9_000;V_T10_000;W_T0_010;W_T0_025;W_T0_040;W_T0_050;W_T0_070;W_T0_100;W_T0_150;W_T0_200;W_T0_250;W_T0_300;W_T0_350;W_T0_400;W_T0_450;W_T0_500;W_T0_600;W_T0_700;W_T0_750;W_T0_800;W_T0_900;W_T1_000;W_T1_200;W_T1_400;W_T1_600;W_T1_800;W_T2_000;W_T2_500;W_T3_000;W_T3_500;W_T4_000;W_T4_500;W_T5_000;W_T6_000;W_T7_000;W_T8_000;W_T9_000;W_T10_000;rotD50_T0_010;rotD50_T0_025;rotD50_T0_040;rotD50_T0_050;rotD50_T0_070;rotD50_T0_100;rotD50_T0_150;rotD50_T0_200;rotD50_T0_250;rotD50_T0_300;rotD50_T0_350;rotD50_T0_400;rotD50_T0_450;rotD50_T0_500;rotD50_T0_600;rotD50_T0_700;rotD50_T0_750;rotD50_T0_800;rotD50_T0_900;rotD50_T1_000;rotD50_T1_200;rotD50_T1_400;rotD50_T1_600;rotD50_T1_800;rotD50_T2_000;rotD50_T2_500;rotD50_T3_000;rotD50_T3_500;rotD50_T4_000;rotD50_T4_500;rotD50_T5_000;rotD50_T6_000;rotD50_T7_000;rotD50_T8_000;rotD50_T9_000;rotD50_T10_000;rotD100_T0_010;rotD100_T0_025;rotD100_T0_040;rotD100_T0_050;rotD100_T0_070;rotD100_T0_100;rotD100_T0_150;rotD100_T0_200;rotD100_T0_250;rotD100_T0_300;rotD100_T0_350;rotD100_T0_400;rotD100_T0_450;rotD100_T0_500;rotD100_T0_600;rotD100_T0_700;rotD100_T0_750;rotD100_T0_800;rotD100_T0_900;rotD100_T1_000;rotD100_T1_200;rotD100_T1_400;rotD100_T1_600;rotD100_T1_800;rotD100_T2_000;rotD100_T2_500;rotD100_T3_000;rotD100_T3_500;rotD100_T4_000;rotD100_T4_500;rotD100_T5_000;rotD100_T6_000;rotD100_T7_000;rotD100_T8_000;rotD100_T9_000;rotD100_T10_000;rotD00_T0_010;rotD00_T0_025;rotD00_T0_040;rotD00_T0_050;rotD00_T0_070;rotD00_T0_100;rotD00_T0_150;rotD00_T0_200;rotD00_T0_250;rotD00_T0_300;rotD00_T0_350;rotD00_T0_400;rotD00_T0_450;rotD00_T0_500;rotD00_T0_600;rotD00_T0_700;rotD00_T0_750;rotD00_T0_800;rotD00_T0_900;rotD00_T1_000;rotD00_T1_200;rotD00_T1_400;rotD00_T1_600;rotD00_T1_800;rotD00_T2_000;rotD00_T2_500;rotD00_T3_000;rotD00_T3_500;rotD00_T4_000;rotD00_T4_500;rotD00_T5_000;rotD00_T6_000;rotD00_T7_000;rotD00_T8_000;rotD00_T9_000;rotD00_T10_000;rotD50_AvgSA[0,3];rotD50_AvgSA[0,6]
0;EMSC-19990611_0000011;1999-06-11 07:50:14;1665492;usp00099p8;;19990611_0000011;GR;37.68;21.19;53.8;ISC-webservice;SS;4.5;ISC-webservice;5.2;ISC-webservice;4.5;ISC-webservice;5.2;Mw;RCMTS;;;;;;;;;;;HI;ZAK1;00;HN;;;;;GR;37.785;20.9;;C;VS30;Vs30_ref;251.0;Stewart_et_al_2014;3;DH;;;28.1;60.69637550958047;114.4;;;;;A;0;3;140.0;2;230.0;Z;0.4;0.4;0.4;25.0;25.0;25.0;2.0;5.2;53.8;90;60.69637550958047;60.69637550958047;28.1;131.16;251.0;True;31.07;3;18.502193;20.942352;-8.285951;19.0670245;22.895054;15.730853;-1.517214;1.257971;0.646901;1.446365;1.67828;1.15481;0.264705;0.248466;0.115451;0.255014;0.300973;0.157665;13.51;12.57;18.77;13.032;13.06;14.39;11.44;5.35446;5.30749;2.73158;5.294655;5.42387;4.87329;61.8648773195;65.9997912939;39.9073266975;63.8642049812;68.2849459423;58.1825066808;0.540230091083;0.615286352867;0.18073642031;0.577758195939;0.679510508762;0.476005979913;18.5208;19.0212;19.9967;19.8115;23.2231;34.8545;70.893;52.7093;34.9464;28.3954;40.2936;51.4215;45.9383;31.0763;24.6408;32.663;35.7385;35.6791;27.8634;20.1688;17.4608;10.7958;7.10454;5.13894;4.65769;2.38496;1.28577;1.03883;0.896666;0.751776;0.553374;0.352753;0.257804;0.20586;0.171606;0.146201;20.9591;21.2335;21.8549;23.1558;25.5104;30.1059;99.2297;59.7472;34.7623;36.3771;35.5296;64.4354;46.8242;29.3559;23.9349;26.9823;29.8429;25.2055;18.9161;18.3683;11.6526;10.8385;9.60789;6.72166;6.01413;2.79241;1.61903;0.962012;0.740324;0.672514;0.525662;0.39824;0.300034;0.221877;0.170192;0.137799;8.292;8.44278;8.91696;11.5271;18.9946;24.0654;24.3118;31.8191;17.6247;15.2246;19.2484;23.0948;20.7235;12.5818;9.79316;10.0863;10.5428;10.6291;9.71528;9.37131;9.38856;6.4273;6.00403;4.41595;2.47026;1.41609;0.716672;0.642905;0.451061;0.364951;0.277314;0.187084;0.138553;0.097159;0.075621;0.066281;19.1053;19.5134;20.23105;20.988;24.10515;32.7748;84.8189;52.79315;33.50875;33.8902;38.0097;55.4812;46.5067;29.3014;25.0216;28.6788;32.24375;29.0339;21.5739;18.95665;15.028;10.84185;7.514245;5.499685;4.90346;2.49752;1.39533;1.0036585;0.8252855;0.6934425;0.525231;0.367776;0.28049;0.2207695;0.179104;0.1492095;22.8976;23.0647;23.7989;25.3462;25.9208;37.6896;99.3432;60.218;36.0243;39.1751;43.7996;68.9965;49.8577;31.7725;27.9278;34.7262;36.85;35.7174;27.8511;20.873;17.5291;11.4776;9.66531;7.14474;6.40194;3.13125;1.77721;1.16994;0.926492;0.783202;0.607322;0.426902;0.323597;0.250458;0.200784;0.16718;15.7343;15.925;16.6193;17.9502;19.7067;23.5902;69.7381;38.7774;28.1201;27.484;34.7608;40.5799;41.1645;27.0116;22.3984;23.8624;24.9136;22.9187;16.87;16.0911;11.6465;9.67232;6.70069;4.42578;3.58596;1.40879;0.930994;0.656277;0.514473;0.458144;0.369233;0.225781;0.174347;0.144127;0.120866;0.103964;8.156102675491578;2.4035542204981994
1;EMSC-19990611_0000011;1999-06-11 07:50:14;1665492;usp00099p8;;19990611_0000011;GR;37.68;21.19;53.8;ISC-webservice;SS;4.5;ISC-webservice;5.2;ISC-webservice;4.5;ISC-webservice;5.2;Mw;RCMTS;;;;;;;;;;;HL;ARGA;00;HN;;;;;GR;38.17704;20.47886;6;;;;;;;;3.655331;526.099066;83.4;99.24716620639605;131.2;;;;;D;0;3;60.0;2;330.0;Z;0.4;0.4;0.4;40.0;40.0;40.0;2.0;5.2;53.8;90;99.24716620639605;99.24716620639605;83.4;119.68;526.099066;False;31.07;3;-16.069256;13.639651;7.520755;15.226125;17.456554;9.688409;0.675843;-0.755502;-0.300592;0.710219;0.875923;0.358633;0.061719;-0.106696;0.025082;0.0815708;0.111286;0.0505447;6.86;8.72;10.885;7.734;8.52;9.265;6.825;1.5848;2.13459;0.758827;1.848855;2.29465;1.41927;26.9949156123;29.0168246358;15.5763047959;28.0986422196;32.8412936913;23.5903899062;0.18517663492;0.193956489761;0.0498892601732;0.189566562341;0.25947505414;0.119658059664;16.0694;17.2751;19.9254;19.8167;34.4592;33.5737;59.7134;38.1226;27.7615;40.8176;34.7394;21.3283;14.1232;11.2885;6.82504;5.8417;6.14932;5.47485;5.2572;4.43279;3.51642;2.56;1.76201;1.39618;1.34589;0.830194;0.432511;0.299348;0.251146;0.208648;0.157093;0.107395;0.082369;0.067254;0.056804;0.048908;13.6743;14.4168;15.4684;16.6313;20.9604;31.982;45.6236;39.7384;32.4521;46.2906;30.0089;14.8041;11.4769;10.9085;9.3646;6.23665;5.10402;5.27173;6.52279;5.92197;4.78525;3.5161;3.45789;3.06254;2.73398;1.5643;0.84068;0.59459;0.411662;0.332769;0.248003;0.166953;0.123983;0.097906;0.080384;0.067783;7.52108;8.74271;9.21266;11.1117;19.1927;21.4829;24.5442;13.7189;11.7001;9.91474;11.0892;7.09808;4.73647;3.53617;4.41802;3.65901;3.12699;3.34304;2.30682;1.74355;1.78206;1.74127;1.44134;0.858101;0.610402;0.347556;0.205374;0.149842;0.109328;0.100571;0.07447;0.047311;0.031927;0.02588;0.02216;0.019186;15.2392;16.15045;17.4715;18.2413;26.799;30.98625;54.52235;39.21985;30.3904;43.615;32.41435;18.24475;12.87;11.1005;7.26922;6.24618;5.62712;5.297225;5.85178;5.096345;3.735995;3.39092;2.55706;2.4207;2.201915;1.16204;0.707068;0.4241515;0.2947085;0.243178;0.188081;0.1333895;0.102052;0.082014;0.06826;0.058012;17.5003;18.2035;21.5816;23.2505;34.4592;34.8874;65.7086;42.3581;36.0033;58.2228;41.2978;24.547;18.0996;12.986;9.63018;6.74585;6.23215;5.95778;7.25245;6.02752;5.24797;4.12068;3.45082;3.10438;2.74651;1.59105;0.856418;0.59262;0.407238;0.330344;0.250039;0.171611;0.127655;0.101495;0.08561;0.074096;9.69836;10.0622;12.7096;12.0957;17.7941;22.5974;36.6779;25.1174;17.4158;17.3343;15.5991;10.5262;5.38523;5.74826;5.35436;5.56754;4.43691;3.98008;5.25604;3.70313;2.93361;2.55647;1.43814;1.22435;1.13207;0.682241;0.429564;0.278964;0.233845;0.198801;0.148395;0.100242;0.075417;0.061035;0.050526;0.042528;3.5939361134818104;0.9436829892356012
2;EMSC-19990611_0000011;1999-06-11 07:50:14;1665492;usp00099p8;;19990611_0000011;GR;37.68;21.19;53.8;ISC-webservice;SS;4.5;ISC-webservice;5.2;ISC-webservice;4.5;ISC-webservice;5.2;Mw;RCMTS;;;;;;;;;;;HL;LEFA;00;HN;;;;;GR;38.83319;20.70437;4;;;;;;;;0.225425;265.381969;134.9;145.23239996639867;161.5;;;;;D;0;3;240.0;2;150.0;Z;0.4;0.4;0.4;40.0;40.0;40.0;2.0;5.2;53.8;90;145.23239996639867;145.23239996639867;134.9;64.18;265.381969;False;31.07;3;9.727958;10.957741;-3.560582;9.472015;10.957741;7.222235;0.511059;-0.484863;-0.164562;0.4669955;0.516447;0.406424;0.073018;-0.085025;-0.028703;0.07720435;0.0850243;0.0534286;11.65;12.575;15.16;12.104;12.0875;13.13;11.085;1.86463;1.58668;0.662424;1.736515;2.07497;1.43354;25.8034850507;24.6709046777;12.832169208;25.455430438;28.0188525168;24.2654855089;0.108042780328;0.110338588522;0.0230282714614;0.109190684425;0.127529062039;0.0908522975975;9.74708;10.0399;10.2048;10.5096;10.4164;12.3554;23.8732;31.1802;28.0907;20.2182;26.62;14.3604;11.1634;8.62787;8.99111;6.65805;7.05677;7.87141;6.03262;6.28382;4.95929;3.65984;3.90813;2.80026;1.74734;1.00353;0.692643;0.601905;0.34155;0.254398;0.180056;0.114177;0.078955;0.064124;0.055564;0.04774;10.9583;11.0691;11.4122;11.781;11.6952;15.6897;21.7307;43.6487;25.8541;23.1792;15.9295;14.2874;9.0521;7.79618;7.53714;6.99446;7.8064;7.6144;8.26796;5.25396;2.84411;2.15015;2.28415;1.64784;1.73813;1.20542;0.81364;0.47151;0.315487;0.254066;0.195004;0.139154;0.10685;0.085575;0.070645;0.059756;3.56125;3.75365;4.95529;4.44197;5.16523;6.77829;13.9684;11.6622;7.55199;6.38484;4.72408;4.57089;4.1196;2.9674;2.85422;2.58939;2.14056;2.21922;2.2378;1.87915;2.29293;1.88729;1.3859;0.876902;0.597615;0.285511;0.267332;0.176753;0.105156;0.089032;0.071749;0.048006;0.032757;0.024615;0.02007;0.017102;9.48668;9.788505;9.980655;10.24275;10.26055;12.5413;21.72675;34.428;26.44845;21.6748;21.1003;13.6677;10.2347;8.40139;7.428715;6.991025;7.57807;8.091965;7.23726;5.722865;3.92032;3.153185;3.24186;2.230905;1.738775;1.02728;0.7454475;0.4821875;0.316383;0.2534115;0.176058;0.114483;0.0869425;0.0706705;0.0594845;0.0508425;10.9583;11.0708;11.457;11.781;11.7303;15.6897;26.7404;43.6495;29.0526;29.1233;26.677;14.3962;12.9989;11.5817;8.98864;7.76094;9.29188;9.16239;10.2097;7.98603;5.32087;4.09499;4.27305;2.82647;2.09164;1.24241;0.813541;0.597317;0.3824;0.264657;0.197121;0.13928;0.106029;0.084586;0.0698;0.05913;7.25615;7.38116;7.62694;8.01573;8.1384;9.34419;17.37;27.2049;22.6243;18.2908;15.1116;10.3033;7.41739;6.43227;5.89348;6.46648;6.47667;6.25473;5.37273;3.14452;2.84423;1.52799;1.58077;1.62551;1.50456;0.960994;0.585956;0.416471;0.277398;0.201677;0.141001;0.090375;0.066318;0.052529;0.043618;0.037353;3.211953419668906;0.8721366291507693
3;EMSC-19990611_0000011;1999-06-11 07:50:14;1665492;usp00099p8;;19990611_0000011;GR;37.68;21.19;53.8;ISC-webservice;SS;4.5;ISC-webservice;5.2;ISC-webservice;4.5;ISC-webservice;5.2;Mw;RCMTS;;;;;;;;;;;HL;LXRA;00;HN;;;;;GR;38.19948;20.43735;8;;;;;;;;2.768686;483.338872;87.8;102.97222926595306;130.8;;;;;D;0;3;340.0;2;250.0;Z;0.4;0.4;0.4;40.0;40.0;40.0;2.0;5.2;53.8;90;102.97222926595306;102.97222926595306;87.8;119.68;483.338872;False;31.07;3;-16.936737;15.651624;-8.319571;15.278312;16.953833;13.845156;-0.885873;0.623227;-0.279178;0.655663;0.906433;0.541959;-0.100699;0.091432;-0.06111;0.0970875;0.116357;0.0737645;11.67;11.51;13.405;11.59;11.56;11.67;11.21;2.76171;2.21742;1.03954;2.473975;2.83289;2.05917;42.7338987578;39.9920623749;25.5899355833;41.8514334708;44.1381005121;39.674533265;0.289116578373;0.273009563734;0.0979912176784;0.281063058037;0.311136552254;0.250989610295;16.9678;17.4492;18.0759;22.7664;28.3374;37.3724;68.4279;30.6905;31.0375;23.8957;22.294;25.4638;21.8434;17.9693;14.5262;10.4901;10.0383;12.2241;9.63044;8.36346;7.60346;5.15376;4.71178;3.93129;2.89519;1.3479;0.851458;0.620048;0.463437;0.367319;0.261044;0.168669;0.123473;0.095665;0.076819;0.063596;15.671;16.465;16.0179;19.6755;25.1231;37.9072;59.3913;45.9227;27.1176;23.9563;29.3094;23.9424;18.5899;13.3305;8.25959;9.29312;9.09859;7.82258;5.38817;5.77282;4.44023;4.83199;3.97726;3.32272;2.56283;1.09721;0.875156;0.593929;0.344559;0.244771;0.181307;0.128368;0.092219;0.069906;0.057572;0.049765;8.34781;9.56066;11.5975;14.6228;17.0349;18.0836;28.0016;19.8503;11.6492;10.4852;8.85525;7.17297;6.52361;5.81859;5.38645;3.69377;3.70051;3.80063;5.24483;4.1393;2.94699;2.14118;1.62272;1.11896;0.885379;0.611821;0.354383;0.262714;0.235272;0.185932;0.15509;0.118111;0.084101;0.061523;0.047601;0.038717;15.32635;16.0121;17.8325;21.00585;26.8323;36.3354;59.9381;37.79705;27.56935;22.83275;26.25635;25.38475;21.36705;15.87195;11.17365;10.18935;9.02645;10.103;7.72199;6.79894;6.60802;4.880075;4.316955;3.627165;2.80337;1.243895;0.859158;0.6079045;0.397596;0.299598;0.2364925;0.1732715;0.123985;0.0934685;0.073089;0.0616395;16.9871;17.4965;18.5539;23.7146;30.7895;41.4319;72.3227;46.5596;31.8428;24.4335;32.9265;31.2644;23.7794;19.7026;15.6963;11.3589;10.0492;12.2936;9.67413;8.67262;8.7211;5.5725;5.60337;4.97157;3.85347;1.522;1.09714;0.786311;0.543576;0.418879;0.30149;0.19721;0.142171;0.109481;0.088434;0.07391;13.8452;14.4952;16.0179;17.2941;20.1877;29.8089;52.4435;29.5463;19.2414;20.0131;22.0375;16.6936;11.6745;10.4158;7.93138;8.17974;7.58836;7.32235;4.89065;4.86275;3.91855;4.2411;1.93343;1.35667;1.09497;0.860141;0.82676;0.456847;0.26526;0.231818;0.178992;0.113038;0.085297;0.066385;0.052399;0.043852;4.376754461564123;1.2219396657537502
4;EMSC-20080917_0000042;2008-09-17 01:09:21;13394480;usp000gh6b;;20080917_0000042;;35.9124;31.6843;89.3929;ISC-webservice;U;4.0;ISC-webservice;3.6;ISC-webservice;2.5;ISC-webservice;4.4;Mw;Pou;;;;;;;;;;;GE;CSS;00;HL;0.0;;;;CY;34.9611;33.331;396;;;;;;;;6.75297;684.436239;183.0;203.6666162394073;305.7;;;;;D;0;E;90.0;N;0.0;Z;0.25;0.25;0.25;30.0;30.0;30.0;3.2;4.4;89.3929;90;203.6666162394073;203.6666162394073;183.0;128.27;684.436239;False;31.07;2;-0.034552;-0.032434;0.058463;0.0329345;0.036575;0.030514;-0.000876;0.000994;-0.00077;0.0009624325;0.00110607;0.000735345;8.4e-05;0.000103;-5.1e-05;0.000101602;0.000118217;7.70285e-05;40.615;41.635;39.19;41.122;41.235;41.93;40.325;0.00275682;0.00286729;0.00210217;0.002779845;0.00296609;0.00263198;0.353289150144;0.358605660106;0.37103195014;0.355844539928;0.37545801999;0.336876379978;4.37154575566e-06;4.22127181785e-06;4.94872043765e-06;4.29640642888e-06;4.7809607027e-06;3.81185733287e-06;0.034769;0.038678;0.108309;0.119652;0.086526;0.097523;0.085665;0.079722;0.05165;0.03936;0.037627;0.028116;0.030226;0.026586;0.020961;0.013911;0.015873;0.016561;0.010607;0.008107;0.004505;0.0033;0.003506;0.002447;0.001658;0.000949;0.000807;0.000524;0.000484;0.000352;0.000259;0.000165;0.000146;0.0001;6.9e-05;6.9e-05;0.032738;0.038875;0.092827;0.128839;0.067578;0.068665;0.055203;0.051278;0.059939;0.0508;0.047096;0.045618;0.034886;0.022614;0.015216;0.017876;0.01619;0.01534;0.012209;0.00947;0.006644;0.003923;0.002494;0.00218;0.001879;0.001014;0.000697;0.000536;0.000401;0.000489;0.00035;0.000215;0.000152;0.000105;7.6e-05;8.3e-05;0.058837;0.069123;0.103648;0.177545;0.159094;0.077566;0.086675;0.06153;0.060115;0.03672;0.040147;0.025429;0.024705;0.021102;0.018427;0.010732;0.009384;0.008721;0.008506;0.006628;0.003912;0.002596;0.001655;0.001213;0.000913;0.000772;0.000678;0.000464;0.000374;0.000346;0.000237;0.000204;0.000115;8.1e-05;6.4e-05;5.4e-05;0.0331025;0.039504;0.0942185;0.118555;0.0758165;0.072652;0.065665;0.0782265;0.0597965;0.0435155;0.0407055;0.038182;0.032381;0.0267515;0.018685;0.0161245;0.015611;0.01646;0.010567;0.0081255;0.005311;0.003547;0.003079;0.0022365;0.001736;0.0010745;0.0007065;0.000517;0.0004885;0.000422;0.0003325;0.000203;0.000151;0.000111;7.85e-05;8.05e-05;0.037488;0.042306;0.108309;0.128839;0.101197;0.09769;0.086566;0.083199;0.063575;0.052373;0.04889;0.045786;0.038313;0.030187;0.021892;0.018593;0.017413;0.020258;0.012804;0.009518;0.00672;0.003943;0.003537;0.002447;0.002103;0.001323;0.000821;0.000583;0.000562;0.000522;0.000357;0.000229;0.000188;0.000123;9.8e-05;0.000104;0.030721;0.036829;0.086362;0.098724;0.065523;0.060984;0.055203;0.051278;0.05165;0.037874;0.029783;0.027915;0.026043;0.019581;0.014551;0.009841;0.011137;0.009875;0.008199;0.006408;0.004063;0.002702;0.002029;0.001637;0.001603;0.000945;0.000596;0.000463;0.000401;0.000347;0.000259;0.000163;0.000123;9.7e-05;6.9e-05;6.6e-05;0.004452946959425032;0.0013682192407248777
