;event_id;event_time;ISC_ev_id;USGS_ev_id;INGV_ev_id;EMSC_ev_id;ev_nation_code;ev_latitude;ev_longitude;ev_depth_km;ev_hyp_ref;fm_type_code;ML;ML_ref;Mw;Mw_ref;Ms;Ms_ref;EMEC_Mw;EMEC_Mw_type;EMEC_Mw_ref;event_source_id;es_strike;es_dip;es_rake;es_strike_dip_rake_ref;es_z_top;es_z_top_ref;es_length;es_width;es_geometry_ref;network_code;station_code;location_code;instrument_code;sensor_depth_m;proximity_code;housing_code;installation_code;st_nation_code;st_latitude;st_longitude;st_elevation;ec8_code;ec8_code_method;ec8_code_ref;vs30_m_sec;vs30_ref;vs30_calc_method;vs30_meas_type;slope_deg;vs30_m_sec_WA;epi_dist;hypo_dist;epi_az;JB_dist;rup_dist;Rx_dist;Ry0_dist;instrument_type_code;late_triggered_flag_01;U_channel_code;U_azimuth_deg;V_channel_code;V_azimuth_deg;W_channel_code;U_hp;V_hp;W_hp;U_lp;V_lp;W_lp;max_usable_T;mag;hypo_depth;rake;rhypo;rrup;rjb;xvf;vs30;vs30measured;z1pt0;region;U_pga;V_pga;W_pga;rotD50_pga;rotD100_pga;rotD00_pga;U_pgv;V_pgv;W_pgv;rotD50_pgv;rotD100_pgv;rotD00_pgv;U_pgd;V_pgd;W_pgd;rotD50_pgd;rotD100_pgd;rotD00_pgd;U_T90;V_T90;W_T90;GM_T90;rotD50_T90;rotD100_T90;rotD00_T90;U_housner;V_housner;W_housner;rotD50_housner;rotD100_housner;rotD00_housner;U_CAV;V_CAV;W_CAV;rotD50_CAV;rotD100_CAV;rotD00_CAV;U_ia;V_ia;W_ia;rotD50_ia;rotD100_ia;rotD00_ia;U_T0_010;U_T0_025;U_T0_040;U_T0_050;U_T0_070;U_T0_100;U_T0_150;U_T0_200;U_T0_250;U_T0_300;U_T0_350;U_T0_400;U_T0_450;U_T0_500;U_T0_600;U_T0_700;U_T0_750;U_T0_800;U_T0_900;U_T1_000;U_T1_200;U_T1_400;U_T1_600;U_T1_800;U_T2_000;U_T2_500;U_T3_000;U_T3_500;U_T4_000;U_T4_500;U_T5_000;U_T6_000;U_T7_000;U_T8_000;U_T9_000;U_T10_000;V_T0_010;V_T0_025;V_T0_040;V_T0_050;V_T0_070;V_T0_100;V_T0_150;V_T0_200;V_T0_250;V_T0_300;V_T0_350;V_T0_400;V_T0_450;V_T0_500;V_T0_600;V_T0_700;V_T0_750;V_T0_800;V_T0_900;V_T1_000;V_T1_200;V_T1_400;V_T1_600;V_T1_800;V_T2_000;V_T2_500;V_T3_000;V_T3_500;V_T4_000;V_T4_500;V_T5_000;V_T6_000;V_T7_000;V_T8_000;V_T9_000;V_T10_000;W_T0_010;W_T0_025;W_T0_040;W_T0_050;W_T0_070;W_T0_100;W_T0_150;W_T0_200;W_T0_250;W_T0_300;W_T0_350;W_T0_400;W_T0_450;W_T0_500;W_T0_600;W_T0_700;W_T0_750;W_T0_800;W_T0_900;W_T1_000;W_T1_200;W_T1_400;W_T1_600;W_T1_800;W_T2_000;W_T2_500;W_T3_000;W_T3_500;W_T4_000;W_T4_500;W_T5_000;W_T6_000;W_T7_000;W_T8_000;W_T9_000;W_T10_000;rotD50_T0_010;rotD50_T0_025;rotD50_T0_040;rotD50_T0_050;rotD50_T0_070;rotD50_T0_100;rotD50_T0_150;rotD50_T0_200;rotD50_T0_250;rotD50_T0_300;rotD50_T0_350;rotD50_T0_400;rotD50_T0_450;rotD50_T0_500;rotD50_T0_600;rotD50_T0_700;rotD50_T0_750;rotD50_T0_800;rotD50_T0_900;rotD50_T1_000;rotD50_T1_200;rotD50_T1_400;rotD50_T1_600;rotD50_T1_800;rotD50_T2_000;rotD50_T2_500;rotD50_T3_000;rotD50_T3_500;rotD50_T4_000;rotD50_T4_500;rotD50_T5_000;rotD50_T6_000;rotD50_T7_000;rotD50_T8_000;rotD50_T9_000;rotD50_T10_000;rotD100_T0_010;rotD100_T0_025;rotD100_T0_040;rotD100_T0_050;rotD100_T0_070;rotD100_T0_100;rotD100_T0_150;rotD100_T0_200;rotD100_T0_250;rotD100_T0_300;rotD100_T0_350;rotD100_T0_400;rotD100_T0_450;rotD100_T0_500;rotD100_T0_600;rotD100_T0_700;rotD100_T0_750;rotD100_T0_800;rotD100_T0_900;rotD100_T1_000;rotD100_T1_200;rotD100_T1_400;rotD100_T1_600;rotD100_T1_800;rotD100_T2_000;rotD100_T2_500;rotD100_T3_000;rotD100_T3_500;rotD100_T4_000;rotD100_T4_500;rotD100_T5_000;rotD100_T6_000;rotD100_T7_000;rotD100_T8_000;rotD100_T9_000;rotD100_T10_000;rotD00_T0_010;rotD00_T0_025;rotD00_T0_040;rotD00_T0_050;rotD00_T0_070;rotD00_T0_100;rotD00_T0_150;rotD00_T0_200;rotD00_T0_250;rotD00_T0_300;rotD00_T0_350;rotD00_T0_400;rotD00_T0_450;rotD00_T0_500;rotD00_T0_600;rotD00_T0_700;rotD00_T0_750;rotD00_T0_800;rotD00_T0_900;rotD00_T1_000;rotD00_T1_200;rotD00_T1_400;rotD00_T1_600;rotD00_T1_800;rotD00_T2_000;rotD00_T2_500;rotD00_T3_000;rotD00_T3_500;rotD00_T4_000;rotD00_T4_500;rotD00_T5_000;rotD00_T6_000;rotD00_T7_000;rotD00_T8_000;rotD00_T9_000;rotD00_T10_000;rotD50_AvgSA[0,3];rotD50_AvgSA[0,6]
25;EMSC-20110519_0000034;2011-05-19 14:50:53;16529266;usp000j1ub;2358199;20110519_0000034;;39.1832;14.9984;281.7809;ISC-webservice;TF;4.7;ISC-webservice;4.7;ISC-webservice;;;4.75;Mw;RCMTS14;;;;;;;;;;;IV;CAFE;00;HN;0.0;;;;IT;41.028;15.2366;1070;A*;GEO;ESM;;;;;7.61682;738.045544;205.8;348.932823914303;185.7;;;;;D;0;E;90.0;N;0.0;Z;0.1;0.1;0.1;30.0;30.0;30.0;8.0;4.75;281.7809;90;348.932823914303;348.932823914303;205.8;-10.66;738.045544;False;31.07;3;-0.005615;0.004494;-0.007042;0.005587;0.006241;0.004112;-0.000937;-0.000711;-0.000782;0.0008077725;0.0011158;0.00062399;-0.000311;0.000337;-0.000291;0.000404045;0.000486236;0.000344344;188.505;205.22;204.705;196.685;197.89;205.465;188.415;0.00396255;0.00379556;0.00367917;0.003850665;0.00418142;0.00352651;0.177255470072;0.173878640017;0.156686825011;0.175896917514;0.180311755013;0.169751134955;3.63807233623e-07;3.24645515545e-07;2.73972799862e-07;3.44226239225e-07;3.76255301727e-07;3.12198214771e-07;0.005682;0.00676;0.007479;0.008958;0.008417;0.007701;0.009998;0.008872;0.008685;0.014951;0.014234;0.020492;0.014948;0.015654;0.012475;0.020908;0.016124;0.013311;0.011798;0.013148;0.011405;0.00877;0.005325;0.007234;0.00654;0.004803;0.003594;0.002249;0.001652;0.001851;0.001895;0.001275;0.000619;0.000512;0.000402;0.000333;0.004505;0.006226;0.008352;0.009156;0.007662;0.007226;0.007768;0.006481;0.00677;0.008051;0.009888;0.016394;0.014863;0.016421;0.011856;0.009668;0.008975;0.008479;0.011452;0.00839;0.007875;0.01003;0.007422;0.006936;0.006186;0.005317;0.003794;0.003214;0.002209;0.001428;0.00136;0.000827;0.000728;0.000619;0.000358;0.000278;0.007047;0.007603;0.009018;0.010321;0.010121;0.008293;0.010674;0.012819;0.007854;0.012242;0.013979;0.013255;0.016106;0.013423;0.018513;0.011128;0.010599;0.010869;0.009918;0.008388;0.009615;0.007526;0.006769;0.006544;0.005744;0.004668;0.003351;0.002381;0.002253;0.001367;0.001175;0.000542;0.000434;0.000295;0.000297;0.000264;0.0056085;0.0068;0.008392;0.008933;0.007929;0.007451;0.008431;0.0082535;0.007617;0.011305;0.0134345;0.0181535;0.0149055;0.015597;0.012433;0.015568;0.013376;0.011244;0.0110655;0.0114025;0.009096;0.0092515;0.00654;0.006845;0.00637;0.005152;0.0037295;0.002946;0.002127;0.0015965;0.00153;0.001088;0.000671;0.000585;0.000368;0.0002985;0.006264;0.007106;0.009853;0.009445;0.008445;0.009163;0.010035;0.009636;0.008782;0.014951;0.015697;0.020668;0.016848;0.019894;0.015105;0.021781;0.017181;0.013576;0.012014;0.013532;0.011413;0.011166;0.00814;0.007516;0.006696;0.006791;0.004478;0.003461;0.002366;0.001916;0.001903;0.001278;0.000777;0.000737;0.000403;0.000368;0.004128;0.005459;0.007298;0.007832;0.007491;0.006714;0.00726;0.006421;0.005981;0.007614;0.008928;0.013295;0.012805;0.012314;0.011661;0.009471;0.00807;0.008261;0.010208;0.008119;0.007875;0.007446;0.005325;0.006285;0.004732;0.003377;0.002522;0.002249;0.001652;0.001416;0.001256;0.000761;0.000598;0.000446;0.000335;0.000232;0.007302749822756342;0.003583705607281552
26;EMSC-20110519_0000034;2011-05-19 14:50:53;16529266;usp000j1ub;2358199;20110519_0000034;;39.1832;14.9984;281.7809;ISC-webservice;TF;4.7;ISC-webservice;4.7;ISC-webservice;;;4.75;Mw;RCMTS14;;;;;;;;;;;IV;CAR1;00;HN;0.0;;;;IT;39.2534;16.2114;680;B*;GEO;ESM;;;;;6.175492;648.706948;105.0;300.7082898837509;266.1;;;;;D;0;E;90.0;N;0.0;Z;0.2;0.2;0.2;30.0;30.0;30.0;4.0;4.75;281.7809;90;300.7082898837509;300.7082898837509;105.0;60.58;648.706948;False;31.07;3;0.101861;-0.104521;-0.085045;0.1064545;0.125256;0.093675;0.007503;-0.008565;-0.004201;0.00824921;0.00882234;0.00675537;-0.000849;0.000942;-0.000388;0.0009291715;0.00112773;0.000758813;49.01;46.09;43.39;47.528;47.9;50.035;45.865;0.0267561;0.0255763;0.0119979;0.0256375;0.0291893;0.0233389;1.07322753484;1.07283867483;0.809102864919;1.07303310483;1.18476369037;0.941701015113;4.12978901079e-05;4.09657325434e-05;2.59246497716e-05;4.11318113256e-05;5.21368934485e-05;3.01267147978e-05;0.102135;0.112548;0.17629;0.278785;0.15945;0.25544;0.278586;0.2355;0.186741;0.313308;0.306058;0.29176;0.269572;0.306895;0.269488;0.214337;0.214296;0.189248;0.159698;0.095328;0.034767;0.025562;0.028802;0.030775;0.019759;0.01132;0.007168;0.005208;0.003447;0.002691;0.00231;0.001466;0.001098;0.000871;0.000712;0.000623;0.1049;0.105955;0.137296;0.15213;0.169346;0.244381;0.260998;0.327555;0.200739;0.273851;0.325381;0.21087;0.276691;0.33349;0.345149;0.234334;0.211282;0.166961;0.090189;0.051005;0.04174;0.035034;0.02764;0.022486;0.015326;0.014117;0.008995;0.005097;0.003509;0.00293;0.002069;0.001364;0.001202;0.000951;0.000762;0.000675;0.085281;0.100787;0.162059;0.208827;0.295302;0.531371;0.174694;0.16334;0.122684;0.185959;0.163176;0.228933;0.223071;0.20022;0.123331;0.081808;0.050519;0.050971;0.043965;0.027736;0.018267;0.012833;0.008858;0.007228;0.008124;0.004919;0.004482;0.002271;0.001423;0.001029;0.00088;0.000633;0.000525;0.000423;0.000354;0.000303;0.107105;0.1083085;0.1540115;0.216471;0.16779;0.2539885;0.272608;0.255388;0.190302;0.2698635;0.31805;0.2438275;0.2761315;0.322424;0.319639;0.2269255;0.2124525;0.1783625;0.12236;0.073794;0.040556;0.033137;0.029767;0.0252795;0.019146;0.0116545;0.0078905;0.0051525;0.003478;0.002761;0.0022385;0.00145;0.0011685;0.0009195;0.00074;0.000651;0.125624;0.13902;0.17629;0.28553;0.197776;0.280004;0.323267;0.32763;0.231949;0.322598;0.3575;0.294175;0.287707;0.386775;0.357934;0.261623;0.25737;0.232194;0.168531;0.097201;0.044654;0.036304;0.034169;0.031724;0.019939;0.014118;0.009;0.00627;0.004474;0.003451;0.002642;0.001746;0.001397;0.001086;0.000827;0.000723;0.094024;0.099399;0.134844;0.126228;0.12973;0.228367;0.159279;0.215756;0.146347;0.192173;0.247838;0.184217;0.248357;0.204507;0.231136;0.152533;0.141751;0.098407;0.081983;0.049936;0.03354;0.025562;0.025602;0.020931;0.014263;0.009075;0.00504;0.003507;0.002482;0.002165;0.001704;0.001154;0.000893;0.000764;0.000618;0.000534;0.0407141348545017;0.011079341433355552
27;EMSC-20110519_0000034;2011-05-19 14:50:53;16529266;usp000j1ub;2358199;20110519_0000034;;39.1832;14.9984;281.7809;ISC-webservice;TF;4.7;ISC-webservice;4.7;ISC-webservice;;;4.75;Mw;RCMTS14;;;;;;;;;;;IV;MRB1;00;HN;0.0;;;;IT;41.1227;14.96815;688;B*;GEO;ESM;;;;;13.705011;909.760821;215.4;354.67962389290136;179.3;;;;;D;0;E;90.0;N;0.0;Z;0.1;0.1;0.1;30.0;30.0;30.0;8.0;4.75;281.7809;90;354.67962389290136;354.67962389290136;215.4;-32.14;909.760821;False;31.07;3;0.015417;0.020705;-0.015421;0.0184425;0.02271;0.011683;-0.00174;0.002204;0.001454;0.00201838;0.00224033;0.00109934;-0.000346;-0.000445;0.000217;0.0004144955;0.000564688;0.000327043;166.18;126.745;202.975;145.129;145.5;187.475;122.375;0.00813805;0.00986676;0.00440799;0.008979895;0.0103555;0.00713902;0.309901470013;0.344697995112;0.205933415028;0.329049872521;0.370836585143;0.27703581002;1.50672513012e-06;2.13606923106e-06;5.23785542114e-07;1.82139628199e-06;2.60447123046e-06;1.03831964807e-06;0.015474;0.016445;0.036663;0.018663;0.019342;0.02019;0.019158;0.021675;0.020888;0.025256;0.034372;0.043038;0.056126;0.051931;0.073168;0.072975;0.07635;0.066158;0.03684;0.025557;0.013103;0.010053;0.013516;0.012112;0.007551;0.006594;0.003812;0.002718;0.001504;0.001321;0.001309;0.00096;0.00065;0.000579;0.000451;0.00035;0.02072;0.021053;0.035622;0.022335;0.022862;0.020777;0.023826;0.035916;0.030625;0.032048;0.050946;0.052389;0.062526;0.078992;0.073909;0.081266;0.066704;0.061298;0.040856;0.034387;0.020674;0.021115;0.015306;0.0125;0.009563;0.005968;0.003522;0.003194;0.00181;0.001489;0.001386;0.000994;0.000629;0.000515;0.000368;0.000358;0.015443;0.015714;0.018683;0.019157;0.01878;0.020501;0.028057;0.026198;0.020899;0.022548;0.027411;0.030605;0.035073;0.036192;0.033184;0.02644;0.023779;0.021542;0.017055;0.014759;0.011905;0.009389;0.007154;0.004564;0.004277;0.00276;0.001945;0.001457;0.001472;0.001419;0.001131;0.000745;0.00048;0.000373;0.000266;0.000264;0.0185005;0.0196805;0.03621;0.019953;0.021439;0.0204275;0.0215495;0.027812;0.02654;0.0299795;0.0440155;0.0460845;0.0593885;0.0641435;0.0735385;0.078347;0.071673;0.063728;0.038876;0.0302485;0.018082;0.017116;0.0134035;0.0120065;0.008296;0.0064385;0.003524;0.0028855;0.001871;0.001389;0.001352;0.000912;0.0006285;0.0005125;0.000411;0.0003475;0.022776;0.024214;0.037843;0.024526;0.023183;0.023436;0.02533;0.035916;0.03134;0.037163;0.055039;0.059009;0.081449;0.082774;0.081007;0.095206;0.101353;0.086973;0.054965;0.041544;0.022927;0.021115;0.015449;0.012889;0.009662;0.008168;0.00466;0.003337;0.00206;0.001879;0.001571;0.000998;0.000654;0.000583;0.00051;0.000369;0.011691;0.012657;0.030939;0.013643;0.013476;0.016659;0.015358;0.017919;0.015873;0.021073;0.027378;0.033208;0.038584;0.049222;0.056751;0.036794;0.033768;0.028535;0.022699;0.017671;0.012971;0.009196;0.011686;0.009947;0.007409;0.004135;0.002943;0.002515;0.001444;0.001165;0.000959;0.000713;0.000547;0.000422;0.000361;0.000304;0.014432216074051847;0.004974015631803972
28;EMSC-20110519_0000034;2011-05-19 14:50:53;16529266;usp000j1ub;2358199;20110519_0000034;;39.1832;14.9984;281.7809;ISC-webservice;TF;4.7;ISC-webservice;4.7;ISC-webservice;;;4.75;Mw;RCMTS14;;;;;;;;;;;IV;PIPA;00;HN;0.0;;;;IT;39.4851;16.8158;479;B*;GEO;ESM;;;;;7.629043;738.80556;160.2;324.13656937286476;258.5;;;;;D;0;E;90.0;N;0.0;Z;0.2;0.2;0.2;30.0;30.0;30.0;4.0;4.75;281.7809;90;324.13656937286476;324.13656937286476;160.2;107.61;738.80556;False;31.07;2;-0.120675;-0.137441;-0.190335;0.130316;0.162151;0.10001;-0.00663;0.005165;0.006965;0.00593573;0.00836136;0.00414644;0.000692;-0.000578;0.000492;0.000622918;0.000876686;0.000430513;47.15;43.26;38.565;45.163;45.0975;48.11;41.56;0.0215291;0.0179263;0.0143021;0.01984115;0.0239659;0.0154342;0.824392905375;0.829174164847;0.656423715034;0.826783535111;0.866017634796;0.766570920345;2.61487127535e-05;2.86420433781e-05;2.27738551144e-05;2.73953815496e-05;2.90205090678e-05;2.57702383394e-05;0.121012;0.127169;0.132933;0.143627;0.20925;0.273612;0.339089;0.299462;0.189853;0.179258;0.227665;0.23468;0.265897;0.268604;0.123064;0.129625;0.122089;0.101811;0.074781;0.051543;0.052947;0.042094;0.032411;0.025887;0.018251;0.010448;0.006933;0.00468;0.002831;0.00212;0.001527;0.001013;0.000799;0.000653;0.000547;0.000478;0.137497;0.142193;0.15419;0.174181;0.247168;0.369987;0.705299;0.222068;0.127557;0.171654;0.201903;0.255488;0.277708;0.22377;0.154105;0.100982;0.084574;0.067441;0.04888;0.061093;0.034787;0.027434;0.023395;0.015881;0.011565;0.007982;0.004153;0.002682;0.00191;0.001813;0.001819;0.001089;0.000859;0.000668;0.000571;0.000455;0.190337;0.194118;0.212966;0.214487;0.259824;0.472113;0.644108;0.236911;0.234584;0.241109;0.192745;0.14084;0.120765;0.135507;0.104244;0.089219;0.078378;0.066397;0.049055;0.039872;0.029352;0.021734;0.015818;0.01212;0.00941;0.006255;0.003604;0.003278;0.002134;0.001712;0.001391;0.001126;0.000862;0.00071;0.000596;0.000515;0.1307735;0.136044;0.1451995;0.162517;0.233797;0.323554;0.5526675;0.259258;0.1720905;0.191663;0.2219925;0.245084;0.2718025;0.251016;0.142128;0.1144725;0.1033615;0.091914;0.065038;0.051575;0.042961;0.033759;0.0282805;0.021477;0.014423;0.0088735;0.0051005;0.004062;0.002773;0.0021295;0.0016625;0.001051;0.000804;0.0006605;0.000559;0.0004665;0.162681;0.169595;0.180661;0.204292;0.270543;0.428986;0.751119;0.353825;0.189853;0.215888;0.243371;0.346601;0.384016;0.313673;0.189524;0.147111;0.137823;0.102199;0.078061;0.063359;0.052973;0.045181;0.03991;0.03031;0.019429;0.012275;0.007133;0.004944;0.003229;0.002714;0.002348;0.001483;0.001131;0.000874;0.000751;0.00062;0.100278;0.105739;0.110017;0.122953;0.176989;0.1655;0.224765;0.169166;0.114946;0.151951;0.196841;0.151475;0.147442;0.149762;0.120106;0.080434;0.079805;0.062098;0.046456;0.047999;0.027806;0.015406;0.014336;0.009683;0.008111;0.006455;0.00409;0.002641;0.001888;0.001669;0.001202;0.000673;0.000494;0.00042;0.000364;0.000294;0.031352036380156136;0.008601969526392333
29;EMSC-20110519_0000034;2011-05-19 14:50:53;16529266;usp000j1ub;2358199;20110519_0000034;;39.1832;14.9984;281.7809;ISC-webservice;TF;4.7;ISC-webservice;4.7;ISC-webservice;;;4.75;Mw;RCMTS14;;;;;;;;;;;IV;SIRI;00;HN;0.0;;;;IT;40.1821;15.8675;1063;B*;GEO;ESM;;;;;8.712291;779.091757;133.6;311.84841767244865;214.2;;;;;D;0;E;90.0;N;0.0;Z;0.2;0.2;0.2;40.0;40.0;40.0;4.0;4.75;281.7809;90;311.84841767244865;311.84841767244865;133.6;20.7;779.091757;False;31.07;3;-0.012534;0.013278;-0.010999;0.0127655;0.015739;0.009377;-0.000957;-0.001145;-0.000917;0.00103036;0.00126257;0.000765221;0.000251;-0.000282;-0.000201;0.000253773;0.00029205;0.000208853;50.615;50.825;48.86;50.72;50.8275;51.28;50.52;0.00488333;0.00555695;0.00319263;0.00513639;0.00556007;0.00483152;0.161284115033;0.155118154966;0.0865312799913;0.158179762474;0.172265204973;0.137826980037;1.02953740985e-06;9.82879898624e-07;3.23047234301e-07;1.0062104844e-06;1.22790089961e-06;7.8451609102e-07;0.012549;0.013059;0.012814;0.013799;0.018485;0.016986;0.047564;0.038297;0.032219;0.033568;0.039235;0.040649;0.037595;0.026646;0.021349;0.01771;0.018036;0.026161;0.025328;0.019489;0.007385;0.008617;0.007593;0.007759;0.006821;0.003184;0.002255;0.002489;0.001572;0.001325;0.001043;0.000666;0.000396;0.000235;0.000146;0.000131;0.013306;0.01408;0.014022;0.015332;0.02269;0.024023;0.040515;0.051748;0.026353;0.022953;0.025039;0.029794;0.022436;0.021333;0.022586;0.022301;0.024197;0.023077;0.017979;0.021389;0.020448;0.007715;0.007813;0.008763;0.008329;0.005508;0.004189;0.002038;0.001452;0.001197;0.000804;0.00048;0.000323;0.000223;0.000168;0.000144;0.011051;0.011196;0.013588;0.012845;0.027162;0.022175;0.026127;0.025938;0.012553;0.01202;0.01374;0.016762;0.013704;0.012115;0.0147;0.015995;0.021094;0.019974;0.015003;0.014249;0.006518;0.006261;0.003986;0.004919;0.004541;0.003104;0.003463;0.002793;0.001451;0.000849;0.000596;0.000312;0.000206;0.000153;0.000129;0.000109;0.012788;0.013415;0.013366;0.014448;0.0199615;0.0208405;0.043945;0.043518;0.0273595;0.028124;0.0326965;0.036445;0.0320215;0.0250505;0.021704;0.0198335;0.020685;0.0240665;0.0205465;0.0199495;0.014808;0.0084685;0.0075505;0.008166;0.0075145;0.00397;0.003267;0.002452;0.001452;0.0011765;0.000849;0.0004935;0.0003295;0.0002225;0.0001645;0.000134;0.015829;0.016606;0.016911;0.017917;0.02279;0.025355;0.058347;0.053568;0.033656;0.03912;0.041667;0.04106;0.041043;0.030807;0.026174;0.025286;0.027586;0.029221;0.028318;0.021889;0.020448;0.0099;0.007895;0.010241;0.008562;0.005551;0.004189;0.002557;0.00158;0.001336;0.001101;0.000666;0.0004;0.000253;0.000192;0.000151;0.009397;0.009615;0.009968;0.010395;0.015078;0.016986;0.027574;0.031422;0.020921;0.022953;0.022513;0.02307;0.022004;0.019264;0.01569;0.015425;0.015328;0.018966;0.01639;0.014932;0.007213;0.007541;0.006763;0.006171;0.005264;0.002979;0.002074;0.002038;0.001102;0.001002;0.000677;0.000377;0.000256;0.000167;0.000134;0.000112;0.009460515054045946;0.003187542615657534
