;event_id;event_time;ISC_ev_id;USGS_ev_id;INGV_ev_id;EMSC_ev_id;ev_nation_code;ev_latitude;ev_longitude;ev_depth_km;ev_hyp_ref;fm_type_code;ML;ML_ref;Mw;Mw_ref;Ms;Ms_ref;EMEC_Mw;EMEC_Mw_type;EMEC_Mw_ref;event_source_id;es_strike;es_dip;es_rake;es_strike_dip_rake_ref;es_z_top;es_z_top_ref;es_length;es_width;es_geometry_ref;network_code;station_code;location_code;instrument_code;sensor_depth_m;proximity_code;housing_code;installation_code;st_nation_code;st_latitude;st_longitude;st_elevation;ec8_code;ec8_code_method;ec8_code_ref;vs30_m_sec;vs30_ref;vs30_calc_method;vs30_meas_type;slope_deg;vs30_m_sec_WA;epi_dist;hypo_dist;epi_az;JB_dist;rup_dist;Rx_dist;Ry0_dist;instrument_type_code;late_triggered_flag_01;U_channel_code;U_azimuth_deg;V_channel_code;V_azimuth_deg;W_channel_code;U_hp;V_hp;W_hp;U_lp;V_lp;W_lp;max_usable_T;mag;hypo_depth;rake;rhypo;rrup;rjb;xvf;vs30;vs30measured;z1pt0;region;U_pga;V_pga;W_pga;rotD50_pga;rotD100_pga;rotD00_pga;U_pgv;V_pgv;W_pgv;rotD50_pgv;rotD100_pgv;rotD00_pgv;U_pgd;V_pgd;W_pgd;rotD50_pgd;rotD100_pgd;rotD00_pgd;U_T90;V_T90;W_T90;GM_T90;rotD50_T90;rotD100_T90;rotD00_T90;U_housner;V_housner;W_housner;rotD50_housner;rotD100_housner;rotD00_housner;U_CAV;V_CAV;W_CAV;rotD50_CAV;rotD100_CAV;rotD00_CAV;U_ia;V_ia;W_ia;rotD50_ia;rotD100_ia;rotD00_ia;U_T0_010;U_T0_025;U_T0_040;U_T0_050;U_T0_070;U_T0_100;U_T0_150;U_T0_200;U_T0_250;U_T0_300;U_T0_350;U_T0_400;U_T0_450;U_T0_500;U_T0_600;U_T0_700;U_T0_750;U_T0_800;U_T0_900;U_T1_000;U_T1_200;U_T1_400;U_T1_600;U_T1_800;U_T2_000;U_T2_500;U_T3_000;U_T3_500;U_T4_000;U_T4_500;U_T5_000;U_T6_000;U_T7_000;U_T8_000;U_T9_000;U_T10_000;V_T0_010;V_T0_025;V_T0_040;V_T0_050;V_T0_070;V_T0_100;V_T0_150;V_T0_200;V_T0_250;V_T0_300;V_T0_350;V_T0_400;V_T0_450;V_T0_500;V_T0_600;V_T0_700;V_T0_750;V_T0_800;V_T0_900;V_T1_000;V_T1_200;V_T1_400;V_T1_600;V_T1_800;V_T2_000;V_T2_500;V_T3_000;V_T3_500;V_T4_000;V_T4_500;V_T5_000;V_T6_000;V_T7_000;V_T8_000;V_T9_000;V_T10_000;W_T0_010;W_T0_025;W_T0_040;W_T0_050;W_T0_070;W_T0_100;W_T0_150;W_T0_200;W_T0_250;W_T0_300;W_T0_350;W_T0_400;W_T0_450;W_T0_500;W_T0_600;W_T0_700;W_T0_750;W_T0_800;W_T0_900;W_T1_000;W_T1_200;W_T1_400;W_T1_600;W_T1_800;W_T2_000;W_T2_500;W_T3_000;W_T3_500;W_T4_000;W_T4_500;W_T5_000;W_T6_000;W_T7_000;W_T8_000;W_T9_000;W_T10_000;rotD50_T0_010;rotD50_T0_025;rotD50_T0_040;rotD50_T0_050;rotD50_T0_070;rotD50_T0_100;rotD50_T0_150;rotD50_T0_200;rotD50_T0_250;rotD50_T0_300;rotD50_T0_350;rotD50_T0_400;rotD50_T0_450;rotD50_T0_500;rotD50_T0_600;rotD50_T0_700;rotD50_T0_750;rotD50_T0_800;rotD50_T0_900;rotD50_T1_000;rotD50_T1_200;rotD50_T1_400;rotD50_T1_600;rotD50_T1_800;rotD50_T2_000;rotD50_T2_500;rotD50_T3_000;rotD50_T3_500;rotD50_T4_000;rotD50_T4_500;rotD50_T5_000;rotD50_T6_000;rotD50_T7_000;rotD50_T8_000;rotD50_T9_000;rotD50_T10_000;rotD100_T0_010;rotD100_T0_025;rotD100_T0_040;rotD100_T0_050;rotD100_T0_070;rotD100_T0_100;rotD100_T0_150;rotD100_T0_200;rotD100_T0_250;rotD100_T0_300;rotD100_T0_350;rotD100_T0_400;rotD100_T0_450;rotD100_T0_500;rotD100_T0_600;rotD100_T0_700;rotD100_T0_750;rotD100_T0_800;rotD100_T0_900;rotD100_T1_000;rotD100_T1_200;rotD100_T1_400;rotD100_T1_600;rotD100_T1_800;rotD100_T2_000;rotD100_T2_500;rotD100_T3_000;rotD100_T3_500;rotD100_T4_000;rotD100_T4_500;rotD100_T5_000;rotD100_T6_000;rotD100_T7_000;rotD100_T8_000;rotD100_T9_000;rotD100_T10_000;rotD00_T0_010;rotD00_T0_025;rotD00_T0_040;rotD00_T0_050;rotD00_T0_070;rotD00_T0_100;rotD00_T0_150;rotD00_T0_200;rotD00_T0_250;rotD00_T0_300;rotD00_T0_350;rotD00_T0_400;rotD00_T0_450;rotD00_T0_500;rotD00_T0_600;rotD00_T0_700;rotD00_T0_750;rotD00_T0_800;rotD00_T0_900;rotD00_T1_000;rotD00_T1_200;rotD00_T1_400;rotD00_T1_600;rotD00_T1_800;rotD00_T2_000;rotD00_T2_500;rotD00_T3_000;rotD00_T3_500;rotD00_T4_000;rotD00_T4_500;rotD00_T5_000;rotD00_T6_000;rotD00_T7_000;rotD00_T8_000;rotD00_T9_000;rotD00_T10_000;rotD50_AvgSA[0,3];rotD50_AvgSA[0,6]
20;EMSC-20110401_0000033;2011-04-01 13:29:11;600575114;usp000hz2h;2332319;20110401_0000033;GR;35.7317;26.5466;75.5295;ISC-webservice;SS;6.0;ISC-webservice;6.1;ISC-webservice;5.7;ISC-webservice;6.0;Mw;GEOFON;;;;;;;;;;;HL;MNVA;00;HN;0.0;;;;GR;36.68709;23.03734;12;;;;;;;;2.2317;445.191501;332.9;341.36068222665887;107.5;;;;;D;0;E;125.0;N;35.0;Z;0.05;0.05;0.05;30.0;30.0;30.0;16.0;6.0;75.5295;90;341.36068222665887;341.36068222665887;332.9;75.15;445.191501;False;31.07;3;-0.662555;0.574668;-0.584009;0.618962;0.662555;0.521207;0.136803;-0.08486;0.075818;0.1061795;0.139493;0.0670994;0.037721;0.039285;-0.028127;0.03832415;0.0437211;0.0230894;95.42;80.84;99.835;87.828;89.7425;97.87;78.975;0.497838;0.328055;0.317748;0.4219575;0.499824;0.316904;9.06308138463;7.98302589459;7.80500411056;8.49208327902;9.06845858031;7.98302589459;0.00165074775822;0.00129140786256;0.00117297064426;0.00147107773444;0.00165074775822;0.00129140786256;0.664589;0.678151;0.740073;0.766902;0.894902;0.759916;0.90362;0.921512;1.0733;1.56453;1.1556;1.05666;0.888493;0.970988;1.03939;1.21442;1.58283;2.04151;2.11312;1.47308;1.09096;1.61387;1.50002;1.00479;0.710001;0.590132;0.403773;0.257011;0.249089;0.224858;0.188722;0.113668;0.06127;0.059949;0.040489;0.030187;0.574973;0.600196;0.591442;0.633192;0.867786;1.20068;1.05659;1.13161;0.930728;1.5027;1.07219;1.07025;0.747546;0.724487;0.727274;0.876116;1.04847;1.03811;1.24174;1.05183;0.779566;0.89733;0.668944;0.559329;0.431922;0.482496;0.336941;0.182747;0.244938;0.23257;0.156198;0.082802;0.05689;0.046231;0.035112;0.023199;0.586201;0.619099;0.8153;0.9655;0.858639;0.775305;0.93296;1.2456;1.00588;1.418;1.35219;1.05191;0.724403;0.66158;0.654494;0.854579;0.721572;0.812571;1.1546;1.09329;0.730179;1.10842;0.909127;0.501164;0.377997;0.375186;0.230699;0.140872;0.143046;0.091582;0.085731;0.060222;0.044636;0.040243;0.034809;0.026915;0.6194595;0.637376;0.685797;0.7111745;0.922207;0.9591485;0.994054;0.9355355;1.091385;1.4679;1.10441;1.063455;0.88708;0.7501415;0.811158;1.03755;1.321825;1.611785;1.62468;1.141475;1.15236;1.286775;1.21085;0.839416;0.547129;0.5401645;0.3714885;0.227743;0.247013;0.2287135;0.1849805;0.10062;0.059104;0.050864;0.037518;0.026084;0.664589;0.678151;0.740073;0.770421;0.999506;1.23259;1.07681;1.16399;1.20412;1.56453;1.2653;1.34522;0.993737;0.974857;1.04565;1.22791;1.72371;2.23764;2.1693;1.47512;1.26981;1.64561;1.50002;1.00488;0.710001;0.739538;0.51535;0.306741;0.301114;0.294321;0.214577;0.128921;0.078214;0.068229;0.043885;0.03506;0.522016;0.553247;0.577267;0.616278;0.862664;0.708435;0.772833;0.734754;0.930728;1.29534;0.912395;0.864176;0.696894;0.636728;0.583439;0.682057;0.689024;0.682965;0.94171;0.954855;0.779566;0.706494;0.610333;0.559329;0.388882;0.200052;0.20885;0.162218;0.144492;0.137471;0.141556;0.059683;0.045817;0.032578;0.022254;0.013862;0.7525684157553075;0.36446747254086503
21;EMSC-20110401_0000033;2011-04-01 13:29:11;600575114;usp000hz2h;2332319;20110401_0000033;GR;35.7317;26.5466;75.5295;ISC-webservice;SS;6.0;ISC-webservice;6.1;ISC-webservice;5.7;ISC-webservice;6.0;Mw;GEOFON;;;;;;;;;;;HL;NOAC;00;HN;0.0;;;;GR;37.97384;23.71767;93;;;;;;;;6.833563;689.429247;354.3;362.261225319865;133.7;;;;;D;0;E;90.0;N;0.0;Z;0.05;0.05;0.05;30.0;30.0;30.0;16.0;6.0;75.5295;90;362.261225319865;362.261225319865;354.3;-51.78;689.429247;False;31.07;3;0.746799;-0.435478;-0.446792;0.630626;0.756415;0.4203;0.085385;0.075741;0.056201;0.07676335;0.0873721;0.0642577;0.040435;-0.023796;-0.024476;0.03026115;0.0427147;0.0213869;83.385;80.265;96.82;81.81;83.4875;87.965;78.93;0.379049;0.405667;0.276042;0.390993;0.432477;0.34066;8.15334516044;7.97556382857;6.17174557644;8.05435104965;8.19250489004;7.88768921085;0.0017456055475;0.0015319067887;0.000869226252471;0.00163875608308;0.00176470738276;0.00151280482134;0.746832;0.750954;0.758818;0.760909;0.790817;0.805966;1.3464;1.82892;2.10214;2.49816;1.313;1.304;1.4687;1.3751;1.58577;1.86233;1.73999;1.35219;1.24226;1.30139;1.63879;1.00247;0.753149;0.419491;0.390166;0.325822;0.226417;0.144296;0.105342;0.079543;0.065103;0.053221;0.057382;0.047906;0.035442;0.023001;0.43565;0.437957;0.43758;0.444577;0.57428;0.523976;0.700886;0.689896;0.929299;1.68225;1.34056;1.41936;0.91434;0.852666;1.07397;1.04611;0.975381;1.21689;1.31547;1.25571;0.969529;1.25502;0.829784;0.708692;0.614119;0.527038;0.254141;0.25134;0.25642;0.139133;0.116291;0.05465;0.051018;0.050185;0.032209;0.025055;0.447441;0.460922;0.491807;0.524583;0.801435;1.153;1.16343;0.721623;0.99708;0.994387;1.10826;0.899877;0.625179;0.544158;0.815275;0.986188;1.07316;0.986449;0.737826;0.661494;1.00569;0.993972;0.596536;0.415097;0.417196;0.202911;0.135025;0.120475;0.081614;0.093426;0.077316;0.051942;0.041894;0.03094;0.020406;0.020068;0.630813;0.6341115;0.6422515;0.6554595;0.675285;0.681951;1.031935;1.418945;1.735675;2.142405;1.32678;1.335335;1.098875;1.0702;1.228195;1.409875;1.30845;1.298795;1.219315;1.228285;1.367445;1.095125;0.790851;0.5645875;0.523586;0.4184445;0.238334;0.218016;0.1886675;0.1146195;0.0984895;0.0541065;0.054341;0.049047;0.033829;0.0241055;0.756922;0.761739;0.770551;0.773591;0.801493;0.808492;1.34711;1.83568;2.29326;2.64846;1.7889;1.45152;1.53639;1.50913;1.73398;1.93922;1.792;1.43714;1.31547;1.39041;1.80569;1.35177;0.902844;0.737689;0.679166;0.527737;0.289647;0.274588;0.257601;0.139563;0.117215;0.073644;0.068673;0.066566;0.047524;0.033195;0.420541;0.421594;0.423939;0.431497;0.492062;0.510251;0.619286;0.689896;0.929299;1.32281;1.0092;0.875557;0.835506;0.836438;0.742576;0.841182;0.824844;0.883843;0.985773;0.965808;0.872292;0.816236;0.539624;0.407589;0.335473;0.317613;0.166717;0.11575;0.102764;0.079543;0.065012;0.049339;0.026071;0.019368;0.019674;0.014409;0.6975639255489023;0.2862008683234634
22;EMSC-20110401_0000033;2011-04-01 13:29:11;600575114;usp000hz2h;2332319;20110401_0000033;GR;35.7317;26.5466;75.5295;ISC-webservice;SS;6.0;ISC-webservice;6.1;ISC-webservice;5.7;ISC-webservice;6.0;Mw;GEOFON;;;;;;;;;;;HL;PSRA;00;HN;0.0;;;;GR;38.53978;25.56202;13;;;;;;;;3.131055;502.224366;323.7;332.39493884572005;164.0;;;;;D;0;E;90.0;N;0.0;Z;0.05;0.05;0.05;30.0;30.0;30.0;16.0;6.0;75.5295;90;332.39493884572005;332.39493884572005;323.7;-150.0;502.224366;False;31.07;2;-1.343213;1.327194;0.481915;1.2918765;1.452669;0.857487;-0.073599;-0.066564;-0.048975;0.0756894;0.0920723;0.0645132;0.030784;0.020212;0.018911;0.02373415;0.0318256;0.0174113;67.995;60.135;77.385;63.944;63.3375;68.935;57.15;0.368569;0.327162;0.212601;0.3447175;0.369529;0.321438;9.58084241442;10.1558091308;5.43666970926;9.88049993113;10.5254050831;9.07157726344;0.00265619075453;0.00331340263917;0.000716932060163;0.00298479660065;0.00372443247531;0.00224516068649;1.34495;1.35635;1.37974;1.40259;1.49255;1.94206;2.65527;4.34316;5.31448;2.19165;1.49654;1.4887;1.27095;1.42436;1.26229;0.814858;0.772323;0.793695;1.07744;1.07871;1.15474;0.821841;0.676841;0.462001;0.601638;0.364961;0.238116;0.24708;0.140998;0.104023;0.084844;0.058934;0.049988;0.059789;0.050835;0.027892;1.3274;1.34084;1.3696;1.38716;1.45557;3.08743;3.19855;4.46404;4.93523;1.89557;1.22484;1.36637;1.3836;1.67486;1.16942;0.747259;0.768517;0.975354;1.08675;0.735555;0.700835;0.951476;0.896021;0.625432;0.323568;0.248843;0.174849;0.161053;0.099649;0.096708;0.10967;0.055891;0.035658;0.031068;0.022091;0.018117;0.482363;0.488061;0.618653;0.6477;0.929292;1.51905;1.46982;1.35327;1.34632;0.685988;0.466317;0.561735;0.501921;0.599848;0.583845;0.49964;0.564554;0.644897;0.760176;0.601902;0.389176;0.521049;0.619143;0.502121;0.294893;0.175659;0.249483;0.125118;0.092185;0.080455;0.052238;0.070586;0.049981;0.031205;0.023449;0.015423;1.293365;1.304675;1.33037;1.35173;1.42975;2.37352;2.68442;4.44406;5.126155;1.991435;1.369225;1.423085;1.303755;1.54542;1.197;0.795673;0.775415;0.850655;1.069735;0.933514;0.9799915;0.891161;0.726226;0.540833;0.472481;0.3090365;0.2246625;0.205192;0.1339275;0.0983185;0.0975545;0.0554655;0.047149;0.0461355;0.038204;0.023742;1.4565;1.46971;1.4967;1.52564;1.61766;3.13217;3.29326;5.07473;5.96712;2.74344;1.80237;1.5732;1.67978;2.10416;1.61753;0.92315;0.925106;1.06437;1.17896;1.1738;1.20931;1.07983;0.93926;0.714799;0.602946;0.365024;0.281846;0.281309;0.164681;0.123031;0.134199;0.05989;0.053571;0.064557;0.051854;0.030382;0.859128;0.867218;0.891438;0.914535;0.987044;1.59798;2.18106;2.53078;3.82827;1.45454;1.17673;1.1419;0.730626;0.612876;0.558757;0.576319;0.56376;0.706379;0.788951;0.725073;0.659713;0.479042;0.510355;0.452834;0.304073;0.247898;0.11462;0.093517;0.090203;0.081024;0.061685;0.044965;0.024351;0.018488;0.017531;0.018116;0.6366551667301621;0.26565130778919827
23;EMSC-20110401_0000033;2011-04-01 13:29:11;600575114;usp000hz2h;2332319;20110401_0000033;GR;35.7317;26.5466;75.5295;ISC-webservice;SS;6.0;ISC-webservice;6.1;ISC-webservice;5.7;ISC-webservice;6.0;Mw;GEOFON;;;;;;;;;;;HL;SIVA;00;HN;0.0;;;;GR;35.01746;24.80996;110;;;;;;;;0.236315;268.163516;176.6;192.0735936308008;62.8;;;;;D;0;E;90.0;N;0.0;Z;0.05;0.05;0.05;30.0;30.0;30.0;16.0;6.0;75.5295;90;192.0735936308008;192.0735936308008;176.6;150.0;268.163516;False;31.07;3;-5.326157;3.722244;-2.512567;4.303929;5.665917;3.596985;0.50057;0.282264;0.306881;0.388027;0.519701;0.279637;-0.112742;-0.120909;-0.080181;0.107938;0.121419;0.0922057;58.805;65.51;63.505;62.067;62.145;67.64;56.98;1.76126;1.5907;0.882276;1.653785;1.77311;1.4836;53.497617854;48.3054575412;30.4728223549;51.0118181817;54.2761488959;47.5098255024;0.0789332476252;0.0613886588484;0.024888670507;0.0701609573327;0.0817109571303;0.0586109478449;5.33399;5.36246;5.43537;5.4186;5.80405;6.92852;10.5812;10.8277;15.486;11.0572;13.4958;12.9597;16.3641;17.4295;8.32669;8.08387;6.65599;6.81082;6.23388;4.90819;3.5808;3.53846;2.62756;2.70188;2.37105;1.34436;1.39654;1.11227;0.855642;0.637246;0.397194;0.223184;0.158893;0.091002;0.074556;0.068727;3.72508;3.74655;3.79378;3.95694;4.43062;6.92484;9.42719;8.01831;13.7412;12.7541;8.03563;10.8257;12.237;8.04875;12.2958;9.6047;6.19334;5.1446;5.52552;5.22946;3.6046;2.39662;2.59677;2.39222;1.90534;1.21972;1.07372;0.899365;0.759053;0.59616;0.536097;0.359541;0.20499;0.099511;0.065905;0.064327;2.51506;2.56907;2.80183;2.8159;3.20788;4.95834;6.10623;6.12002;7.4736;5.62685;6.61877;8.84596;6.76906;4.78725;4.17728;2.42726;2.52594;2.65963;1.99457;2.50412;2.79159;2.24691;1.94033;1.25836;0.95626;0.778484;0.590577;0.55649;0.589816;0.612214;0.390305;0.275095;0.153755;0.130262;0.0825;0.058983;4.309975;4.330765;4.400695;4.426915;4.972245;6.678445;9.815105;9.780915;14.04455;10.9637;11.6758;11.3427;13.652;13.2651;11.12245;8.797105;6.24981;5.54376;6.064375;5.09294;3.6522;3.214945;2.534155;2.400335;2.085995;1.26777;1.07333;0.9322595;0.7505155;0.5690175;0.458024;0.2774895;0.1647885;0.102323;0.079413;0.069847;5.66623;5.69047;5.77604;5.73066;6.21032;6.92852;10.6315;10.8277;15.8499;13.012;14.0625;13.0057;17.9785;17.7239;12.7316;10.87;7.11525;6.83073;7.04473;6.02091;3.97215;3.56045;2.6722;2.73915;2.37105;1.34665;1.43486;1.11373;0.873318;0.64164;0.547634;0.391059;0.205768;0.107031;0.086475;0.079879;3.59795;3.61728;3.74323;3.75584;4.23108;6.39059;9.11793;7.04072;11.0772;9.91899;8.03563;9.25047;10.4078;8.04875;7.01436;5.93023;5.23307;4.80977;4.20631;4.2657;3.11401;2.27865;2.15195;1.95156;1.51234;1.14019;0.870928;0.75533;0.557537;0.404717;0.337227;0.192917;0.144173;0.087143;0.065719;0.04958;3.0898015531710925;1.3044248047681055
24;EMSC-20110519_0000034;2011-05-19 14:50:53;16529266;usp000j1ub;2358199;20110519_0000034;;39.1832;14.9984;281.7809;ISC-webservice;TF;4.7;ISC-webservice;4.7;ISC-webservice;;;4.75;Mw;RCMTS14;;;;;;;;;;;IV;ACER;00;HN;1.0;;;;IT;40.7867;15.9427;690;B*;GEO;ESM;;;;;13.717899;910.104476;195.5;342.9587812038204;204.7;;;;;D;0;E;90.0;N;0.0;Z;0.2;0.2;0.2;40.0;40.0;40.0;4.0;4.75;281.7809;90;342.9587812038204;342.9587812038204;195.5;40.74;910.104476;False;31.07;2;0.00979;-0.009057;0.010267;0.0096695;0.011442;0.008751;0.001161;0.001546;0.000634;0.00141364;0.00178505;0.00108996;0.000211;0.000408;0.000142;0.000314771;0.000439355;0.000208002;52.245;53.085;52.045;52.663;52.85;54.105;51.23;0.00581579;0.00617219;0.00330866;0.00611757;0.00677334;0.0058147;0.120808675053;0.117296265019;0.0937856750502;0.119360847566;0.125406379999;0.109778565008;6.24191458288e-07;5.7325763312e-07;3.82517706371e-07;5.98725459227e-07;6.81123151624e-07;5.16326940165e-07;0.009794;0.010226;0.01009;0.010205;0.013801;0.017575;0.018422;0.017979;0.016015;0.025909;0.026502;0.035536;0.029768;0.029365;0.042432;0.049158;0.044939;0.037835;0.024038;0.024238;0.014964;0.009156;0.010743;0.007962;0.006453;0.003479;0.002447;0.002333;0.001148;0.000876;0.000648;0.000418;0.000268;0.000187;0.000146;0.000122;0.009064;0.009495;0.009537;0.009658;0.010804;0.015114;0.022438;0.022784;0.020517;0.019654;0.032386;0.045686;0.033953;0.024257;0.024038;0.024568;0.029582;0.031819;0.03102;0.024766;0.019435;0.0156;0.011303;0.007816;0.006995;0.004148;0.002399;0.001753;0.00138;0.001154;0.000828;0.000587;0.000454;0.000354;0.000272;0.000218;0.010272;0.010905;0.012514;0.014174;0.025524;0.032776;0.029659;0.01723;0.013493;0.009668;0.013922;0.014913;0.019126;0.01837;0.017427;0.014136;0.012368;0.010674;0.008688;0.008058;0.008052;0.008303;0.006542;0.004817;0.004318;0.002627;0.001663;0.001446;0.00111;0.0008;0.000586;0.000301;0.000164;0.000129;0.000101;8e-05;0.0096725;0.0099505;0.009803;0.0106065;0.0131195;0.016201;0.020003;0.0212855;0.017898;0.0217535;0.027295;0.0405555;0.031857;0.027456;0.0321485;0.0378855;0.033829;0.033517;0.032724;0.0241035;0.0161825;0.01275;0.0115145;0.008175;0.006433;0.004139;0.0027735;0.00203;0.0012645;0.0010775;0.00084;0.0004885;0.0003645;0.0002795;0.000214;0.000171;0.011454;0.01161;0.012027;0.012143;0.016038;0.01759;0.022491;0.023676;0.021369;0.026038;0.037422;0.053295;0.04098;0.035389;0.043963;0.052688;0.047092;0.038562;0.038414;0.030403;0.022583;0.017398;0.01303;0.009326;0.008202;0.004277;0.00311;0.002466;0.001631;0.001291;0.000914;0.000631;0.000478;0.000369;0.000284;0.000228;0.008755;0.008935;0.009064;0.00951;0.009827;0.014035;0.015881;0.017613;0.014917;0.019205;0.021776;0.025861;0.018688;0.022289;0.022747;0.022585;0.024688;0.024441;0.019964;0.021749;0.012962;0.009156;0.010005;0.007388;0.005307;0.003105;0.002358;0.001568;0.00103;0.000876;0.000633;0.000418;0.000252;0.000185;0.000147;0.000121;0.0099160485641303;0.003189354689206284
