;event_id;event_time;ISC_ev_id;USGS_ev_id;INGV_ev_id;EMSC_ev_id;ev_nation_code;ev_latitude;ev_longitude;ev_depth_km;ev_hyp_ref;fm_type_code;ML;ML_ref;Mw;Mw_ref;Ms;Ms_ref;EMEC_Mw;EMEC_Mw_type;EMEC_Mw_ref;event_source_id;es_strike;es_dip;es_rake;es_strike_dip_rake_ref;es_z_top;es_z_top_ref;es_length;es_width;es_geometry_ref;network_code;station_code;location_code;instrument_code;sensor_depth_m;proximity_code;housing_code;installation_code;st_nation_code;st_latitude;st_longitude;st_elevation;ec8_code;ec8_code_method;ec8_code_ref;vs30_m_sec;vs30_ref;vs30_calc_method;vs30_meas_type;slope_deg;vs30_m_sec_WA;epi_dist;hypo_dist;epi_az;JB_dist;rup_dist;Rx_dist;Ry0_dist;instrument_type_code;late_triggered_flag_01;U_channel_code;U_azimuth_deg;V_channel_code;V_azimuth_deg;W_channel_code;U_hp;V_hp;W_hp;U_lp;V_lp;W_lp;max_usable_T;mag;hypo_depth;rake;rhypo;rrup;rjb;xvf;vs30;vs30measured;z1pt0;region;U_pga;V_pga;W_pga;rotD50_pga;rotD100_pga;rotD00_pga;U_pgv;V_pgv;W_pgv;rotD50_pgv;rotD100_pgv;rotD00_pgv;U_pgd;V_pgd;W_pgd;rotD50_pgd;rotD100_pgd;rotD00_pgd;U_T90;V_T90;W_T90;GM_T90;rotD50_T90;rotD100_T90;rotD00_T90;U_housner;V_housner;W_housner;rotD50_housner;rotD100_housner;rotD00_housner;U_CAV;V_CAV;W_CAV;rotD50_CAV;rotD100_CAV;rotD00_CAV;U_ia;V_ia;W_ia;rotD50_ia;rotD100_ia;rotD00_ia;U_T0_010;U_T0_025;U_T0_040;U_T0_050;U_T0_070;U_T0_100;U_T0_150;U_T0_200;U_T0_250;U_T0_300;U_T0_350;U_T0_400;U_T0_450;U_T0_500;U_T0_600;U_T0_700;U_T0_750;U_T0_800;U_T0_900;U_T1_000;U_T1_200;U_T1_400;U_T1_600;U_T1_800;U_T2_000;U_T2_500;U_T3_000;U_T3_500;U_T4_000;U_T4_500;U_T5_000;U_T6_000;U_T7_000;U_T8_000;U_T9_000;U_T10_000;V_T0_010;V_T0_025;V_T0_040;V_T0_050;V_T0_070;V_T0_100;V_T0_150;V_T0_200;V_T0_250;V_T0_300;V_T0_350;V_T0_400;V_T0_450;V_T0_500;V_T0_600;V_T0_700;V_T0_750;V_T0_800;V_T0_900;V_T1_000;V_T1_200;V_T1_400;V_T1_600;V_T1_800;V_T2_000;V_T2_500;V_T3_000;V_T3_500;V_T4_000;V_T4_500;V_T5_000;V_T6_000;V_T7_000;V_T8_000;V_T9_000;V_T10_000;W_T0_010;W_T0_025;W_T0_040;W_T0_050;W_T0_070;W_T0_100;W_T0_150;W_T0_200;W_T0_250;W_T0_300;W_T0_350;W_T0_400;W_T0_450;W_T0_500;W_T0_600;W_T0_700;W_T0_750;W_T0_800;W_T0_900;W_T1_000;W_T1_200;W_T1_400;W_T1_600;W_T1_800;W_T2_000;W_T2_500;W_T3_000;W_T3_500;W_T4_000;W_T4_500;W_T5_000;W_T6_000;W_T7_000;W_T8_000;W_T9_000;W_T10_000;rotD50_T0_010;rotD50_T0_025;rotD50_T0_040;rotD50_T0_050;rotD50_T0_070;rotD50_T0_100;rotD50_T0_150;rotD50_T0_200;rotD50_T0_250;rotD50_T0_300;rotD50_T0_350;rotD50_T0_400;rotD50_T0_450;rotD50_T0_500;rotD50_T0_600;rotD50_T0_700;rotD50_T0_750;rotD50_T0_800;rotD50_T0_900;rotD50_T1_000;rotD50_T1_200;rotD50_T1_400;rotD50_T1_600;rotD50_T1_800;rotD50_T2_000;rotD50_T2_500;rotD50_T3_000;rotD50_T3_500;rotD50_T4_000;rotD50_T4_500;rotD50_T5_000;rotD50_T6_000;rotD50_T7_000;rotD50_T8_000;rotD50_T9_000;rotD50_T10_000;rotD100_T0_010;rotD100_T0_025;rotD100_T0_040;rotD100_T0_050;rotD100_T0_070;rotD100_T0_100;rotD100_T0_150;rotD100_T0_200;rotD100_T0_250;rotD100_T0_300;rotD100_T0_350;rotD100_T0_400;rotD100_T0_450;rotD100_T0_500;rotD100_T0_600;rotD100_T0_700;rotD100_T0_750;rotD100_T0_800;rotD100_T0_900;rotD100_T1_000;rotD100_T1_200;rotD100_T1_400;rotD100_T1_600;rotD100_T1_800;rotD100_T2_000;rotD100_T2_500;rotD100_T3_000;rotD100_T3_500;rotD100_T4_000;rotD100_T4_500;rotD100_T5_000;rotD100_T6_000;rotD100_T7_000;rotD100_T8_000;rotD100_T9_000;rotD100_T10_000;rotD00_T0_010;rotD00_T0_025;rotD00_T0_040;rotD00_T0_050;rotD00_T0_070;rotD00_T0_100;rotD00_T0_150;rotD00_T0_200;rotD00_T0_250;rotD00_T0_300;rotD00_T0_350;rotD00_T0_400;rotD00_T0_450;rotD00_T0_500;rotD00_T0_600;rotD00_T0_700;rotD00_T0_750;rotD00_T0_800;rotD00_T0_900;rotD00_T1_000;rotD00_T1_200;rotD00_T1_400;rotD00_T1_600;rotD00_T1_800;rotD00_T2_000;rotD00_T2_500;rotD00_T3_000;rotD00_T3_500;rotD00_T4_000;rotD00_T4_500;rotD00_T5_000;rotD00_T6_000;rotD00_T7_000;rotD00_T8_000;rotD00_T9_000;rotD00_T10_000;rotD50_AvgSA[0,3];rotD50_AvgSA[0,6]
30;EMSC-20110702_0000061;2011-07-02 21:30:44;16713661;usp000j42p;;20110702_0000061;GR;36.5411;26.6153;140.5816;ISC-webservice;TF;4.6;ISC-webservice;4.66;ISC-webservice;3.2;ISC-webservice;4.5;Mw;GEOFON;;;;;;;;;;;GE;KARP;00;HN;0.0;;;;GR;35.5472;27.1612;528;;;;;;;;14.280055;925.130666;120.8;185.35324722960752;336.1;;;;;D;0;E;90.0;N;0.0;Z;0.35;0.35;0.35;30.0;30.0;30.0;2.285714285714286;4.5;140.5816;90;185.35324722960752;185.35324722960752;120.8;116.59;925.130666;False;31.07;3;1.628939;3.578694;-2.164538;2.5630505;3.591324;1.345277;-0.025219;0.128254;-0.064273;0.09093855;0.128511;0.0241108;0.001803;-0.006865;0.003609;0.004922865;0.00696408;0.00147792;25.5;25.335;25.37;25.417;25.6775;26.335;25.3;0.0741582;0.184396;0.127448;0.139577;0.185711;0.069253;8.07970265932;10.6261973426;13.0914425254;9.54712998652;10.8833883815;7.54841495554;0.00341011179822;0.00671250217506;0.00973225435859;0.00506130679694;0.00671250217506;0.00341011179822;1.63613;1.88245;3.61058;4.41974;4.43742;5.26464;3.37279;2.07113;1.83211;1.58594;1.07503;0.75501;0.90246;0.907004;0.669481;0.391;0.399819;0.455863;0.272471;0.232124;0.156035;0.074325;0.050113;0.045983;0.032063;0.016857;0.015852;0.008717;0.007696;0.00601;0.004864;0.003631;0.002884;0.002393;0.002043;0.001807;3.58986;3.64378;4.91254;6.50854;10.9642;4.39728;5.46739;9.68748;10.8293;7.19249;3.60925;2.88515;2.50828;1.89381;1.4161;1.19925;0.87685;0.845324;0.476799;0.253527;0.212704;0.148751;0.114675;0.098607;0.074381;0.059022;0.050584;0.031121;0.026396;0.02454;0.018146;0.014504;0.011908;0.010054;0.008701;0.007586;2.20101;2.53545;6.15401;7.88919;11.8595;5.97595;4.31195;8.11198;5.30227;2.86114;2.61714;1.65509;1.17994;1.64853;0.883165;0.733095;0.556526;0.352275;0.402396;0.2713;0.19299;0.169407;0.105095;0.074257;0.063015;0.033602;0.030887;0.018995;0.015098;0.014484;0.011177;0.008061;0.006731;0.005823;0.005093;0.004551;2.56675;2.652475;4.047655;4.97379;8.3368;4.50865;3.88151;6.878065;7.692485;5.270155;2.60531;2.168075;1.8069;1.39083;1.0104565;0.863908;0.7654285;0.613257;0.359736;0.24571;0.2027565;0.1315025;0.102591;0.070084;0.055736;0.0421735;0.0365935;0.022186;0.0189315;0.0175835;0.013082;0.0104705;0.00864;0.0073515;0.006413;0.005667;3.60035;3.64941;4.96761;6.52787;10.9843;5.90705;5.48928;9.69494;10.876;7.24045;3.61805;2.95838;2.5537;1.91307;1.42022;1.22175;0.911267;0.849138;0.506168;0.305654;0.229249;0.150574;0.121432;0.099114;0.074381;0.059582;0.051751;0.031356;0.026773;0.024867;0.018252;0.014598;0.011982;0.010113;0.008752;0.007632;1.37569;1.66068;3.49779;4.12082;4.34926;3.21615;2.29816;1.99586;1.74591;1.11891;0.922992;0.646573;0.764787;0.767709;0.66149;0.361635;0.338395;0.321933;0.206792;0.146166;0.113451;0.062282;0.046549;0.033835;0.023882;0.0133;0.013108;0.007994;0.006897;0.005346;0.003943;0.003182;0.002451;0.002109;0.001806;0.001626;0.20008194617854758;0.061715306041158186
31;EMSC-20110702_0000061;2011-07-02 21:30:44;16713661;usp000j42p;;20110702_0000061;GR;36.5411;26.6153;140.5816;ISC-webservice;TF;4.6;ISC-webservice;4.66;ISC-webservice;3.2;ISC-webservice;4.5;Mw;GEOFON;;;;;;;;;;;HL;IACM;00;HN;0.0;;;;GR;35.3058;25.0709;45;;;;;;;;10.145915;816.166285;195.5;240.79750052390494;45.0;;;;;D;0;E;90.0;N;0.0;Z;0.1;0.1;0.1;30.0;30.0;30.0;8.0;4.5;140.5816;90;240.79750052390494;240.79750052390494;195.5;123.8;816.166285;False;31.07;3;1.397909;-1.460508;-1.529976;1.4428615;1.505913;1.253379;-0.081562;0.059843;-0.042721;0.0633012;0.0859516;0.0564898;-0.006575;0.005538;-0.002807;0.006156555;0.00673436;0.00454115;48.145;49.57;53.585;48.852;48.565;49.88;47.845;0.216955;0.192817;0.11107;0.200071;0.230596;0.186767;13.2801916261;13.3900077379;13.1109365759;13.335099682;13.9263552778;12.6337221031;0.00580748420663;0.0054973894981;0.00471701254952;0.00565243657544;0.00614651459706;0.00515835976827;1.40102;1.45369;1.60246;1.82944;3.04179;5.71962;3.19375;2.18389;2.84896;4.27311;3.13355;3.59041;3.31204;2.45137;1.85483;1.93278;1.61488;1.03524;0.89997;0.580163;0.50379;0.322141;0.181258;0.139832;0.102529;0.057207;0.0358;0.027479;0.022406;0.019413;0.015869;0.012706;0.010416;0.008765;0.007529;0.006498;1.46251;1.5309;1.65972;1.92845;3.69865;6.15052;2.74952;2.50345;3.69082;4.07028;3.38786;4.01962;2.67305;2.59918;2.26102;1.30896;0.860646;0.763218;0.674224;0.53125;0.392045;0.261036;0.133363;0.122219;0.085755;0.039957;0.030663;0.025269;0.017729;0.015028;0.012553;0.010429;0.007794;0.006448;0.005167;0.004462;1.53819;1.62062;1.61469;2.35275;3.73852;5.12122;3.4785;1.9945;1.69288;2.02539;2.09172;1.54003;1.71536;1.62563;1.58207;1.04583;0.874733;0.5736;0.396386;0.257254;0.135482;0.082665;0.068195;0.051529;0.040625;0.026528;0.017422;0.01251;0.009775;0.008586;0.007548;0.005749;0.005054;0.004096;0.003699;0.003104;1.448615;1.488035;1.59115;1.87246;3.329205;5.69966;3.050625;2.440585;3.347015;4.004555;3.369035;3.77557;2.92812;2.51726;1.86846;1.638555;1.38978;0.9770545;0.882183;0.5545285;0.3919765;0.284931;0.172856;0.1217665;0.088653;0.047872;0.032045;0.0261815;0.020135;0.017213;0.014002;0.0110345;0.008437;0.0069465;0.005628;0.0048835;1.50592;1.54118;1.65972;2.04776;3.70612;6.19394;3.7929;2.84819;3.76732;4.62308;3.86259;4.19199;3.83494;3.3806;2.34193;2.1998;1.63117;1.07933;0.92083;0.598027;0.505487;0.344719;0.185831;0.14744;0.108016;0.05968;0.037125;0.028179;0.022619;0.019627;0.016078;0.012882;0.010752;0.009012;0.007822;0.006826;1.25522;1.29597;1.42538;1.74393;2.79672;4.73649;2.55167;1.83118;1.96427;2.54938;2.54489;3.17333;2.19374;1.96022;1.64842;1.05564;0.740215;0.742478;0.674224;0.46964;0.344383;0.215297;0.131891;0.112573;0.074134;0.039957;0.026571;0.020897;0.015887;0.013773;0.011053;0.00907;0.007017;0.005818;0.004782;0.004326;0.26455918845272214;0.07201923349326765
32;EMSC-20110702_0000061;2011-07-02 21:30:44;16713661;usp000j42p;;20110702_0000061;GR;36.5411;26.6153;140.5816;ISC-webservice;TF;4.6;ISC-webservice;4.66;ISC-webservice;3.2;ISC-webservice;4.5;Mw;GEOFON;;;;;;;;;;;KO;FETI;00;HN;0.0;;;;TR;36.6903;29.0968;11;;;;;;;;8.010642;761.052906;222.6;263.2754190169679;266.5;;;;;D;0;E;90.0;N;0.0;Z;0.3;0.3;0.3;20.0;20.0;20.0;2.666666666666667;4.5;140.5816;90;263.2754190169679;263.2754190169679;222.6;61.06;761.052906;False;31.07;4;-3.067972;1.303574;-1.182038;2.202577;3.114915;1.291297;-0.1045;0.085938;0.051855;0.0934164;0.125205;0.0566241;0.01648;-0.009643;0.007768;0.0135134;0.0187719;0.00513008;33.345;37.055;102.67;35.151;34.5725;39.825;33.15;0.351638;0.25952;0.192734;0.3088765;0.402324;0.171024;14.2841697315;10.6588209373;10.013186552;12.5832475107;14.3919486427;10.4414731712;0.00842684454498;0.00432537653558;0.00245742537622;0.00637611027588;0.00881225143077;0.00393996947777;3.07496;3.4875;4.58288;6.77947;6.974;5.65819;4.84383;2.32759;2.40375;2.57395;1.96648;2.33454;2.66963;3.67862;2.24463;2.1251;1.53922;1.48491;1.39133;1.27885;1.03013;0.791544;0.512793;0.406246;0.314579;0.173007;0.095353;0.074051;0.05485;0.04382;0.034292;0.024112;0.017619;0.013646;0.011034;0.00927;1.32012;1.41789;2.11394;3.74001;4.41656;4.37732;3.73075;1.54913;2.23216;2.39615;2.5905;2.7987;1.66761;1.68651;1.43991;1.42843;1.44748;1.39808;1.33243;1.14609;0.783266;0.589121;0.402815;0.249295;0.166185;0.100981;0.057381;0.039238;0.027377;0.024088;0.018666;0.013455;0.010967;0.008471;0.007783;0.006511;1.18314;1.23496;1.3799;2.50743;2.35422;2.53943;2.6435;1.99006;1.94555;2.03132;3.18085;2.42663;1.71805;1.4927;1.28796;0.89391;1.00461;1.20831;0.629217;0.412878;0.510618;0.359118;0.286296;0.221674;0.194162;0.112694;0.06136;0.036095;0.028753;0.022517;0.016415;0.011425;0.009502;0.007426;0.006378;0.005281;2.20712;2.501385;3.995525;6.206785;5.73256;5.407745;3.82667;2.050045;2.31694;2.32216;2.2141;2.544175;2.107745;2.73563;1.92622;1.797445;1.51413;1.441495;1.36188;1.22318;0.914179;0.6764625;0.4571635;0.336604;0.256444;0.132142;0.0795475;0.0597965;0.0436755;0.035885;0.027985;0.0196135;0.01485;0.0114655;0.009521;0.007982;3.12134;3.53749;4.70018;6.96799;7.79933;6.52093;5.0414;2.33231;2.52566;2.59216;2.60722;3.0739;2.81965;3.68733;2.29007;2.42036;2.03127;1.96911;1.87978;1.66107;1.26133;0.943816;0.635238;0.475154;0.354749;0.1867;0.10325;0.078987;0.057703;0.046605;0.036441;0.02528;0.018897;0.014529;0.011548;0.0098;1.3083;1.41714;2.07264;3.40964;4.27486;3.12321;3.2853;1.51272;2.00832;2.00352;1.84908;2.02733;1.66761;1.51805;1.12308;1.03907;0.998175;0.691172;0.538727;0.396516;0.304921;0.26195;0.162837;0.146856;0.123566;0.073508;0.041022;0.025767;0.017153;0.014881;0.011366;0.008567;0.006509;0.005202;0.004375;0.004086;0.5142553859018135;0.14466071252233678
33;EMSC-20110702_0000061;2011-07-02 21:30:44;16713661;usp000j42p;;20110702_0000061;GR;36.5411;26.6153;140.5816;ISC-webservice;TF;4.6;ISC-webservice;4.66;ISC-webservice;3.2;ISC-webservice;4.5;Mw;GEOFON;;;;;;;;;;;KO;YKAV;00;HN;0.0;;;;TR;37.1246;27.2801;115;;;;;;;;6.675334;679.62802;87.8;165.74687405366052;222.7;;;;;D;0;E;90.0;N;0.0;Z;0.25;0.25;0.25;20.0;20.0;20.0;3.2;4.5;140.5816;90;165.74687405366052;165.74687405366052;87.8;-39.4;679.62802;False;31.07;3;0.288684;-0.261614;0.235343;0.258538;0.297201;0.227223;0.040089;-0.056934;-0.019767;0.0472433;0.0578574;0.0272764;-0.00629;-0.012172;0.003583;0.00985933;0.0133887;0.00453469;70.86;79.135;85.365;74.883;74.265;81.04;69.33;0.144307;0.177016;0.101302;0.1614085;0.18983;0.124692;3.05626500511;2.71036057946;2.55663370549;2.91392833323;3.09788155531;2.69259780957;0.000232571061986;0.00016534838906;0.000135533067188;0.000198959740443;0.000239971841169;0.000157947573175;0.288792;0.290158;0.306804;0.306613;0.326194;0.388321;0.318605;0.366769;0.528583;0.433478;0.537588;0.674044;0.74637;0.694678;0.764446;1.01266;0.717442;0.770879;0.8548;0.599907;0.507277;0.277403;0.230916;0.178349;0.13958;0.078702;0.042668;0.028156;0.018065;0.022783;0.016162;0.010056;0.007604;0.005933;0.003889;0.003301;0.262093;0.264225;0.299011;0.275731;0.291785;0.340272;0.261494;0.301685;0.348293;0.423034;0.471665;0.592903;0.662666;0.668222;0.699379;0.670121;0.632371;0.573232;0.64139;0.494338;0.492391;0.453928;0.384423;0.308414;0.259409;0.168015;0.10131;0.06227;0.04691;0.033466;0.025845;0.018825;0.012324;0.009127;0.007501;0.006069;0.235754;0.240254;0.24614;0.237192;0.326211;0.351376;0.326679;0.315599;0.388701;0.454877;0.500471;0.504825;0.528394;0.495945;0.562194;0.468529;0.466751;0.462802;0.566989;0.578843;0.323398;0.228075;0.15024;0.150899;0.106933;0.046178;0.029498;0.024542;0.012263;0.013131;0.008076;0.004764;0.003913;0.002938;0.002658;0.002051;0.258792;0.2606825;0.287014;0.2848715;0.3002055;0.3438895;0.3014045;0.3049705;0.3930655;0.42164;0.4740075;0.625184;0.653363;0.6397995;0.7006255;0.8111535;0.63592;0.638542;0.7436055;0.552067;0.499834;0.376125;0.3008185;0.235624;0.2085955;0.1341345;0.079585;0.0469965;0.035735;0.0286795;0.021888;0.014275;0.0092735;0.006893;0.0060045;0.0049025;0.297676;0.298911;0.311315;0.310983;0.348635;0.398822;0.355847;0.38671;0.533985;0.447635;0.54528;0.705179;0.751511;0.718546;0.83237;1.02269;0.742887;0.783081;0.863271;0.716196;0.600999;0.531314;0.420271;0.321481;0.264149;0.173009;0.101496;0.065135;0.048813;0.03875;0.028664;0.018869;0.012397;0.00927;0.007941;0.006435;0.227327;0.228398;0.237141;0.242021;0.267821;0.278888;0.255274;0.273963;0.329288;0.348563;0.414801;0.506907;0.559323;0.54171;0.599308;0.525802;0.508146;0.52973;0.610804;0.386143;0.32334;0.197015;0.156613;0.102487;0.123223;0.065919;0.033825;0.021254;0.015342;0.014054;0.01321;0.00918;0.007448;0.00539;0.003172;0.002439;0.26442636705837813;0.08800336512264213
34;EMSC-20111005_0000060;2011-10-05 14:41:30;17330085;usp000j8yk;2437489;20111005_0000060;GR;36.0948;23.3723;71.4269;ISC-webservice;U;4.3;ISC-webservice;;;2.6;ISC-webservice;4.59;MWML92;DGA16;;;;;;;;;;;HL;ANKY;00;HN;0.0;;;;GR;35.86704;23.30117;143;;;;;;;;6.937541;695.873582;26.1;76.04611787336682;14.2;;;;;D;0;E;90.0;N;0.0;Z;0.15;0.15;0.15;30.0;30.0;30.0;5.333333333333334;4.59;71.4269;90;76.04611787336682;76.04611787336682;26.1;125.68;695.873582;False;31.07;3;0.94256;-0.589369;1.252588;0.8451505;0.94256;0.589369;0.04224;-0.036793;-0.028001;0.04328505;0.0486929;0.0347411;-0.003842;-0.005999;-0.002181;0.00534648;0.00606839;0.00263937;13.255;14.995;12.135;14.098;14.0075;15.08;12.8;0.0933915;0.124687;0.0704894;0.112671;0.135027;0.0876752;2.76303205956;2.2573943896;2.71878975925;2.52913873684;2.88690544582;2.09791590449;0.000978896554761;0.000543965769101;0.00103057802839;0.000761431128253;0.00101459165617;0.000508270599042;0.943282;1.00004;2.2505;3.18683;4.41343;1.52677;2.12839;3.53146;2.26335;1.94818;2.444;2.32245;1.86185;1.30908;0.52941;0.307131;0.255329;0.255921;0.272177;0.201854;0.153161;0.105164;0.089083;0.070474;0.055645;0.03271;0.020834;0.014782;0.012829;0.01123;0.009317;0.007575;0.006034;0.004925;0.004201;0.003596;0.591064;0.639803;1.39474;2.48376;1.68962;1.64695;1.323;1.71725;1.56747;1.10611;1.57663;1.51807;1.41588;1.47964;0.820555;0.818897;0.756027;0.691831;0.605599;0.508083;0.315284;0.213904;0.139883;0.097872;0.069658;0.04446;0.031734;0.022963;0.017838;0.015191;0.012131;0.00899;0.006692;0.0053;0.004378;0.003563;1.2559;1.44166;2.89617;4.27726;6.2927;2.37115;1.29872;2.35894;1.7484;1.24492;1.10613;0.728498;0.80074;0.565734;0.489564;0.545474;0.508567;0.453583;0.351018;0.24575;0.117473;0.085736;0.071471;0.045695;0.031407;0.019479;0.014857;0.010377;0.007411;0.006574;0.005615;0.003913;0.003334;0.00284;0.002428;0.002167;0.845831;0.9283965;1.75503;2.732345;3.320065;1.55195;1.69826;2.609475;2.00639;1.6469;2.07621;1.849215;1.69678;1.280595;0.83048;0.647422;0.5650675;0.5222865;0.4501825;0.3834325;0.243886;0.169618;0.119454;0.086558;0.069245;0.04172;0.0272765;0.0199295;0.016142;0.0139075;0.011172;0.008402;0.006261;0.0049805;0.0041425;0.0034;0.943282;1.04444;2.27939;3.45413;4.66243;1.70272;2.14844;3.53146;2.35554;2.13626;2.45834;2.33359;1.86185;1.48331;0.891693;0.864037;0.794756;0.736478;0.633485;0.541027;0.326547;0.227198;0.16394;0.118156;0.087069;0.045767;0.031798;0.022999;0.017838;0.01519;0.012134;0.008989;0.006735;0.005353;0.004484;0.003738;0.591064;0.639013;1.3761;2.37005;1.4477;1.26896;1.2547;1.61355;1.32023;1.06532;1.49179;1.20595;1.02337;1.06658;0.52941;0.307131;0.248877;0.235428;0.218724;0.160792;0.133734;0.090795;0.073704;0.050451;0.037674;0.021227;0.014608;0.010492;0.008241;0.007027;0.005821;0.004757;0.003833;0.003299;0.002927;0.002526;0.17673088347181984;0.050694386002904185
