;event_id;event_time;ISC_ev_id;USGS_ev_id;INGV_ev_id;EMSC_ev_id;ev_nation_code;ev_latitude;ev_longitude;ev_depth_km;ev_hyp_ref;fm_type_code;ML;ML_ref;Mw;Mw_ref;Ms;Ms_ref;EMEC_Mw;EMEC_Mw_type;EMEC_Mw_ref;event_source_id;es_strike;es_dip;es_rake;es_strike_dip_rake_ref;es_z_top;es_z_top_ref;es_length;es_width;es_geometry_ref;network_code;station_code;location_code;instrument_code;sensor_depth_m;proximity_code;housing_code;installation_code;st_nation_code;st_latitude;st_longitude;st_elevation;ec8_code;ec8_code_method;ec8_code_ref;vs30_m_sec;vs30_ref;vs30_calc_method;vs30_meas_type;slope_deg;vs30_m_sec_WA;epi_dist;hypo_dist;epi_az;JB_dist;rup_dist;Rx_dist;Ry0_dist;instrument_type_code;late_triggered_flag_01;U_channel_code;U_azimuth_deg;V_channel_code;V_azimuth_deg;W_channel_code;U_hp;V_hp;W_hp;U_lp;V_lp;W_lp;max_usable_T;mag;hypo_depth;rake;rhypo;rrup;rjb;xvf;vs30;vs30measured;z1pt0;region;U_pga;V_pga;W_pga;rotD50_pga;rotD100_pga;rotD00_pga;U_pgv;V_pgv;W_pgv;rotD50_pgv;rotD100_pgv;rotD00_pgv;U_pgd;V_pgd;W_pgd;rotD50_pgd;rotD100_pgd;rotD00_pgd;U_T90;V_T90;W_T90;GM_T90;rotD50_T90;rotD100_T90;rotD00_T90;U_housner;V_housner;W_housner;rotD50_housner;rotD100_housner;rotD00_housner;U_CAV;V_CAV;W_CAV;rotD50_CAV;rotD100_CAV;rotD00_CAV;U_ia;V_ia;W_ia;rotD50_ia;rotD100_ia;rotD00_ia;U_T0_010;U_T0_025;U_T0_040;U_T0_050;U_T0_070;U_T0_100;U_T0_150;U_T0_200;U_T0_250;U_T0_300;U_T0_350;U_T0_400;U_T0_450;U_T0_500;U_T0_600;U_T0_700;U_T0_750;U_T0_800;U_T0_900;U_T1_000;U_T1_200;U_T1_400;U_T1_600;U_T1_800;U_T2_000;U_T2_500;U_T3_000;U_T3_500;U_T4_000;U_T4_500;U_T5_000;U_T6_000;U_T7_000;U_T8_000;U_T9_000;U_T10_000;V_T0_010;V_T0_025;V_T0_040;V_T0_050;V_T0_070;V_T0_100;V_T0_150;V_T0_200;V_T0_250;V_T0_300;V_T0_350;V_T0_400;V_T0_450;V_T0_500;V_T0_600;V_T0_700;V_T0_750;V_T0_800;V_T0_900;V_T1_000;V_T1_200;V_T1_400;V_T1_600;V_T1_800;V_T2_000;V_T2_500;V_T3_000;V_T3_500;V_T4_000;V_T4_500;V_T5_000;V_T6_000;V_T7_000;V_T8_000;V_T9_000;V_T10_000;W_T0_010;W_T0_025;W_T0_040;W_T0_050;W_T0_070;W_T0_100;W_T0_150;W_T0_200;W_T0_250;W_T0_300;W_T0_350;W_T0_400;W_T0_450;W_T0_500;W_T0_600;W_T0_700;W_T0_750;W_T0_800;W_T0_900;W_T1_000;W_T1_200;W_T1_400;W_T1_600;W_T1_800;W_T2_000;W_T2_500;W_T3_000;W_T3_500;W_T4_000;W_T4_500;W_T5_000;W_T6_000;W_T7_000;W_T8_000;W_T9_000;W_T10_000;rotD50_T0_010;rotD50_T0_025;rotD50_T0_040;rotD50_T0_050;rotD50_T0_070;rotD50_T0_100;rotD50_T0_150;rotD50_T0_200;rotD50_T0_250;rotD50_T0_300;rotD50_T0_350;rotD50_T0_400;rotD50_T0_450;rotD50_T0_500;rotD50_T0_600;rotD50_T0_700;rotD50_T0_750;rotD50_T0_800;rotD50_T0_900;rotD50_T1_000;rotD50_T1_200;rotD50_T1_400;rotD50_T1_600;rotD50_T1_800;rotD50_T2_000;rotD50_T2_500;rotD50_T3_000;rotD50_T3_500;rotD50_T4_000;rotD50_T4_500;rotD50_T5_000;rotD50_T6_000;rotD50_T7_000;rotD50_T8_000;rotD50_T9_000;rotD50_T10_000;rotD100_T0_010;rotD100_T0_025;rotD100_T0_040;rotD100_T0_050;rotD100_T0_070;rotD100_T0_100;rotD100_T0_150;rotD100_T0_200;rotD100_T0_250;rotD100_T0_300;rotD100_T0_350;rotD100_T0_400;rotD100_T0_450;rotD100_T0_500;rotD100_T0_600;rotD100_T0_700;rotD100_T0_750;rotD100_T0_800;rotD100_T0_900;rotD100_T1_000;rotD100_T1_200;rotD100_T1_400;rotD100_T1_600;rotD100_T1_800;rotD100_T2_000;rotD100_T2_500;rotD100_T3_000;rotD100_T3_500;rotD100_T4_000;rotD100_T4_500;rotD100_T5_000;rotD100_T6_000;rotD100_T7_000;rotD100_T8_000;rotD100_T9_000;rotD100_T10_000;rotD00_T0_010;rotD00_T0_025;rotD00_T0_040;rotD00_T0_050;rotD00_T0_070;rotD00_T0_100;rotD00_T0_150;rotD00_T0_200;rotD00_T0_250;rotD00_T0_300;rotD00_T0_350;rotD00_T0_400;rotD00_T0_450;rotD00_T0_500;rotD00_T0_600;rotD00_T0_700;rotD00_T0_750;rotD00_T0_800;rotD00_T0_900;rotD00_T1_000;rotD00_T1_200;rotD00_T1_400;rotD00_T1_600;rotD00_T1_800;rotD00_T2_000;rotD00_T2_500;rotD00_T3_000;rotD00_T3_500;rotD00_T4_000;rotD00_T4_500;rotD00_T5_000;rotD00_T6_000;rotD00_T7_000;rotD00_T8_000;rotD00_T9_000;rotD00_T10_000;rotD50_AvgSA[0,3];rotD50_AvgSA[0,6]
10;EMSC-20100716_0000025;2010-07-16 08:11:02;14992685;usp000hfbp;;20100716_0000025;GR;36.8323;26.9143;167.1351;ISC-webservice;SS;5.1;ISC-webservice;5.15;ISC-webservice;5.0;ISC-webservice;5.18;HaKaM0;HCMTS;;;;;;;;;;;HL;IACM;00;HN;0.0;;;;GR;35.3058;25.0709;45;;;;;;;;10.145915;816.166285;237.2;290.16888470683756;43.9;;;;;D;0;E;90.0;N;0.0;Z;0.1;0.1;0.1;30.0;30.0;30.0;8.0;5.18;167.1351;90;290.16888470683756;290.16888470683756;237.2;123.8;816.166285;False;31.07;3;-4.748811;4.608807;-3.387551;4.7555665;5.216858;3.87993;-0.256053;0.272549;-0.133242;0.258903;0.316134;0.185707;0.020693;-0.019668;0.010389;0.0197118;0.0211833;0.0180093;45.445;36.05;47.41;40.476;41.0075;47.475;33.605;0.727518;0.707998;0.371337;0.705893;0.741494;0.673026;34.1206647735;34.1575723598;26.2467891623;34.1391185666;35.9282218838;31.4868344936;0.0466951302057;0.0515980423682;0.0246777505477;0.0491465883068;0.0596660180501;0.0386271568292;4.75396;4.79799;5.17948;5.20363;6.19049;7.98652;8.71404;9.02137;15.0697;13.4216;10.7197;11.2686;9.90218;10.4878;9.35654;6.03867;4.16682;3.93141;2.64617;1.92314;1.44235;0.872963;0.599131;0.392431;0.301621;0.168318;0.111894;0.08329;0.063926;0.052047;0.042382;0.032299;0.025949;0.021666;0.018881;0.016812;4.6275;4.70193;4.92816;5.0227;6.12169;9.57082;7.05274;9.72503;12.8428;16.2459;18.3231;12.8926;10.0089;8.32099;10.0322;4.01371;3.18829;3.00322;2.3769;2.4038;1.04885;0.818309;0.569883;0.380946;0.260278;0.145956;0.096678;0.078386;0.063757;0.051797;0.042187;0.033834;0.027698;0.023897;0.020663;0.018335;3.40558;3.55095;3.76763;3.67054;7.51423;9.84394;9.11556;6.55177;6.82977;5.78649;9.846;7.38762;6.52442;4.60262;3.69505;3.73204;3.20672;2.5725;1.55581;0.898987;0.463069;0.300685;0.220768;0.16023;0.118881;0.069233;0.054715;0.041208;0.031745;0.027247;0.021986;0.017373;0.014498;0.012205;0.01042;0.009555;4.762135;4.808515;5.13131;5.256975;7.246395;7.992165;8.381895;9.308775;13.76235;14.98415;14.83165;11.22235;9.95554;9.236535;9.119595;4.28052;3.432715;3.266255;2.57201;2.17858;1.26488;0.8575565;0.615817;0.3903905;0.279498;0.158339;0.110975;0.079756;0.063896;0.053075;0.043725;0.0333285;0.027002;0.0229905;0.019921;0.0176925;5.23136;5.2831;5.40388;6.0932;8.37565;10.0749;8.87657;12.429;16.9477;18.7458;18.6919;13.6298;13.2584;12.548;10.0925;6.03867;4.19213;3.95638;2.84916;2.68681;1.44235;0.951826;0.65603;0.44105;0.302667;0.200026;0.130059;0.098894;0.076302;0.065224;0.053939;0.04226;0.034609;0.029004;0.025314;0.022359;3.8931;3.95553;3.99907;4.65468;6.12169;6.35969;7.05274;8.34793;9.4313;8.49634;9.68773;9.55543;6.6041;6.83271;7.27645;3.64888;2.92678;2.66619;1.87138;1.48819;1.01039;0.679912;0.461975;0.282207;0.226778;0.139177;0.095427;0.06993;0.057032;0.048777;0.040498;0.029826;0.023582;0.019078;0.016131;0.014047;0.9022136840594408;0.22750908020532137
11;EMSC-20101204_0000007;2010-12-04 03:49:09;15687616;usp000hqg2;;20101204_0000007;GR;36.4577;26.3931;128.1725;ISC-webservice;U;4.8;ISC-webservice;;;2.8;ISC-webservice;5.1;Mw;Pap10;;;;;;;;;;;GE;KARP;00;HN;0.0;;;;GR;35.5472;27.1612;528;;;;;;;;14.280055;925.130666;122.5;177.2976022292744;325.8;;;;;D;0;E;90.0;N;0.0;Z;0.1;0.1;0.1;30.0;30.0;30.0;8.0;5.1;128.1725;90;177.2976022292744;177.2976022292744;122.5;116.59;925.130666;False;31.07;3;-1.807303;-2.026031;-2.439015;1.7682915;2.038105;1.546138;-0.034775;0.06282;-0.034163;0.0446688;0.0631715;0.0311709;0.001028;0.001869;0.001463;0.001697165;0.00199888;0.000977454;24.53;25.3;24.755;24.912;25.2675;25.555;24.4;0.0417902;0.0802716;0.0567715;0.0642115;0.0802715;0.0413092;4.81771780829;6.14472349275;7.91229252151;5.63674715634;6.16549834243;4.81771780829;0.00197398693972;0.0032076695325;0.00515325211033;0.00259082810615;0.0032076695325;0.00197398693972;1.83818;2.20361;5.32452;8.48581;3.20052;3.92189;2.90885;2.13304;1.73071;1.18329;0.97195;0.644525;0.351538;0.286022;0.385396;0.169493;0.118421;0.099838;0.101464;0.070144;0.051533;0.046952;0.036056;0.028998;0.023529;0.015084;0.010376;0.007675;0.006155;0.005341;0.00437;0.003473;0.002996;0.002621;0.002314;0.002084;2.02607;2.11191;4.90818;4.01389;4.26919;7.05872;5.94455;4.25077;2.04251;1.85062;2.48391;2.36418;1.31411;0.792866;0.384375;0.264323;0.268732;0.224692;0.166081;0.123456;0.083539;0.067223;0.055404;0.052098;0.050927;0.025638;0.01641;0.013566;0.009869;0.007626;0.007171;0.005997;0.00549;0.004928;0.00436;0.003967;2.4812;2.79014;5.66348;8.13992;6.84516;8.67387;3.7679;3.74408;2.5129;1.84104;1.34048;0.670623;0.475797;0.446158;0.32221;0.244116;0.194971;0.209453;0.162503;0.124044;0.065217;0.046134;0.033778;0.027504;0.022217;0.01473;0.010853;0.008097;0.00724;0.006263;0.005214;0.00407;0.003346;0.002888;0.002575;0.002274;1.796525;2.01538;4.99939;6.804985;3.70852;5.045635;4.230505;3.48723;2.06775;1.6085;1.891505;1.69234;0.9667745;0.599253;0.3681805;0.23009;0.1907465;0.1614255;0.129578;0.109452;0.071448;0.055261;0.0468805;0.0420875;0.0366715;0.021746;0.013173;0.010209;0.0079285;0.0065425;0.005645;0.004395;0.003931;0.003517;0.0031185;0.002839;2.03815;2.24666;5.96192;8.48875;4.29988;7.1356;5.96965;4.31215;2.23362;1.90047;2.49579;2.37366;1.31411;0.794645;0.390689;0.267856;0.269755;0.227705;0.178576;0.1254;0.084267;0.068351;0.057106;0.052737;0.051242;0.026205;0.016729;0.013743;0.010006;0.008267;0.007221;0.006071;0.00556;0.004973;0.00441;0.004015;1.55544;1.77574;4.34759;3.68903;3.02721;3.43776;2.65477;1.92252;1.70306;1.06261;0.888712;0.590228;0.351538;0.268023;0.340005;0.142613;0.117965;0.099838;0.09426;0.068227;0.049069;0.040608;0.033214;0.024284;0.019822;0.013848;0.009472;0.007077;0.005692;0.005167;0.004254;0.003372;0.002748;0.002388;0.002034;0.00184;0.09454886270011893;0.027405520724505295
12;EMSC-20101204_0000007;2010-12-04 03:49:09;15687616;usp000hqg2;;20101204_0000007;GR;36.4577;26.3931;128.1725;ISC-webservice;U;4.8;ISC-webservice;;;2.8;ISC-webservice;5.1;Mw;Pap10;;;;;;;;;;;HL;IACM;00;HN;0.0;;;;GR;35.3058;25.0709;45;;;;;;;;10.145915;816.166285;174.9;216.83680443192756;42.7;;;;;D;0;E;90.0;N;0.0;Z;0.15;0.15;0.15;30.0;30.0;30.0;5.333333333333334;5.1;128.1725;90;216.83680443192756;216.83680443192756;174.9;123.8;816.166285;False;31.07;3;1.411104;0.917295;-1.129478;1.213266;1.435013;0.917295;0.056996;-0.046114;-0.033782;0.0511434;0.058779;0.042723;0.004083;0.004078;0.002095;0.004091175;0.00450379;0.00375355;34.355;36.825;50.465;35.569;35.6025;37.54;33.09;0.148155;0.144939;0.0829855;0.1464995;0.153997;0.140814;9.71221063057;9.99887184282;10.2251727515;9.86898565439;10.4597730251;9.25698085423;0.00341399861507;0.00314286074233;0.00293885233177;0.00327842949555;0.00353529536852;0.00302156373929;1.42428;1.48418;1.64841;2.1814;2.66101;3.01563;3.20277;3.43417;3.58017;2.64897;2.19282;2.18886;1.83387;1.91661;0.778691;0.914199;0.930805;0.851015;0.967382;0.520133;0.284366;0.205089;0.143051;0.081469;0.055595;0.035824;0.022341;0.017607;0.014169;0.011735;0.009425;0.006809;0.005543;0.004792;0.004069;0.003674;0.918848;0.973638;1.21006;1.38046;2.29969;4.32336;2.35344;3.65813;3.18086;3.53529;2.06204;2.06615;1.73656;1.39944;1.41205;1.02857;0.785077;0.782983;0.680749;0.471692;0.318709;0.195066;0.127212;0.070986;0.052419;0.031509;0.021877;0.016425;0.011911;0.009782;0.008152;0.006687;0.005765;0.004816;0.003861;0.003466;1.13908;1.21291;1.43953;1.66413;2.87762;3.23271;4.29381;4.16102;1.85469;1.54586;1.52189;1.30191;1.3005;0.938247;0.773603;0.633762;0.622166;0.446855;0.267887;0.167549;0.10005;0.068537;0.047603;0.031067;0.027264;0.016719;0.012347;0.008967;0.006959;0.006122;0.00489;0.003882;0.003224;0.002833;0.002311;0.002085;1.213775;1.25462;1.41479;1.55904;2.24308;3.66279;2.72936;3.43007;3.17473;3.057355;2.30896;2.156495;1.785215;1.667235;1.23495;0.942323;0.8985165;0.7751785;0.7770155;0.4706535;0.3032795;0.1995235;0.1261055;0.080316;0.054071;0.0321725;0.0225535;0.0172465;0.013279;0.01104;0.0089205;0.006708;0.005453;0.0046685;0.0038185;0.0034645;1.44528;1.50244;1.66246;2.20043;2.66851;4.38386;3.22303;3.69095;4.0021;3.59066;3.00475;2.38847;2.52401;1.9305;1.43482;1.19;1.05355;0.854561;1.00327;0.543045;0.330534;0.213797;0.152539;0.08641;0.057962;0.035922;0.025647;0.019174;0.014285;0.012405;0.00994;0.00751;0.006197;0.005172;0.004118;0.003736;0.918848;0.944699;1.11387;1.31785;1.99137;2.56447;2.30293;2.9585;2.55061;2.64897;1.92979;1.59188;1.26973;1.24767;0.762281;0.794904;0.634022;0.682114;0.543171;0.389286;0.260424;0.181205;0.102601;0.067743;0.051166;0.02866;0.018986;0.014144;0.010985;0.009331;0.007502;0.005674;0.004737;0.004041;0.003467;0.003054;0.18618462590264742;0.047776366892530404
13;EMSC-20101217_0000017;2010-12-17 09:37:47;15806976;usp000hr10;2294049;20101217_0000017;GR;36.9624;23.9897;109.3245;ISC-webservice;TF;4.7;ISC-webservice;4.61;ISC-webservice;4.2;ISC-webservice;5.4;Mw;Pap10;;;;;;;;;;;HL;ANKY;00;HN;0.0;;;;GR;35.86704;23.30117;143;;;;;;;;6.937541;695.873582;136.3;174.72703368468774;26.7;;;;;D;0;E;90.0;N;0.0;Z;0.1;0.1;0.1;30.0;30.0;30.0;8.0;5.4;109.3245;90;174.72703368468774;174.72703368468774;136.3;125.68;695.873582;False;31.07;3;0.249427;0.371205;0.308053;0.286734;0.378596;0.245909;0.008624;0.013245;0.008825;0.01318155;0.0143838;0.00849601;0.001221;-0.001124;0.000787;0.001208805;0.00134144;0.00101393;32.405;29.22;33.53;30.771;30.57;34.745;27.68;0.0322147;0.0345929;0.0228208;0.0333796;0.0351037;0.0319817;1.65240451085;1.67288494993;1.56752372497;1.66474164522;1.72620858969;1.59327467443;0.000121197263399;0.000136801648387;0.000114098554372;0.000128999452485;0.000137752975461;0.000120245914707;0.254104;0.292505;0.524662;0.96403;0.557287;0.670741;0.704438;0.78334;0.933453;0.584447;0.324977;0.339731;0.353255;0.329679;0.181341;0.163946;0.170557;0.13226;0.100266;0.093609;0.052896;0.054885;0.044578;0.030298;0.027314;0.012799;0.010429;0.00709;0.004257;0.003769;0.002599;0.001919;0.001494;0.001263;0.001029;0.000739;0.371635;0.396391;0.491914;0.497798;0.404578;0.479173;1.07248;0.723818;0.557659;0.78014;0.558327;0.594981;0.475479;0.506287;0.254621;0.233989;0.21316;0.189628;0.12687;0.104546;0.05228;0.039334;0.027959;0.023358;0.019075;0.010656;0.007921;0.004952;0.004099;0.003484;0.003011;0.001859;0.001325;0.001292;0.00114;0.000945;0.309795;0.32658;0.494693;0.729827;0.492343;0.859348;0.702027;0.639085;0.618904;0.664609;0.351085;0.237656;0.234512;0.231316;0.149981;0.142908;0.160703;0.150622;0.09081;0.062749;0.033702;0.024062;0.019729;0.016725;0.016703;0.008283;0.004301;0.003778;0.002948;0.003135;0.003159;0.001723;0.001431;0.00103;0.000861;0.000746;0.292533;0.3278285;0.496336;0.741847;0.456368;0.5112885;0.9288395;0.73595;0.7972275;0.733124;0.4869735;0.5555175;0.4240895;0.4188555;0.2536285;0.171177;0.1794475;0.149275;0.1004345;0.094441;0.05322;0.0501655;0.039921;0.0263545;0.0220235;0.012333;0.009812;0.0062885;0.0041025;0.0038905;0.0029645;0.002094;0.001613;0.00142;0.0011805;0.0008895;0.379955;0.406868;0.54118;0.983056;0.557287;0.688685;1.2503;0.851206;0.939331;0.815281;0.565125;0.609655;0.482348;0.545859;0.269447;0.23641;0.219546;0.191245;0.127698;0.108442;0.057017;0.055687;0.04681;0.035295;0.029335;0.013107;0.012028;0.007123;0.004459;0.004465;0.003434;0.002313;0.001765;0.001661;0.001348;0.001034;0.246307;0.281268;0.351422;0.435065;0.337934;0.45711;0.675636;0.501795;0.488372;0.545827;0.321889;0.302177;0.330288;0.292526;0.181341;0.147431;0.1216;0.127239;0.087136;0.075847;0.050593;0.038447;0.026342;0.022153;0.016102;0.010206;0.005697;0.004952;0.003678;0.003422;0.002538;0.001736;0.001325;0.00114;0.000882;0.000695;0.053604201469742374;0.014527771331562793
14;EMSC-20101217_0000017;2010-12-17 09:37:47;15806976;usp000hr10;2294049;20101217_0000017;GR;36.9624;23.9897;109.3245;ISC-webservice;TF;4.7;ISC-webservice;4.61;ISC-webservice;4.2;ISC-webservice;5.4;Mw;Pap10;;;;;;;;;;;HL;IACM;00;HN;0.0;;;;GR;35.3058;25.0709;45;;;;;;;;10.145915;816.166285;208.0;234.98052323596949;332.4;;;;;D;0;E;90.0;N;0.0;Z;0.2;0.2;0.2;30.0;30.0;30.0;4.0;5.4;109.3245;90;234.98052323596949;234.98052323596949;208.0;123.8;816.166285;False;31.07;3;-0.908096;0.730853;-0.635904;0.799642;0.937473;0.710487;0.050162;-0.047733;-0.024692;0.04670065;0.0502005;0.0412202;0.005316;-0.004568;-0.002145;0.0047223;0.00533064;0.00433979;49.5;55.74;132.695;52.527;51.4875;57.95;47.13;0.153153;0.157452;0.0738662;0.1556205;0.165456;0.138912;8.11833936613;8.29395632879;8.09557621443;8.19817821489;8.80770538699;7.57819247761;0.00183253470785;0.00179249235679;0.00115211275853;0.00181251350613;0.00199891087452;0.00162611620347;0.908149;0.92209;0.942091;0.917075;1.1675;1.78232;1.77674;1.38084;2.1386;1.95932;1.63501;3.05112;2.54236;1.64464;1.20969;0.939322;0.963601;0.707355;0.526779;0.408834;0.368988;0.278736;0.168589;0.117548;0.079569;0.053253;0.03556;0.019178;0.015384;0.014217;0.011634;0.00841;0.006406;0.005258;0.004453;0.003911;0.733021;0.743454;0.799412;0.872512;1.11708;2.15886;1.16019;1.35394;2.04696;2.25692;2.09206;2.45314;2.61316;2.40427;1.05793;1.02645;0.846351;0.68625;0.813103;0.561439;0.364971;0.244322;0.148209;0.102956;0.0701;0.040704;0.030679;0.020376;0.01518;0.012703;0.01088;0.008177;0.006335;0.005161;0.004426;0.003848;0.636891;0.651657;0.645943;0.770589;1.2294;1.81706;1.47833;1.42375;1.09754;1.21051;1.26477;1.37923;1.12896;0.960442;1.00646;0.732097;0.511131;0.425444;0.246258;0.185286;0.097959;0.074242;0.053953;0.034216;0.032484;0.017161;0.012136;0.009679;0.007473;0.005787;0.005042;0.003529;0.002949;0.002457;0.002102;0.001821;0.8023545;0.81552;0.8551395;0.9054745;1.118335;1.76413;1.514145;1.37497;2.11851;2.071485;2.03861;2.737535;2.54335;1.857535;1.262275;1.019405;0.9027835;0.697713;0.665922;0.4553745;0.3782785;0.258212;0.160426;0.1045825;0.0701545;0.048885;0.033969;0.0211925;0.0152895;0.0129615;0.0106115;0.007896;0.006112;0.0050305;0.0043325;0.0037755;0.93858;0.950835;0.965355;0.962495;1.18963;2.20477;1.78489;1.48634;2.3151;2.7927;2.24829;3.47498;2.73271;2.40584;1.43777;1.20768;0.965492;0.736739;0.877509;0.569189;0.400665;0.30276;0.179769;0.137534;0.086566;0.053398;0.036049;0.022907;0.016938;0.014302;0.011748;0.008517;0.006608;0.005384;0.004609;0.003993;0.713114;0.721884;0.744408;0.831759;0.989081;1.46423;1.06732;1.2283;1.8105;1.70062;1.58903;1.98357;1.9616;1.57233;1.05793;0.839;0.774744;0.59995;0.492808;0.346849;0.364971;0.184346;0.108199;0.081131;0.061644;0.03406;0.024729;0.017827;0.013758;0.012028;0.009682;0.007012;0.005535;0.004614;0.003898;0.003381;0.2125642169963693;0.05539573185612278
