;event_id;event_time;ISC_ev_id;USGS_ev_id;INGV_ev_id;EMSC_ev_id;ev_nation_code;ev_latitude;ev_longitude;ev_depth_km;ev_hyp_ref;fm_type_code;ML;ML_ref;Mw;Mw_ref;Ms;Ms_ref;EMEC_Mw;EMEC_Mw_type;EMEC_Mw_ref;event_source_id;es_strike;es_dip;es_rake;es_strike_dip_rake_ref;es_z_top;es_z_top_ref;es_length;es_width;es_geometry_ref;network_code;station_code;location_code;instrument_code;sensor_depth_m;proximity_code;housing_code;installation_code;st_nation_code;st_latitude;st_longitude;st_elevation;ec8_code;ec8_code_method;ec8_code_ref;vs30_m_sec;vs30_ref;vs30_calc_method;vs30_meas_type;slope_deg;vs30_m_sec_WA;epi_dist;hypo_dist;epi_az;JB_dist;rup_dist;Rx_dist;Ry0_dist;instrument_type_code;late_triggered_flag_01;U_channel_code;U_azimuth_deg;V_channel_code;V_azimuth_deg;W_channel_code;U_hp;V_hp;W_hp;U_lp;V_lp;W_lp;max_usable_T;mag;hypo_depth;rake;rhypo;rrup;rjb;xvf;vs30;vs30measured;z1pt0;region;U_pga;V_pga;W_pga;rotD50_pga;rotD100_pga;rotD00_pga;U_pgv;V_pgv;W_pgv;rotD50_pgv;rotD100_pgv;rotD00_pgv;U_pgd;V_pgd;W_pgd;rotD50_pgd;rotD100_pgd;rotD00_pgd;U_T90;V_T90;W_T90;GM_T90;rotD50_T90;rotD100_T90;rotD00_T90;U_housner;V_housner;W_housner;rotD50_housner;rotD100_housner;rotD00_housner;U_CAV;V_CAV;W_CAV;rotD50_CAV;rotD100_CAV;rotD00_CAV;U_ia;V_ia;W_ia;rotD50_ia;rotD100_ia;rotD00_ia;U_T0_010;U_T0_025;U_T0_040;U_T0_050;U_T0_070;U_T0_100;U_T0_150;U_T0_200;U_T0_250;U_T0_300;U_T0_350;U_T0_400;U_T0_450;U_T0_500;U_T0_600;U_T0_700;U_T0_750;U_T0_800;U_T0_900;U_T1_000;U_T1_200;U_T1_400;U_T1_600;U_T1_800;U_T2_000;U_T2_500;U_T3_000;U_T3_500;U_T4_000;U_T4_500;U_T5_000;U_T6_000;U_T7_000;U_T8_000;U_T9_000;U_T10_000;V_T0_010;V_T0_025;V_T0_040;V_T0_050;V_T0_070;V_T0_100;V_T0_150;V_T0_200;V_T0_250;V_T0_300;V_T0_350;V_T0_400;V_T0_450;V_T0_500;V_T0_600;V_T0_700;V_T0_750;V_T0_800;V_T0_900;V_T1_000;V_T1_200;V_T1_400;V_T1_600;V_T1_800;V_T2_000;V_T2_500;V_T3_000;V_T3_500;V_T4_000;V_T4_500;V_T5_000;V_T6_000;V_T7_000;V_T8_000;V_T9_000;V_T10_000;W_T0_010;W_T0_025;W_T0_040;W_T0_050;W_T0_070;W_T0_100;W_T0_150;W_T0_200;W_T0_250;W_T0_300;W_T0_350;W_T0_400;W_T0_450;W_T0_500;W_T0_600;W_T0_700;W_T0_750;W_T0_800;W_T0_900;W_T1_000;W_T1_200;W_T1_400;W_T1_600;W_T1_800;W_T2_000;W_T2_500;W_T3_000;W_T3_500;W_T4_000;W_T4_500;W_T5_000;W_T6_000;W_T7_000;W_T8_000;W_T9_000;W_T10_000;rotD50_T0_010;rotD50_T0_025;rotD50_T0_040;rotD50_T0_050;rotD50_T0_070;rotD50_T0_100;rotD50_T0_150;rotD50_T0_200;rotD50_T0_250;rotD50_T0_300;rotD50_T0_350;rotD50_T0_400;rotD50_T0_450;rotD50_T0_500;rotD50_T0_600;rotD50_T0_700;rotD50_T0_750;rotD50_T0_800;rotD50_T0_900;rotD50_T1_000;rotD50_T1_200;rotD50_T1_400;rotD50_T1_600;rotD50_T1_800;rotD50_T2_000;rotD50_T2_500;rotD50_T3_000;rotD50_T3_500;rotD50_T4_000;rotD50_T4_500;rotD50_T5_000;rotD50_T6_000;rotD50_T7_000;rotD50_T8_000;rotD50_T9_000;rotD50_T10_000;rotD100_T0_010;rotD100_T0_025;rotD100_T0_040;rotD100_T0_050;rotD100_T0_070;rotD100_T0_100;rotD100_T0_150;rotD100_T0_200;rotD100_T0_250;rotD100_T0_300;rotD100_T0_350;rotD100_T0_400;rotD100_T0_450;rotD100_T0_500;rotD100_T0_600;rotD100_T0_700;rotD100_T0_750;rotD100_T0_800;rotD100_T0_900;rotD100_T1_000;rotD100_T1_200;rotD100_T1_400;rotD100_T1_600;rotD100_T1_800;rotD100_T2_000;rotD100_T2_500;rotD100_T3_000;rotD100_T3_500;rotD100_T4_000;rotD100_T4_500;rotD100_T5_000;rotD100_T6_000;rotD100_T7_000;rotD100_T8_000;rotD100_T9_000;rotD100_T10_000;rotD00_T0_010;rotD00_T0_025;rotD00_T0_040;rotD00_T0_050;rotD00_T0_070;rotD00_T0_100;rotD00_T0_150;rotD00_T0_200;rotD00_T0_250;rotD00_T0_300;rotD00_T0_350;rotD00_T0_400;rotD00_T0_450;rotD00_T0_500;rotD00_T0_600;rotD00_T0_700;rotD00_T0_750;rotD00_T0_800;rotD00_T0_900;rotD00_T1_000;rotD00_T1_200;rotD00_T1_400;rotD00_T1_600;rotD00_T1_800;rotD00_T2_000;rotD00_T2_500;rotD00_T3_000;rotD00_T3_500;rotD00_T4_000;rotD00_T4_500;rotD00_T5_000;rotD00_T6_000;rotD00_T7_000;rotD00_T8_000;rotD00_T9_000;rotD00_T10_000;rotD50_AvgSA[0,3];rotD50_AvgSA[0,6]
30;EMSC-20070527_0000041;2007-05-27 10:06:50;12664301;usp000fcv9;;20070527_0000041;RO;45.6508;26.5225;153.4729;ISC-webservice;U;4.5;EMSC-CSEM;;;;;4.1;Mw;INFP;;;;;;;;;;;RO;MLR;00;HN;0.0;;;;RO;45.4909;25.945;1392;;;;;;;;27.402644;1305.613413;48.5;160.95397178824138;68.3;;;;;D;0;E;90.0;N;0.0;Z;0.3;0.3;0.3;30.0;30.0;30.0;2.666666666666667;4.1;153.4729;90;160.95397178824138;160.95397178824138;48.5;18.0;1305.613413;False;31.07;4;-0.050358;-0.025825;-0.041426;0.0399175;0.056137;0.020328;-0.002398;0.001669;-0.002003;0.002048145;0.00279139;0.00122947;0.000191;0.000161;0.000167;0.0001810655;0.000269015;9.49865e-05;21.155;25.085;21.165;23.036;23.0375;25.565;20.52;0.00499012;0.00376042;0.00427253;0.004487745;0.00579178;0.0033959;0.118708935026;0.124211099996;0.133210180031;0.120754987559;0.1284750399;0.10950615;1.07322469181e-06;8.81043770763e-07;1.33836720795e-06;9.77133699559e-07;1.19858543225e-06;7.55681552221e-07;0.050482;0.051897;0.052018;0.05311;0.060696;0.069624;0.115936;0.076358;0.102875;0.110559;0.099186;0.097776;0.088864;0.080139;0.057028;0.034826;0.026373;0.021264;0.01645;0.013907;0.007946;0.004573;0.003225;0.002399;0.002264;0.001473;0.000945;0.00073;0.000655;0.000586;0.00041;0.000335;0.000275;0.000227;0.000192;0.000166;0.025841;0.026478;0.026982;0.030091;0.066836;0.058819;0.060135;0.060653;0.088769;0.079163;0.075562;0.063919;0.056126;0.049805;0.029817;0.030258;0.023832;0.016421;0.012007;0.008156;0.00501;0.004466;0.00409;0.002987;0.002321;0.001654;0.001086;0.000817;0.000679;0.000548;0.000411;0.000303;0.000228;0.000187;0.000162;0.000138;0.041426;0.041833;0.043192;0.043996;0.061241;0.121553;0.082862;0.073772;0.10296;0.08178;0.101214;0.133572;0.117137;0.073024;0.032901;0.019011;0.019679;0.018072;0.012931;0.009896;0.006165;0.004146;0.002979;0.002121;0.001742;0.001214;0.00085;0.000657;0.000543;0.000484;0.000406;0.000303;0.000241;0.000198;0.000171;0.000148;0.039941;0.041085;0.0414145;0.042326;0.0628455;0.065606;0.0869285;0.067978;0.0970545;0.0961445;0.0881545;0.082663;0.073816;0.0642665;0.047427;0.032013;0.0248675;0.018822;0.0143875;0.011396;0.0066355;0.005191;0.004102;0.00299;0.0024235;0.0015225;0.001021;0.00076;0.000667;0.000567;0.0004105;0.000319;0.000252;0.0002075;0.000178;0.0001525;0.056287;0.058055;0.057949;0.059528;0.068211;0.074914;0.118299;0.085862;0.132718;0.134774;0.122202;0.114531;0.10217;0.083049;0.064257;0.043441;0.032975;0.025808;0.02012;0.015963;0.009342;0.005776;0.004996;0.003235;0.002639;0.001939;0.001412;0.001052;0.000927;0.000789;0.00057;0.000446;0.000352;0.000291;0.000249;0.000213;0.020385;0.020529;0.021718;0.025814;0.042574;0.047879;0.056198;0.05653;0.069674;0.048146;0.051929;0.039636;0.038047;0.046192;0.026244;0.014909;0.013473;0.012033;0.007174;0.005298;0.004473;0.00425;0.003148;0.002375;0.002094;0.001395;0.000811;0.000571;0.000403;0.0003;0.000255;0.000172;0.000134;0.000113;9.6e-05;8.2e-05;0.006699606923732734;0.0019740821941444603
31;EMSC-20070922_0000066;2007-09-22 09:54:12;12969393;usp000fnw4;;20070922_0000066;RO;45.557;26.3993;125.0653;ISC-webservice;U;4.4;EMSC-CSEM;;;;;4.1;Mw;INFP;;;;;;;;;;;GE;TIRR;00;HN;3.0;;;;RO;44.4581;28.4128;77;;;;;;;;0.383942;302.057214;200.3;236.13855946052098;308.3;;;;;D;0;E;90.0;N;0.0;Z;0.25;0.25;0.25;30.0;30.0;30.0;3.2;4.1;125.0653;90;236.13855946052098;236.13855946052098;200.3;150.0;302.057214;False;31.07;5;-0.418495;0.392736;-0.372628;0.3952065;0.425714;0.281871;0.006251;-0.008816;0.010283;0.006758085;0.00955759;0.00509314;0.00024;0.00033;-0.000349;0.0003085085;0.000430627;0.000129625;45.16;49.005;48.07;47.043;48.3875;50.01;43.52;0.00611099;0.0102423;0.0110812;0.00840139;0.0111257;0.00525735;1.40255441071;1.67723990483;1.90851238503;1.55852319492;1.81280400969;1.23032842029;8.77774025244e-05;0.000117497445101;0.000154148160398;0.00010263742421;0.000132288533988;7.29862900273e-05;0.421222;0.472809;0.924595;1.40412;0.956525;0.549478;0.485829;0.267628;0.175715;0.103924;0.068342;0.053912;0.066495;0.057471;0.039348;0.03873;0.03542;0.02981;0.019441;0.015068;0.009405;0.005755;0.004497;0.00361;0.003092;0.002132;0.001505;0.00112;0.00093;0.000892;0.000766;0.000645;0.000545;0.000469;0.000423;0.000379;0.3977;0.427757;0.571041;0.533611;1.06851;1.03174;0.974272;0.718341;0.36309;0.239987;0.140417;0.113;0.097408;0.084662;0.063306;0.047699;0.042955;0.037191;0.031196;0.023986;0.015144;0.009453;0.006913;0.005249;0.004407;0.003047;0.002145;0.001715;0.001416;0.001316;0.001088;0.000875;0.000724;0.00063;0.000567;0.000519;0.374772;0.416377;0.82213;1.20095;1.3697;1.05098;0.762939;0.625707;0.562978;0.346146;0.168545;0.094099;0.088585;0.08531;0.084023;0.053008;0.042593;0.036141;0.02662;0.021409;0.015591;0.010933;0.0091;0.007226;0.005906;0.003974;0.002753;0.002503;0.001998;0.001692;0.001444;0.001151;0.00098;0.000849;0.000748;0.000668;0.399358;0.442097;0.8245305;1.04225;0.9507425;0.803809;0.75956;0.5360885;0.276047;0.1840285;0.1215975;0.097871;0.092248;0.081278;0.0496535;0.040359;0.038102;0.034672;0.0259725;0.019413;0.0121565;0.008048;0.0059025;0.0045825;0.00384;0.002657;0.0017555;0.0014235;0.001232;0.0011495;0.0009765;0.000724;0.000593;0.000493;0.000439;0.000394;0.431969;0.485599;0.982042;1.40529;1.08362;1.13294;1.06599;0.749242;0.385667;0.257716;0.146064;0.113;0.113398;0.100926;0.068064;0.052572;0.046563;0.045974;0.033822;0.026401;0.015623;0.010088;0.007922;0.006157;0.00517;0.003529;0.002281;0.001771;0.001443;0.001323;0.001092;0.000885;0.00075;0.000658;0.000595;0.000546;0.288944;0.320649;0.530631;0.495171;0.709435;0.53686;0.466511;0.252547;0.153072;0.092106;0.066509;0.052622;0.042116;0.04353;0.039348;0.021494;0.019369;0.01704;0.015322;0.012234;0.006246;0.003468;0.003052;0.002316;0.002134;0.001436;0.001239;0.001113;0.000886;0.000737;0.000668;0.000563;0.000458;0.000394;0.000353;0.000314;0.012724496421557594;0.004230145964521856
32;EMSC-20070922_0000066;2007-09-22 09:54:12;12969393;usp000fnw4;;20070922_0000066;RO;45.557;26.3993;125.0653;ISC-webservice;U;4.4;EMSC-CSEM;;;;;4.1;Mw;INFP;;;;;;;;;;;RO;MLR;00;HN;0.0;;;;RO;45.4909;25.945;1392;;;;;;;;27.402644;1305.613413;36.2;130.19896030341408;78.1;;;;;D;0;E;90.0;N;0.0;Z;0.3;0.3;0.3;20.0;20.0;20.0;2.666666666666667;4.1;125.0653;90;130.19896030341408;130.19896030341408;36.2;18.0;1305.613413;False;31.07;4;0.046219;0.065167;0.164082;0.058594;0.072281;0.035891;0.001012;0.001326;0.003423;0.00122473;0.00159862;0.00083862;-5.7e-05;7.3e-05;-0.000166;7.864025e-05;0.000103764;6.07662e-05;18.93;16.56;14.305;17.705;17.305;19.575;16.54;0.00220137;0.00268989;0.0035053;0.00254494;0.00269414;0.00216028;0.122839639951;0.141686205008;0.156398930226;0.132309892511;0.141770384929;0.122634370007;1.1909652775e-06;1.97757392377e-06;3.90724723278e-06;1.58427055333e-06;2.09510268019e-06;1.07343809191e-06;0.046245;0.04782;0.050871;0.055484;0.093166;0.141789;0.129493;0.073403;0.0873;0.055106;0.040741;0.023888;0.023182;0.023069;0.011429;0.007689;0.008384;0.006476;0.005975;0.004865;0.003836;0.003259;0.002417;0.001541;0.001107;0.000626;0.000407;0.000324;0.000253;0.000207;0.000195;0.000136;0.000128;9.6e-05;8.6e-05;7.7e-05;0.066295;0.071021;0.082992;0.105585;0.177746;0.244762;0.093457;0.162271;0.101571;0.055134;0.044049;0.038512;0.037773;0.026646;0.01898;0.019925;0.015252;0.011614;0.00618;0.004074;0.00351;0.002862;0.002192;0.001379;0.001242;0.000708;0.000573;0.000431;0.000359;0.000263;0.000226;0.000158;0.000132;0.000119;9.9e-05;8.5e-05;0.165485;0.172829;0.189705;0.214426;0.299009;0.480641;0.24747;0.17485;0.096589;0.071958;0.053167;0.043288;0.043294;0.036372;0.02357;0.015293;0.014487;0.013192;0.009977;0.007253;0.004861;0.00364;0.002784;0.002333;0.002225;0.001417;0.001124;0.000832;0.000747;0.000638;0.000539;0.000419;0.00035;0.000274;0.000235;0.000208;0.0588445;0.0626025;0.070329;0.086225;0.1451565;0.201858;0.112699;0.1252635;0.0947885;0.05512;0.043541;0.0356345;0.0284715;0.0227325;0.017444;0.0150075;0.011423;0.009168;0.0067915;0.0047945;0.003698;0.0030755;0.002305;0.001452;0.0011585;0.000668;0.0004785;0.0003485;0.000284;0.0002315;0.000195;0.0001365;0.0001265;9.6e-05;8.55e-05;7.7e-05;0.072691;0.075811;0.083314;0.105585;0.177746;0.24572;0.158595;0.174399;0.122536;0.06887;0.053569;0.040853;0.038115;0.026777;0.019144;0.020057;0.015292;0.012119;0.00751;0.005844;0.004057;0.003794;0.002646;0.001929;0.001423;0.000724;0.000586;0.000487;0.000388;0.000292;0.000263;0.000179;0.000155;0.000131;0.000111;9.6e-05;0.036015;0.038259;0.04272;0.051078;0.088297;0.132303;0.076381;0.061211;0.05336;0.050749;0.031304;0.023888;0.020367;0.018835;0.010799;0.007689;0.007946;0.006331;0.005628;0.004008;0.003374;0.002002;0.001439;0.001185;0.000874;0.000553;0.000387;0.000283;0.000226;0.000198;0.000175;0.000119;0.000104;8.4e-05;7.3e-05;6.3e-05;0.0035959151455754864;0.0010173495329693887
33;EMSC-20071030_0000049;2007-10-30 03:22:26;13252603;usp000frk6;;20071030_0000049;RO;45.7391;26.677;114.9543;ISC-webservice;U;4.1;EMSC-CSEM;;;;;3.8;Mw;INFP;;;;;;;;;;;GE;TIRR;00;HN;3.0;;;;RO;44.4581;28.4128;77;;;;;;;;0.383942;302.057214;197.3;228.34574900463988;316.8;;;;;D;0;E;90.0;N;0.0;Z;0.35;0.35;0.35;30.0;30.0;30.0;2.285714285714286;3.8;114.9543;90;228.34574900463988;228.34574900463988;197.3;150.0;302.057214;False;31.07;5;-0.22923;0.259594;-0.285948;0.240261;0.27743;0.176594;0.002743;0.004806;0.004728;0.00372688;0.00507146;0.00180102;0.000148;-0.000178;-0.000208;0.000156696;0.000204812;8.39986e-05;42.49;43.085;41.735;42.786;42.78;43.535;39.595;0.00367138;0.00550603;0.0062794;0.004694015;0.00586499;0.00265958;0.88157673528;1.1699635356;0.929204989984;1.03541986731;1.35132651467;0.570062905151;3.50232050971e-05;6.48891021805e-05;4.71992333066e-05;4.99561343005e-05;8.276004396e-05;1.71522648012e-05;0.231659;0.359187;0.706467;0.858536;0.300852;0.253234;0.366578;0.248742;0.120078;0.092083;0.065451;0.048048;0.029249;0.024682;0.016815;0.012961;0.012646;0.011561;0.010158;0.007563;0.006056;0.004233;0.003437;0.002077;0.001643;0.001193;0.000881;0.000839;0.000628;0.000591;0.00048;0.000384;0.000318;0.000275;0.000237;0.000206;0.262367;0.316419;0.991691;0.412535;0.451927;0.493179;0.501051;0.39502;0.227956;0.102973;0.078395;0.086441;0.063367;0.040279;0.038343;0.023811;0.020286;0.018407;0.012979;0.010198;0.006793;0.005847;0.003908;0.003216;0.002449;0.001584;0.00135;0.001005;0.000814;0.000705;0.000585;0.000484;0.000416;0.000364;0.000327;0.000292;0.290258;0.319984;0.804515;0.854591;0.833999;0.742065;0.801322;0.302388;0.155875;0.121776;0.091901;0.084993;0.074634;0.056824;0.04818;0.038598;0.030096;0.025373;0.020248;0.013789;0.009284;0.005128;0.003871;0.003129;0.002247;0.001534;0.00142;0.000988;0.00086;0.000797;0.000697;0.000545;0.000445;0.000381;0.000334;0.000297;0.245518;0.3301495;0.922507;0.6419715;0.389652;0.358926;0.434868;0.312437;0.180971;0.0983205;0.0732025;0.0696755;0.049409;0.0334755;0.0289635;0.0196715;0.0171645;0.0144375;0.011535;0.0084215;0.0065155;0.005371;0.003675;0.002596;0.001985;0.001567;0.001085;0.0009215;0.0007265;0.000654;0.000544;0.0004415;0.0003715;0.0003235;0.000285;0.0002515;0.279243;0.40298;1.21336;0.858536;0.510126;0.501309;0.566747;0.407991;0.228914;0.131242;0.095161;0.098347;0.0696;0.042073;0.038379;0.026529;0.021091;0.020409;0.01523;0.011668;0.007465;0.005888;0.004173;0.003657;0.002802;0.001945;0.001388;0.001081;0.000853;0.000749;0.000632;0.00051;0.000433;0.000382;0.000343;0.000307;0.177354;0.257101;0.635013;0.412535;0.225203;0.196416;0.255945;0.132928;0.081707;0.051857;0.028234;0.026056;0.019089;0.01589;0.013004;0.010575;0.009623;0.009;0.006721;0.005382;0.004013;0.00304;0.002756;0.001581;0.001344;0.001025;0.000758;0.000476;0.000435;0.000359;0.000298;0.000231;0.000188;0.000156;0.000138;0.000123;0.007148081481009013;0.00246135198644381
34;EMSC-20071030_0000049;2007-10-30 03:22:26;13252603;usp000frk6;;20071030_0000049;RO;45.7391;26.677;114.9543;ISC-webservice;U;4.1;EMSC-CSEM;;;;;3.8;Mw;INFP;;;;;;;;;;;RO;MLR;00;HN;0.0;;;;RO;45.4909;25.945;1392;;;;;;;;27.402644;1305.613413;63.4;131.2785248564669;64.0;;;;;D;0;E;90.0;N;0.0;Z;0.3;0.3;0.3;30.0;30.0;30.0;2.666666666666667;3.8;114.9543;90;131.2785248564669;131.2785248564669;63.4;18.0;1305.613413;False;31.07;4;-0.039673;-0.021864;-0.025568;0.029758;0.041957;0.020767;-0.00174;-0.001542;-0.001259;0.00171574;0.00206989;0.00140746;0.000116;0.00012;-7.8e-05;0.000120169;0.000134789;0.000106254;9.845;18.085;17.89;13.343;14.5425;19.42;7.79;0.00409237;0.00355079;0.00271432;0.003891765;0.00431299;0.00343378;0.0965397099449;0.0929157450299;0.0936664499643;0.0948481724355;0.104281059943;0.0815712850414;8.64685871302e-07;6.07907819436e-07;6.22453434167e-07;7.36296129765e-07;9.582145302e-07;5.14376781408e-07;0.039684;0.039964;0.040048;0.0411;0.042526;0.0467;0.07731;0.099894;0.082242;0.113154;0.073794;0.089863;0.087379;0.062884;0.038059;0.028484;0.023839;0.017173;0.009176;0.007146;0.004941;0.004437;0.003759;0.002608;0.001789;0.001247;0.000769;0.000601;0.000436;0.000354;0.000304;0.000253;0.000196;0.000165;0.000144;0.000126;0.021871;0.022873;0.023008;0.023575;0.025753;0.033108;0.059849;0.066215;0.079848;0.053769;0.049645;0.061784;0.070041;0.055975;0.021474;0.013798;0.015068;0.013597;0.01389;0.01167;0.007859;0.005546;0.003693;0.002616;0.001739;0.001111;0.000652;0.00051;0.000339;0.000292;0.000237;0.000185;0.000142;0.000117;0.000106;9.5e-05;0.025592;0.026106;0.02619;0.027452;0.029639;0.040711;0.059541;0.067313;0.071797;0.08781;0.050497;0.051501;0.05644;0.039183;0.026929;0.015544;0.014156;0.012067;0.010434;0.006544;0.00375;0.002451;0.001856;0.001263;0.000946;0.000585;0.000524;0.000309;0.000275;0.000237;0.000185;0.000156;0.000126;0.000104;8.8e-05;7.8e-05;0.029771;0.030141;0.0304015;0.030928;0.032729;0.039588;0.0772055;0.0800055;0.0837655;0.088002;0.0592645;0.0765045;0.0794125;0.061152;0.0320305;0.022786;0.020458;0.016368;0.011403;0.008966;0.006586;0.005146;0.003747;0.0026705;0.002056;0.0011445;0.0007145;0.00051;0.0004105;0.000342;0.000281;0.0002285;0.000178;0.000148;0.0001295;0.0001135;0.042007;0.042352;0.042288;0.043625;0.044561;0.049947;0.087523;0.103552;0.112599;0.117748;0.075121;0.098956;0.100119;0.072853;0.038059;0.029425;0.023906;0.018324;0.013897;0.012081;0.007968;0.005703;0.004082;0.003004;0.002226;0.001265;0.00077;0.000619;0.000443;0.00041;0.00033;0.000256;0.000207;0.000174;0.000152;0.000135;0.020769;0.022047;0.022239;0.022355;0.025743;0.032445;0.053055;0.063065;0.065395;0.045585;0.04175;0.049502;0.051784;0.045666;0.021083;0.012944;0.013321;0.013597;0.008744;0.006181;0.00487;0.004082;0.00297;0.002264;0.001678;0.000942;0.000587;0.000444;0.000334;0.000286;0.000231;0.00018;0.000142;0.000117;0.000106;9.5e-05;0.005299165246367467;0.0014389056834775381
