;event_id;event_time;ISC_ev_id;USGS_ev_id;INGV_ev_id;EMSC_ev_id;ev_nation_code;ev_latitude;ev_longitude;ev_depth_km;ev_hyp_ref;fm_type_code;ML;ML_ref;Mw;Mw_ref;Ms;Ms_ref;EMEC_Mw;EMEC_Mw_type;EMEC_Mw_ref;event_source_id;es_strike;es_dip;es_rake;es_strike_dip_rake_ref;es_z_top;es_z_top_ref;es_length;es_width;es_geometry_ref;network_code;station_code;location_code;instrument_code;sensor_depth_m;proximity_code;housing_code;installation_code;st_nation_code;st_latitude;st_longitude;st_elevation;ec8_code;ec8_code_method;ec8_code_ref;vs30_m_sec;vs30_ref;vs30_calc_method;vs30_meas_type;slope_deg;vs30_m_sec_WA;epi_dist;hypo_dist;epi_az;JB_dist;rup_dist;Rx_dist;Ry0_dist;instrument_type_code;late_triggered_flag_01;U_channel_code;U_azimuth_deg;V_channel_code;V_azimuth_deg;W_channel_code;U_hp;V_hp;W_hp;U_lp;V_lp;W_lp;max_usable_T;mag;hypo_depth;rake;rhypo;rrup;rjb;xvf;vs30;vs30measured;z1pt0;region;U_pga;V_pga;W_pga;rotD50_pga;rotD100_pga;rotD00_pga;U_pgv;V_pgv;W_pgv;rotD50_pgv;rotD100_pgv;rotD00_pgv;U_pgd;V_pgd;W_pgd;rotD50_pgd;rotD100_pgd;rotD00_pgd;U_T90;V_T90;W_T90;GM_T90;rotD50_T90;rotD100_T90;rotD00_T90;U_housner;V_housner;W_housner;rotD50_housner;rotD100_housner;rotD00_housner;U_CAV;V_CAV;W_CAV;rotD50_CAV;rotD100_CAV;rotD00_CAV;U_ia;V_ia;W_ia;rotD50_ia;rotD100_ia;rotD00_ia;U_T0_010;U_T0_025;U_T0_040;U_T0_050;U_T0_070;U_T0_100;U_T0_150;U_T0_200;U_T0_250;U_T0_300;U_T0_350;U_T0_400;U_T0_450;U_T0_500;U_T0_600;U_T0_700;U_T0_750;U_T0_800;U_T0_900;U_T1_000;U_T1_200;U_T1_400;U_T1_600;U_T1_800;U_T2_000;U_T2_500;U_T3_000;U_T3_500;U_T4_000;U_T4_500;U_T5_000;U_T6_000;U_T7_000;U_T8_000;U_T9_000;U_T10_000;V_T0_010;V_T0_025;V_T0_040;V_T0_050;V_T0_070;V_T0_100;V_T0_150;V_T0_200;V_T0_250;V_T0_300;V_T0_350;V_T0_400;V_T0_450;V_T0_500;V_T0_600;V_T0_700;V_T0_750;V_T0_800;V_T0_900;V_T1_000;V_T1_200;V_T1_400;V_T1_600;V_T1_800;V_T2_000;V_T2_500;V_T3_000;V_T3_500;V_T4_000;V_T4_500;V_T5_000;V_T6_000;V_T7_000;V_T8_000;V_T9_000;V_T10_000;W_T0_010;W_T0_025;W_T0_040;W_T0_050;W_T0_070;W_T0_100;W_T0_150;W_T0_200;W_T0_250;W_T0_300;W_T0_350;W_T0_400;W_T0_450;W_T0_500;W_T0_600;W_T0_700;W_T0_750;W_T0_800;W_T0_900;W_T1_000;W_T1_200;W_T1_400;W_T1_600;W_T1_800;W_T2_000;W_T2_500;W_T3_000;W_T3_500;W_T4_000;W_T4_500;W_T5_000;W_T6_000;W_T7_000;W_T8_000;W_T9_000;W_T10_000;rotD50_T0_010;rotD50_T0_025;rotD50_T0_040;rotD50_T0_050;rotD50_T0_070;rotD50_T0_100;rotD50_T0_150;rotD50_T0_200;rotD50_T0_250;rotD50_T0_300;rotD50_T0_350;rotD50_T0_400;rotD50_T0_450;rotD50_T0_500;rotD50_T0_600;rotD50_T0_700;rotD50_T0_750;rotD50_T0_800;rotD50_T0_900;rotD50_T1_000;rotD50_T1_200;rotD50_T1_400;rotD50_T1_600;rotD50_T1_800;rotD50_T2_000;rotD50_T2_500;rotD50_T3_000;rotD50_T3_500;rotD50_T4_000;rotD50_T4_500;rotD50_T5_000;rotD50_T6_000;rotD50_T7_000;rotD50_T8_000;rotD50_T9_000;rotD50_T10_000;rotD100_T0_010;rotD100_T0_025;rotD100_T0_040;rotD100_T0_050;rotD100_T0_070;rotD100_T0_100;rotD100_T0_150;rotD100_T0_200;rotD100_T0_250;rotD100_T0_300;rotD100_T0_350;rotD100_T0_400;rotD100_T0_450;rotD100_T0_500;rotD100_T0_600;rotD100_T0_700;rotD100_T0_750;rotD100_T0_800;rotD100_T0_900;rotD100_T1_000;rotD100_T1_200;rotD100_T1_400;rotD100_T1_600;rotD100_T1_800;rotD100_T2_000;rotD100_T2_500;rotD100_T3_000;rotD100_T3_500;rotD100_T4_000;rotD100_T4_500;rotD100_T5_000;rotD100_T6_000;rotD100_T7_000;rotD100_T8_000;rotD100_T9_000;rotD100_T10_000;rotD00_T0_010;rotD00_T0_025;rotD00_T0_040;rotD00_T0_050;rotD00_T0_070;rotD00_T0_100;rotD00_T0_150;rotD00_T0_200;rotD00_T0_250;rotD00_T0_300;rotD00_T0_350;rotD00_T0_400;rotD00_T0_450;rotD00_T0_500;rotD00_T0_600;rotD00_T0_700;rotD00_T0_750;rotD00_T0_800;rotD00_T0_900;rotD00_T1_000;rotD00_T1_200;rotD00_T1_400;rotD00_T1_600;rotD00_T1_800;rotD00_T2_000;rotD00_T2_500;rotD00_T3_000;rotD00_T3_500;rotD00_T4_000;rotD00_T4_500;rotD00_T5_000;rotD00_T6_000;rotD00_T7_000;rotD00_T8_000;rotD00_T9_000;rotD00_T10_000;rotD50_AvgSA[0,3];rotD50_AvgSA[0,6]
0;EMSC-20051021_0000107;2005-10-21 01:17:39;7704298;usp000e2cn;;20051021_0000107;RO;45.5497;26.4766;124.201;ISC-webservice;U;4.0;ISC-webservice;;;;;4.1;Mw;INFP;;;;;;;;;;;RO;VRI;00;HN;0.0;0;ERR;;RO;45.8657;26.7277;475;;;;;;;;5.227826;597.891754;40.2;130.54473716316562;209.2;;;;;D;0;E;90.0;N;0.0;Z;0.5;0.5;0.5;30.0;30.0;30.0;1.6;4.1;124.201;90;130.54473716316562;130.54473716316562;40.2;49.39;597.891754;False;31.07;4;0.769048;0.393825;-0.319583;0.598324;0.833674;0.281805;-0.032148;0.017721;0.005149;0.02611415;0.0347937;0.0104442;-0.002144;-0.000973;-0.000316;0.0016618;0.00234122;0.000665704;17.8;17.135;21.295;17.464;17.7375;20.755;16.48;0.0613429;0.0329586;0.0121744;0.0501559;0.0662203;0.0245969;1.91515356365;1.17115179906;0.862098135628;1.58366652189;1.95563465431;1.06252234538;0.000346551156298;0.00011300895477;4.17096839238e-05;0.000229780080472;0.000379166237397;8.03938241158e-05;0.769053;0.779176;0.802053;0.796469;0.864758;1.42174;1.84604;1.53478;1.60081;2.14631;2.1935;1.76436;1.25852;0.879972;0.501291;0.29988;0.233396;0.190897;0.143129;0.108817;0.073465;0.054731;0.041132;0.03065;0.024981;0.016891;0.012164;0.009726;0.007929;0.006925;0.005743;0.004454;0.003673;0.00309;0.002679;0.002354;0.39455;0.39736;0.415138;0.431349;0.479927;0.595325;0.838908;1.23689;1.00894;1.40289;1.21366;0.665221;0.357353;0.248855;0.249031;0.201572;0.178698;0.15019;0.094715;0.081252;0.04852;0.029763;0.017242;0.013123;0.012887;0.008249;0.006419;0.004488;0.003512;0.00307;0.002536;0.002024;0.001714;0.001481;0.001286;0.001148;0.325123;0.351042;0.418051;0.595537;0.678149;0.631085;0.724573;0.562002;0.297271;0.276633;0.2016;0.151267;0.154482;0.196309;0.099721;0.069649;0.054276;0.045854;0.03196;0.027173;0.014672;0.014957;0.008039;0.006079;0.005362;0.003648;0.002134;0.001678;0.001132;0.000898;0.00087;0.000635;0.000564;0.000489;0.000433;0.000377;0.5992775;0.606889;0.624595;0.628208;0.69824;1.03745;1.373445;1.52657;1.45678;1.84371;1.7728;1.32507;0.924748;0.6479935;0.3827635;0.255434;0.2076655;0.1716485;0.1211585;0.0976275;0.0654925;0.046657;0.030597;0.0235865;0.020504;0.0136435;0.0100815;0.0075735;0.0060885;0.005299;0.004422;0.003426;0.0028205;0.002397;0.002075;0.0018345;0.835613;0.845348;0.874598;0.858674;0.930854;1.46592;1.87406;1.58897;1.6945;2.53401;2.50248;1.85002;1.30779;0.908039;0.524359;0.36062;0.293684;0.242233;0.169762;0.12567;0.077622;0.055081;0.042753;0.0328;0.02795;0.018082;0.013581;0.010694;0.008592;0.00749;0.006239;0.004842;0.003975;0.003342;0.0029;0.002551;0.281875;0.286496;0.299047;0.307975;0.36013;0.524427;0.838908;1.1624;0.744093;0.566215;0.464788;0.443642;0.328944;0.248855;0.196553;0.146458;0.113766;0.093114;0.068941;0.049552;0.033757;0.02758;0.016834;0.012497;0.010683;0.005781;0.003795;0.003111;0.002325;0.001958;0.001548;0.001154;0.000949;0.000807;0.0007;0.000637;0.06682256857215738;0.019529074205647676
1;EMSC-20051026_0000051;2005-10-26 22:51:22;7704727;usp000e2ws;;20051026_0000051;RO;45.6412;26.5764;145.3771;ISC-webservice;U;4.7;ISC-webservice;;;;;4.4;Mw;INFP;;;;;;;;;;;RO;VRI;00;HN;0.0;0;ERR;;RO;45.8657;26.7277;475;;;;;;;;5.227826;597.891754;27.6;147.9738531106425;205.3;;;;;D;0;E;90.0;N;0.0;Z;0.5;0.5;0.5;30.0;30.0;30.0;1.6;4.4;145.3771;90;147.9738531106425;147.9738531106425;27.6;49.39;597.891754;False;31.07;4;0.888393;-0.338835;0.142391;0.6400425;0.904414;0.277634;0.03154;0.014262;0.005802;0.02328785;0.0329337;0.0133054;-0.001675;-0.000986;-0.000403;0.00120265;0.00171689;0.000890582;8.93;12.9;23.545;10.733;9.2875;14.48;8.51;0.0544723;0.0331396;0.0155544;0.04449815;0.0565032;0.0299033;2.32874775369;1.38215465012;1.06145315973;1.92494911005;2.37142267117;1.29008800489;0.000536626776477;0.000125323106522;4.89216216892e-05;0.000330974967702;0.000561998679102;9.99511802871e-05;0.888714;0.90311;0.933097;0.927627;1.09024;1.64715;1.91787;3.05062;3.46977;2.77164;1.39596;0.996507;0.805233;0.471674;0.320088;0.237468;0.175757;0.135972;0.132031;0.109502;0.058156;0.03995;0.028823;0.023147;0.019148;0.013308;0.010117;0.008329;0.006873;0.006219;0.00507;0.003967;0.003262;0.002765;0.002406;0.002119;0.339473;0.348209;0.352725;0.358619;0.452618;0.522041;0.676835;1.28792;0.915951;0.927392;0.523063;0.44459;0.460055;0.463272;0.25733;0.210676;0.169819;0.150132;0.122135;0.093322;0.052845;0.034843;0.02573;0.019373;0.014729;0.00908;0.005876;0.004333;0.003234;0.002639;0.002112;0.001654;0.001374;0.001183;0.001051;0.00094;0.142482;0.154368;0.27913;0.37982;0.375476;0.511247;0.446597;0.404751;0.396709;0.303569;0.244605;0.202441;0.249335;0.222626;0.148213;0.103755;0.088169;0.074856;0.057708;0.050747;0.022538;0.01625;0.010335;0.008214;0.00776;0.004926;0.002513;0.001936;0.001455;0.001295;0.000996;0.000728;0.000589;0.000505;0.000451;0.000398;0.641756;0.6509975;0.675845;0.6895505;0.7890035;1.214185;1.45326;2.20351;2.522085;2.07354;1.021265;0.7651115;0.6565925;0.467473;0.286249;0.211668;0.175342;0.1436365;0.119222;0.095848;0.052713;0.0363575;0.029841;0.0221265;0.0148295;0.009978;0.0074035;0.006017;0.004987;0.004517;0.0036865;0.0028935;0.002371;0.00202;0.001761;0.001549;0.904421;0.91916;0.945778;0.933954;1.09464;1.6472;1.9963;3.11624;3.53283;2.90251;1.41399;1.03427;0.863938;0.639359;0.322194;0.238999;0.189234;0.153779;0.132841;0.112217;0.061145;0.040963;0.035316;0.024157;0.019732;0.014108;0.010447;0.008508;0.007033;0.006383;0.005206;0.004082;0.00335;0.002848;0.00248;0.002185;0.278058;0.286756;0.313233;0.327966;0.432545;0.522041;0.676835;1.13781;0.711545;0.446387;0.39263;0.281815;0.318364;0.334854;0.25551;0.19222;0.153864;0.125746;0.105715;0.077477;0.040948;0.032477;0.022924;0.016524;0.012031;0.008189;0.005344;0.004036;0.003127;0.002584;0.002112;0.001654;0.001351;0.001144;0.001011;0.000896;0.05475754680797342;0.015996925610026077
2;EMSC-20051213_0000038;2005-12-13 12:14:45;7952541;usp000e62y;;20051213_0000038;RO;45.7196;26.6254;134.4618;ISC-webservice;TF;5.0;ISC-webservice;4.76;ISC-webservice;3.5;ISC-webservice;4.8;Mw;RCMTS;;;;;;;;;;;RO;IAS;00;HN;0.0;;;;RO;47.1931;27.553;195;;;;;;;;6.846236;690.214592;178.6;223.55745493997733;203.8;;;;;D;0;E;90.0;N;0.0;Z;0.35;0.35;0.35;30.0;30.0;30.0;2.285714285714286;4.8;134.4618;90;223.55745493997733;223.55745493997733;178.6;145.65;690.214592;False;31.07;4;-2.1259;1.598798;-1.244987;1.871303;2.557349;1.397205;0.09734;-0.10324;0.035089;0.09663745;0.103687;0.0826798;-0.008666;0.009136;-0.003369;0.00865307;0.0112045;0.0080379;41.455;48.43;59.78;44.807;45.855;51.405;40.95;0.247135;0.252639;0.105751;0.247641;0.256625;0.233381;15.5969850315;14.8611616309;11.7249093658;15.1626889453;15.6285523788;14.7902820088;0.00776418440038;0.00661911802634;0.00364256948929;0.00719165116917;0.00814913157273;0.00623417197304;2.13367;2.1901;2.31415;2.38822;2.83902;3.32634;10.1949;5.50383;2.27733;1.74656;2.07782;2.44685;2.80003;2.70594;2.12583;1.16968;1.49072;1.45144;1.5614;1.02517;0.503502;0.3423;0.256773;0.191703;0.153681;0.090207;0.057917;0.037318;0.028203;0.022903;0.018597;0.013986;0.011248;0.009519;0.008187;0.007191;1.6029;1.64007;1.81026;2.06374;2.25434;3.57574;8.53172;4.55838;2.64305;2.28874;1.94538;2.03153;2.05396;1.80665;1.58377;1.99725;1.96505;1.87997;1.48321;1.12312;0.656274;0.407435;0.25603;0.163757;0.141848;0.077102;0.050299;0.036183;0.028287;0.02378;0.018903;0.014273;0.011195;0.009135;0.007718;0.006681;1.24547;1.32987;1.66903;1.97455;2.11774;3.88455;4.04679;2.15752;1.20011;0.900573;0.727094;0.789854;1.04105;0.998031;0.995525;0.727018;0.757439;0.689432;0.6024;0.357558;0.24518;0.180874;0.116777;0.082891;0.048193;0.027485;0.021223;0.014748;0.011176;0.009756;0.008158;0.005517;0.004435;0.003571;0.002996;0.002603;1.872155;1.912605;2.06185;2.118875;2.56487;3.929455;9.447815;5.031635;2.46814;1.866225;2.002705;2.258255;2.48334;2.16331;1.839685;1.5806;1.56864;1.51351;1.447915;1.01667;0.539821;0.362278;0.2564015;0.179899;0.1434395;0.08921;0.0587955;0.039799;0.0300425;0.023999;0.018974;0.014172;0.0112215;0.009171;0.007834;0.006838;2.55879;2.61145;2.70545;2.9566;3.39645;4.31608;11.9684;6.90516;3.33991;2.3917;2.15073;2.8332;2.80634;2.71222;2.17233;1.99725;1.96924;1.87997;1.58352;1.15659;0.70391;0.418328;0.31842;0.248332;0.194852;0.115557;0.073576;0.05023;0.037819;0.030738;0.024222;0.017696;0.013746;0.011233;0.009456;0.008159;1.39933;1.43563;1.56648;1.81088;1.86445;3.32634;6.32193;3.04291;1.5738;1.40181;1.64567;1.51819;1.79877;1.59125;1.45922;1.16968;1.31893;1.15607;1.08255;0.876171;0.395037;0.24537;0.163806;0.147088;0.117877;0.069822;0.045738;0.033575;0.025686;0.02188;0.017386;0.012851;0.010222;0.008342;0.007053;0.006061;0.3628611355082811;0.10056401383322339
3;EMSC-20051213_0000038;2005-12-13 12:14:45;7952541;usp000e62y;;20051213_0000038;RO;45.7196;26.6254;134.4618;ISC-webservice;TF;5.0;ISC-webservice;4.76;ISC-webservice;3.5;ISC-webservice;4.8;Mw;RCMTS;;;;;;;;;;;RO;VRI;00;HN;0.0;0;ERR;;RO;45.8657;26.7277;475;;;;;;;;5.227826;597.891754;18.1;135.67455789218553;206.1;;;;;D;0;E;90.0;N;0.0;Z;0.1;0.1;0.1;30.0;30.0;30.0;8.0;4.8;134.4618;90;135.67455789218553;135.67455789218553;18.1;49.39;597.891754;False;31.07;4;13.169712;-7.10424;-2.563731;10.1422795;13.787924;5.113947;0.6327;-0.449714;-0.148001;0.5691605;0.637386;0.32323;0.042159;0.035742;0.014443;0.03782605;0.0462507;0.0282905;5.315;6.395;22.235;5.83;5.585;6.925;5.315;1.39209;1.03574;0.374618;1.209795;1.45033;0.901863;29.8026131965;17.4999459839;9.38846392827;24.3037138038;30.2475568843;15.8200400424;0.149041602382;0.0478291317649;0.00861419046574;0.0984353736871;0.160714681957;0.0361560529532;13.182;13.2988;13.5151;13.8704;14.3978;16.9847;26.1932;34.1191;45.359;52.8877;35.3718;26.2279;14.164;15.0709;11.6007;8.65859;7.61528;6.0271;4.30255;2.68935;2.16868;1.56677;1.11792;0.803226;0.607998;0.425805;0.300133;0.21889;0.16784;0.134784;0.106309;0.080791;0.063149;0.054998;0.046951;0.040084;7.10592;7.14305;7.21663;7.18956;7.77909;8.28301;13.6865;22.3491;23.762;26.0846;23.2426;15.7276;11.3836;12.4616;11.2065;6.62249;4.90913;4.40103;3.25022;2.50913;2.01261;1.07744;0.941483;0.727295;0.505483;0.357919;0.250421;0.185976;0.138586;0.113999;0.093714;0.06638;0.051681;0.04448;0.036643;0.032266;2.5653;2.5913;2.56886;2.7626;3.08181;4.70603;6.48619;7.37798;5.78644;11.3612;7.31929;4.23589;4.88109;5.00806;2.67186;3.26453;2.93266;2.48784;1.71191;1.30231;0.562351;0.380315;0.273174;0.194088;0.148028;0.094054;0.077491;0.063035;0.040581;0.035271;0.027092;0.024765;0.01596;0.01379;0.011718;0.01101;10.15565;10.24235;10.3926;10.63415;11.3809;13.1961;20.69395;28.6382;36.8003;39.7365;30.55605;20.12065;12.3485;12.88325;11.22795;7.253145;6.211205;5.19284;3.39354;2.65456;2.05774;1.29971;1.058375;0.796875;0.5854785;0.381908;0.2684895;0.2030565;0.154542;0.126076;0.1009875;0.079321;0.061393;0.053363;0.0450935;0.038492;13.7944;13.9284;14.1698;14.534;15.4999;17.7141;27.7188;38.5378;46.2365;54.1654;37.0538;26.8513;14.7904;16.2416;11.6531;8.71777;7.71107;6.14316;4.31051;3.27184;2.58055;1.82342;1.26162;1.02358;0.782574;0.472164;0.31518;0.226118;0.174091;0.150762;0.123085;0.092887;0.075777;0.063535;0.054907;0.048963;5.12167;5.15089;5.21847;5.183;5.85646;6.25934;11.3977;12.0777;16.9987;18.5668;22.2537;13.026;9.95107;10.5812;10.5013;5.9553;4.87143;4.14495;2.59169;1.76326;1.0804;0.762672;0.545882;0.495197;0.452277;0.317419;0.220873;0.1488;0.114933;0.092673;0.077866;0.05769;0.04246;0.035499;0.029923;0.024671;1.7437823900715912;0.4874771906216596
4;EMSC-20051218_0000030;2005-12-18 15:09:48;7996939;usp000e6cq;;20051218_0000030;RO;45.4249;26.0217;82.335;ISC-webservice;U;4.3;ISC-webservice;;;3.0;ISC-webservice;4.1;Mw;INFP;;;;;;;;;;;RO;VRI;00;HN;0.0;0;ERR;;RO;45.8657;26.7277;475;;;;;;;;5.227826;597.891754;73.7;110.50222723999728;228.6;;;;;D;0;E;90.0;N;0.0;Z;0.35;0.35;0.35;30.0;30.0;30.0;2.285714285714286;4.1;82.335;90;110.50222723999728;110.50222723999728;73.7;49.39;597.891754;False;31.07;4;0.90903;-0.494079;0.203206;0.692137;0.957552;0.494079;0.034153;-0.02336;-0.006938;0.0288442;0.0370327;0.0217493;0.001789;-0.001141;-0.000604;0.001612915;0.00205104;0.00113854;10.645;9.705;21.44;10.164;10.1825;14.015;8.645;0.0841508;0.0458455;0.0233381;0.06827755;0.0856967;0.0432062;3.13880312576;2.04051750904;1.27544535517;2.62709310888;3.23394156439;1.81988088015;0.000940156823701;0.000383510160928;8.3255464039e-05;0.000661833560548;0.00104655911596;0.000277107843906;0.912186;0.928376;0.951935;1.00762;1.15032;1.56425;2.75143;2.11793;2.36346;3.46297;2.19706;1.60439;1.17019;0.824167;0.849883;0.455095;0.39426;0.332464;0.353007;0.234571;0.114323;0.067426;0.04451;0.035351;0.028149;0.014559;0.010303;0.008563;0.006895;0.006012;0.005461;0.004236;0.003554;0.002958;0.002617;0.002323;0.494083;0.501745;0.524981;0.570434;0.630793;0.830624;1.31964;1.53026;1.45411;2.20406;1.52776;0.953981;0.567587;0.584205;0.324833;0.318224;0.200079;0.121675;0.10525;0.087605;0.058825;0.034047;0.026046;0.018865;0.018282;0.01219;0.008058;0.005358;0.005448;0.004208;0.003838;0.002858;0.002306;0.001884;0.001707;0.001523;0.203392;0.210357;0.240363;0.306027;0.367405;0.732262;0.510229;0.413041;0.533754;0.37984;0.379156;0.286909;0.44746;0.252522;0.258848;0.172252;0.12852;0.132783;0.112856;0.063541;0.036734;0.025507;0.017967;0.012861;0.007882;0.005947;0.005995;0.003858;0.002948;0.002351;0.002058;0.001475;0.001065;0.000784;0.000666;0.000565;0.6930745;0.7047845;0.726584;0.768744;0.9312845;1.27539;2.11014;1.877155;1.87014;2.879735;1.80507;1.33567;1.021565;0.7113235;0.682286;0.398183;0.3265505;0.28841;0.250608;0.181873;0.0850585;0.054043;0.036575;0.028923;0.025066;0.01338;0.009545;0.0073365;0.006206;0.0051565;0.0045315;0.0034125;0.00285;0.002403;0.0021165;0.001877;0.958528;0.973591;1.00097;1.06348;1.20288;1.56722;2.79109;2.16907;2.64189;3.89682;2.20837;1.63351;1.20532;0.837119;0.856179;0.490483;0.394731;0.339998;0.353007;0.237296;0.118634;0.0699;0.046145;0.035356;0.028316;0.01695;0.012712;0.009418;0.007885;0.006605;0.005851;0.004484;0.003772;0.003183;0.002804;0.00249;0.494083;0.500297;0.512959;0.557855;0.606447;0.813755;1.23991;1.26485;1.08159;1.70941;0.994102;0.84939;0.48858;0.561815;0.308384;0.25539;0.189497;0.121675;0.103169;0.087605;0.053848;0.031894;0.023531;0.018865;0.017599;0.010884;0.007471;0.005099;0.004644;0.003652;0.00303;0.002467;0.002022;0.001728;0.001505;0.001354;0.08150097739860242;0.02151243280961442
