;event_id;event_time;ISC_ev_id;USGS_ev_id;INGV_ev_id;EMSC_ev_id;ev_nation_code;ev_latitude;ev_longitude;ev_depth_km;ev_hyp_ref;fm_type_code;ML;ML_ref;Mw;Mw_ref;Ms;Ms_ref;EMEC_Mw;EMEC_Mw_type;EMEC_Mw_ref;event_source_id;es_strike;es_dip;es_rake;es_strike_dip_rake_ref;es_z_top;es_z_top_ref;es_length;es_width;es_geometry_ref;network_code;station_code;location_code;instrument_code;sensor_depth_m;proximity_code;housing_code;installation_code;st_nation_code;st_latitude;st_longitude;st_elevation;ec8_code;ec8_code_method;ec8_code_ref;vs30_m_sec;vs30_ref;vs30_calc_method;vs30_meas_type;slope_deg;vs30_m_sec_WA;epi_dist;hypo_dist;epi_az;JB_dist;rup_dist;Rx_dist;Ry0_dist;instrument_type_code;late_triggered_flag_01;U_channel_code;U_azimuth_deg;V_channel_code;V_azimuth_deg;W_channel_code;U_hp;V_hp;W_hp;U_lp;V_lp;W_lp;max_usable_T;mag;hypo_depth;rake;rhypo;rrup;rjb;xvf;vs30;vs30measured;z1pt0;region;U_pga;V_pga;W_pga;rotD50_pga;rotD100_pga;rotD00_pga;U_pgv;V_pgv;W_pgv;rotD50_pgv;rotD100_pgv;rotD00_pgv;U_pgd;V_pgd;W_pgd;rotD50_pgd;rotD100_pgd;rotD00_pgd;U_T90;V_T90;W_T90;GM_T90;rotD50_T90;rotD100_T90;rotD00_T90;U_housner;V_housner;W_housner;rotD50_housner;rotD100_housner;rotD00_housner;U_CAV;V_CAV;W_CAV;rotD50_CAV;rotD100_CAV;rotD00_CAV;U_ia;V_ia;W_ia;rotD50_ia;rotD100_ia;rotD00_ia;U_T0_010;U_T0_025;U_T0_040;U_T0_050;U_T0_070;U_T0_100;U_T0_150;U_T0_200;U_T0_250;U_T0_300;U_T0_350;U_T0_400;U_T0_450;U_T0_500;U_T0_600;U_T0_700;U_T0_750;U_T0_800;U_T0_900;U_T1_000;U_T1_200;U_T1_400;U_T1_600;U_T1_800;U_T2_000;U_T2_500;U_T3_000;U_T3_500;U_T4_000;U_T4_500;U_T5_000;U_T6_000;U_T7_000;U_T8_000;U_T9_000;U_T10_000;V_T0_010;V_T0_025;V_T0_040;V_T0_050;V_T0_070;V_T0_100;V_T0_150;V_T0_200;V_T0_250;V_T0_300;V_T0_350;V_T0_400;V_T0_450;V_T0_500;V_T0_600;V_T0_700;V_T0_750;V_T0_800;V_T0_900;V_T1_000;V_T1_200;V_T1_400;V_T1_600;V_T1_800;V_T2_000;V_T2_500;V_T3_000;V_T3_500;V_T4_000;V_T4_500;V_T5_000;V_T6_000;V_T7_000;V_T8_000;V_T9_000;V_T10_000;W_T0_010;W_T0_025;W_T0_040;W_T0_050;W_T0_070;W_T0_100;W_T0_150;W_T0_200;W_T0_250;W_T0_300;W_T0_350;W_T0_400;W_T0_450;W_T0_500;W_T0_600;W_T0_700;W_T0_750;W_T0_800;W_T0_900;W_T1_000;W_T1_200;W_T1_400;W_T1_600;W_T1_800;W_T2_000;W_T2_500;W_T3_000;W_T3_500;W_T4_000;W_T4_500;W_T5_000;W_T6_000;W_T7_000;W_T8_000;W_T9_000;W_T10_000;rotD50_T0_010;rotD50_T0_025;rotD50_T0_040;rotD50_T0_050;rotD50_T0_070;rotD50_T0_100;rotD50_T0_150;rotD50_T0_200;rotD50_T0_250;rotD50_T0_300;rotD50_T0_350;rotD50_T0_400;rotD50_T0_450;rotD50_T0_500;rotD50_T0_600;rotD50_T0_700;rotD50_T0_750;rotD50_T0_800;rotD50_T0_900;rotD50_T1_000;rotD50_T1_200;rotD50_T1_400;rotD50_T1_600;rotD50_T1_800;rotD50_T2_000;rotD50_T2_500;rotD50_T3_000;rotD50_T3_500;rotD50_T4_000;rotD50_T4_500;rotD50_T5_000;rotD50_T6_000;rotD50_T7_000;rotD50_T8_000;rotD50_T9_000;rotD50_T10_000;rotD100_T0_010;rotD100_T0_025;rotD100_T0_040;rotD100_T0_050;rotD100_T0_070;rotD100_T0_100;rotD100_T0_150;rotD100_T0_200;rotD100_T0_250;rotD100_T0_300;rotD100_T0_350;rotD100_T0_400;rotD100_T0_450;rotD100_T0_500;rotD100_T0_600;rotD100_T0_700;rotD100_T0_750;rotD100_T0_800;rotD100_T0_900;rotD100_T1_000;rotD100_T1_200;rotD100_T1_400;rotD100_T1_600;rotD100_T1_800;rotD100_T2_000;rotD100_T2_500;rotD100_T3_000;rotD100_T3_500;rotD100_T4_000;rotD100_T4_500;rotD100_T5_000;rotD100_T6_000;rotD100_T7_000;rotD100_T8_000;rotD100_T9_000;rotD100_T10_000;rotD00_T0_010;rotD00_T0_025;rotD00_T0_040;rotD00_T0_050;rotD00_T0_070;rotD00_T0_100;rotD00_T0_150;rotD00_T0_200;rotD00_T0_250;rotD00_T0_300;rotD00_T0_350;rotD00_T0_400;rotD00_T0_450;rotD00_T0_500;rotD00_T0_600;rotD00_T0_700;rotD00_T0_750;rotD00_T0_800;rotD00_T0_900;rotD00_T1_000;rotD00_T1_200;rotD00_T1_400;rotD00_T1_600;rotD00_T1_800;rotD00_T2_000;rotD00_T2_500;rotD00_T3_000;rotD00_T3_500;rotD00_T4_000;rotD00_T4_500;rotD00_T5_000;rotD00_T6_000;rotD00_T7_000;rotD00_T8_000;rotD00_T9_000;rotD00_T10_000;rotD50_AvgSA[0,3];rotD50_AvgSA[0,6]
10;EMSC-20061118_0000084;2006-11-18 16:14:06;8971685;usp000ey5r;;20061118_0000084;RO;45.6235;26.6277;145.4513;ISC-webservice;U;4.5;EMSC-CSEM;;;;;4.1;Mw;INFP;;;;;;;;;;;GE;TIRR;00;HN;3.0;;;;RO;44.4581;28.4128;77;;;;;;;;0.383942;302.057214;191.2;240.23638498714135;313.3;;;;;D;0;E;90.0;N;0.0;Z;0.35;0.35;0.35;30.0;30.0;30.0;2.285714285714286;4.1;145.4513;90;240.23638498714135;240.23638498714135;191.2;150.0;302.057214;False;31.07;5;-0.121217;0.154209;-0.151401;0.1226275;0.160024;0.108206;-0.002097;0.003108;0.003099;0.002527235;0.00337563;0.0020228;-6.2e-05;-0.000123;-0.000182;0.0001182775;0.000150581;6.77842e-05;49.51;52.94;51.81;51.196;51.915;53.255;48.315;0.00249;0.0045226;0.00559627;0.00366834;0.0045226;0.00247426;0.604561909985;0.730253835235;0.819983724747;0.673036410114;0.784064640196;0.538221205112;1.35619795276e-05;2.06934210314e-05;2.56838776597e-05;1.71276992029e-05;2.29516880341e-05;1.13037122625e-05;0.125258;0.164806;0.276377;0.312709;0.304952;0.361678;0.161391;0.203576;0.112939;0.088106;0.052104;0.03523;0.023316;0.020378;0.014214;0.012754;0.011297;0.009271;0.005142;0.00367;0.002258;0.001737;0.001299;0.001042;0.000911;0.000662;0.000427;0.000418;0.000365;0.000278;0.000255;0.000201;0.000164;0.000146;0.000131;0.00012;0.15683;0.169282;0.28473;0.227464;0.513712;0.435159;0.282583;0.41756;0.215671;0.107288;0.074492;0.056325;0.040064;0.034742;0.023593;0.024283;0.021936;0.019315;0.013146;0.008737;0.005852;0.003983;0.003223;0.002431;0.001822;0.001265;0.001024;0.000768;0.000644;0.00061;0.000481;0.000378;0.000317;0.000274;0.000236;0.000209;0.152247;0.160119;0.225866;0.319296;0.469915;0.589913;0.29622;0.366046;0.236792;0.088752;0.052018;0.036417;0.036177;0.031033;0.023879;0.027489;0.030007;0.030051;0.021804;0.018981;0.010604;0.007103;0.005149;0.003853;0.003156;0.001968;0.001219;0.000876;0.000698;0.000603;0.000506;0.000388;0.00031;0.000256;0.000221;0.000198;0.1254995;0.1635835;0.2841365;0.2479;0.389879;0.3670675;0.2181655;0.317388;0.162306;0.0959785;0.0593065;0.044643;0.036455;0.0278815;0.0188285;0.017266;0.0157885;0.014371;0.010651;0.0075085;0.005102;0.003417;0.002594;0.001975;0.001648;0.00116;0.0008015;0.0006185;0.0005325;0.0004405;0.0004;0.0003165;0.0002575;0.0002195;0.000192;0.0001715;0.161708;0.176955;0.309005;0.313091;0.529127;0.493121;0.292346;0.437618;0.228322;0.124495;0.074492;0.059017;0.042657;0.037141;0.02365;0.024312;0.02195;0.019315;0.013183;0.008872;0.005935;0.004207;0.003404;0.002528;0.001969;0.001306;0.001034;0.000777;0.000649;0.000623;0.000498;0.000386;0.000324;0.000279;0.00024;0.000213;0.115011;0.143022;0.242304;0.206958;0.27756;0.261619;0.154311;0.130849;0.095783;0.069143;0.048213;0.034737;0.023091;0.019869;0.01163;0.009102;0.007009;0.006076;0.004066;0.003152;0.002258;0.001715;0.001299;0.001013;0.000842;0.000614;0.000427;0.000409;0.000347;0.000276;0.000255;0.000198;0.000163;0.000144;0.000129;0.000119;0.005349948782360569;0.0017430043986232926
11;EMSC-20061118_0000084;2006-11-18 16:14:06;8971685;usp000ey5r;;20061118_0000084;RO;45.6235;26.6277;145.4513;ISC-webservice;U;4.5;EMSC-CSEM;;;;;4.1;Mw;INFP;;;;;;;;;;;RO;MLR;00;HN;0.0;;;;RO;45.4909;25.945;1392;;;;;;;;27.402644;1305.613413;55.3;155.60903145926332;74.3;;;;;D;0;E;90.0;N;0.0;Z;0.3;0.3;0.3;30.0;30.0;30.0;2.666666666666667;4.1;145.4513;90;155.60903145926332;155.60903145926332;55.3;18.0;1305.613413;False;31.07;4;-0.03832;0.050801;-0.039779;0.0461305;0.051785;0.037263;0.001472;0.001957;0.001545;0.00179519;0.00197786;0.0013778;-0.00018;0.000233;-0.000116;0.000192699;0.000236484;0.00012427;18.01;18.88;19.685;18.44;18.6425;19.11;17.895;0.00471241;0.0050006;0.00386747;0.004745035;0.00509887;0.0044515;0.128500134943;0.132618339977;0.133968264981;0.129271995021;0.132618339977;0.124913320008;1.41336858725e-06;1.48629241852e-06;1.504436939e-06;1.44982910069e-06;1.61597370756e-06;1.28368822977e-06;0.038342;0.038926;0.041036;0.04181;0.044595;0.072558;0.132023;0.164626;0.104131;0.083629;0.064071;0.055152;0.051587;0.049734;0.037116;0.024497;0.017608;0.013731;0.011097;0.010655;0.010253;0.008545;0.005507;0.004739;0.003795;0.001976;0.001144;0.00084;0.000576;0.000524;0.000379;0.00028;0.000207;0.000162;0.000136;0.000114;0.050892;0.051394;0.052599;0.053865;0.056055;0.103304;0.128495;0.176906;0.14495;0.1128;0.117206;0.087878;0.064696;0.047422;0.038503;0.030501;0.026626;0.021504;0.014866;0.010273;0.009017;0.006373;0.004059;0.003236;0.002614;0.001863;0.001264;0.00104;0.000691;0.000611;0.000475;0.000399;0.000322;0.000261;0.000217;0.000188;0.039822;0.041245;0.042476;0.04418;0.052491;0.084079;0.113449;0.116006;0.079913;0.078442;0.110373;0.126035;0.087307;0.045668;0.027986;0.01918;0.013504;0.009791;0.007437;0.006471;0.004987;0.00486;0.003776;0.002662;0.001965;0.000947;0.000648;0.000513;0.000477;0.000385;0.000346;0.000214;0.000181;0.000152;0.000131;0.000115;0.0462325;0.046968;0.0475475;0.0492155;0.0515435;0.077258;0.127138;0.1695295;0.1048495;0.099039;0.0923965;0.072355;0.05425;0.0451245;0.037858;0.0288225;0.0226965;0.0176145;0.0130835;0.010464;0.0095305;0.00754;0.0050865;0.0041095;0.003206;0.0019185;0.0012045;0.000947;0.000637;0.0005285;0.000432;0.00035;0.0002755;0.0002245;0.0001875;0.0001625;0.051845;0.052007;0.053451;0.054871;0.056317;0.104594;0.132831;0.215183;0.14495;0.117885;0.127778;0.097526;0.067602;0.049933;0.045184;0.037344;0.030595;0.024475;0.017688;0.013954;0.010467;0.010127;0.006777;0.004863;0.003961;0.002442;0.001495;0.001181;0.000771;0.000641;0.000516;0.000421;0.00033;0.000266;0.000221;0.00019;0.037358;0.037766;0.038838;0.039607;0.043157;0.061085;0.103582;0.093226;0.089342;0.052558;0.03628;0.038841;0.046274;0.035319;0.023173;0.015461;0.013848;0.011591;0.008521;0.006505;0.006984;0.004432;0.003176;0.002316;0.001886;0.001054;0.000796;0.000566;0.000476;0.000386;0.000309;0.000232;0.000193;0.000149;0.000124;0.000108;0.0077685924087474234;0.0022136479890249266
12;EMSC-20061119_0000081;2006-11-19 20:51:13;9749500;usp000ey9y;;20061119_0000081;RO;45.6795;26.5955;149.8173;ISC-webservice;U;4.1;ISC-webservice;;;3.4;ISC-webservice;4.3;Mw;INFP;;;;;;;;;;;GE;TIRR;00;HN;3.0;;;;RO;44.4581;28.4128;77;;;;;;;;0.383942;302.057214;197.2;247.65512992726394;314.1;;;;;D;0;E;90.0;N;0.0;Z;0.15;0.15;0.15;30.0;30.0;30.0;5.333333333333334;4.3;149.8173;90;247.65512992726394;247.65512992726394;197.2;150.0;302.057214;False;31.07;5;0.254914;-0.312312;-0.319475;0.2639315;0.315835;0.165328;-0.003119;0.006125;0.008784;0.00474359;0.0061598;0.00277705;0.000185;0.000314;0.000446;0.000276321;0.00037638;0.000163101;49.805;51.895;50.485;50.839;51.09;51.905;49.12;0.00530183;0.00963599;0.0143988;0.007643205;0.0100315;0.00482593;1.65281756898;1.99866943484;2.2101569002;1.83750193694;2.24613181402;1.31784857488;0.000102623346301;0.000150698754796;0.00018765304619;0.000126661059897;0.00018517372648;6.81483439581e-05;0.266261;0.454632;0.646666;0.562531;0.479242;0.532491;0.397133;0.200306;0.144088;0.123977;0.086969;0.099028;0.085024;0.06049;0.049173;0.029808;0.025305;0.022532;0.015301;0.012022;0.006518;0.004652;0.003704;0.002725;0.002233;0.001192;0.001196;0.000725;0.000643;0.000662;0.000582;0.000424;0.000348;0.000308;0.00022;0.000199;0.317642;0.356623;0.781772;0.750596;0.67208;1.0056;0.536294;0.463397;0.294865;0.189488;0.249712;0.18968;0.151227;0.114137;0.066246;0.041107;0.032166;0.028013;0.023449;0.020477;0.013592;0.009618;0.006907;0.005174;0.003922;0.002725;0.001758;0.001563;0.001461;0.001225;0.00113;0.000883;0.000627;0.000555;0.000532;0.000466;0.325626;0.386805;0.872901;0.939012;0.768794;0.798512;0.57843;0.533752;0.375097;0.175322;0.231979;0.125571;0.090489;0.072585;0.095915;0.08955;0.079098;0.071522;0.060316;0.046867;0.029791;0.020766;0.014839;0.011152;0.00909;0.004919;0.003738;0.002502;0.002207;0.001777;0.00141;0.001325;0.000949;0.000805;0.000717;0.000641;0.2757305;0.3595095;0.7522985;0.652034;0.511542;0.716642;0.4298105;0.365084;0.233083;0.147385;0.182736;0.150703;0.1161225;0.0895945;0.057642;0.034779;0.028075;0.022814;0.0199805;0.0182805;0.011584;0.00813;0.0052935;0.003961;0.0030705;0.002077;0.0015225;0.0012745;0.001174;0.000981;0.000939;0.000685;0.000509;0.00045;0.0004065;0.000352;0.320155;0.495124;0.880511;0.824179;0.691509;1.0056;0.536294;0.503039;0.299641;0.191396;0.249712;0.193194;0.158733;0.124395;0.072058;0.044754;0.035088;0.029149;0.024682;0.021069;0.014254;0.010167;0.007453;0.005591;0.00426;0.002764;0.001866;0.001698;0.001506;0.001225;0.001199;0.000899;0.000647;0.000578;0.000541;0.000472;0.167948;0.223333;0.495676;0.52995;0.400892;0.456597;0.330969;0.148821;0.136747;0.101941;0.086969;0.071569;0.046933;0.046303;0.023959;0.018521;0.019598;0.020068;0.013926;0.010517;0.006039;0.00394;0.002896;0.002337;0.001785;0.001192;0.001111;0.000721;0.000627;0.000662;0.000527;0.000397;0.000324;0.000287;0.000201;0.000181;0.011156233226084045;0.0037161694154765755
13;EMSC-20061119_0000081;2006-11-19 20:51:13;9749500;usp000ey9y;;20061119_0000081;RO;45.6795;26.5955;149.8173;ISC-webservice;U;4.1;ISC-webservice;;;3.4;ISC-webservice;4.3;Mw;INFP;;;;;;;;;;;RO;MLR;00;HN;0.0;;;;RO;45.4909;25.945;1392;;;;;;;;27.402644;1305.613413;54.9;159.5594979287977;67.3;;;;;D;0;E;90.0;N;0.0;Z;0.35;0.35;0.35;30.0;30.0;30.0;2.285714285714286;4.3;149.8173;90;159.5594979287977;159.5594979287977;54.9;18.0;1305.613413;False;31.07;4;-0.051254;0.046509;0.120894;0.048022;0.053722;0.040851;-0.002022;0.002568;0.002715;0.002135305;0.00270524;0.0018713;-0.000185;0.000269;-0.000154;0.0002169545;0.000311334;0.000170482;20.245;20.17;18.915;20.207;20.2225;20.985;19.25;0.00559566;0.00611186;0.00408301;0.005763685;0.00624721;0.00553945;0.179488539961;0.196662800085;0.197692414988;0.188783387533;0.197903595128;0.178319160056;2.91618195064e-06;3.23877069483e-06;4.46098601438e-06;3.07747563351e-06;3.25246161294e-06;2.90249645249e-06;0.051371;0.052534;0.056721;0.05534;0.098143;0.141156;0.222665;0.118406;0.083226;0.115039;0.103259;0.115557;0.115567;0.079331;0.045272;0.036962;0.031279;0.021805;0.012935;0.009405;0.007067;0.006544;0.00544;0.004291;0.003425;0.001915;0.000988;0.000663;0.000519;0.000471;0.000378;0.00028;0.000206;0.000174;0.000152;0.000135;0.04712;0.049784;0.060728;0.072199;0.089622;0.158099;0.114112;0.140852;0.166075;0.136055;0.13393;0.065486;0.062843;0.066297;0.074329;0.048146;0.042942;0.03341;0.02156;0.014256;0.007797;0.006284;0.004725;0.003715;0.003117;0.002156;0.001561;0.001137;0.000926;0.000746;0.000608;0.000477;0.000365;0.000304;0.000259;0.000225;0.120896;0.125273;0.139163;0.148224;0.15913;0.346385;0.315946;0.167832;0.107659;0.099083;0.074333;0.077667;0.064273;0.046298;0.022944;0.015643;0.013343;0.011321;0.008882;0.007792;0.006139;0.004902;0.003778;0.002852;0.002271;0.001341;0.000988;0.000802;0.000611;0.000536;0.000465;0.000363;0.000292;0.000243;0.000211;0.000183;0.048421;0.050919;0.056711;0.060085;0.0922085;0.16562;0.164906;0.1417315;0.1246595;0.1219985;0.1039305;0.088852;0.1006875;0.074409;0.0570775;0.042158;0.0360195;0.027056;0.0190825;0.0132125;0.007569;0.006414;0.0050475;0.0040715;0.003161;0.0019035;0.001221;0.000876;0.0007055;0.0005645;0.0004535;0.000351;0.0002715;0.0002265;0.000193;0.0001685;0.053895;0.055187;0.061522;0.073755;0.101081;0.186003;0.224691;0.153655;0.166075;0.139046;0.13393;0.11881;0.12329;0.097683;0.074566;0.058839;0.048799;0.036226;0.023034;0.015332;0.009248;0.008112;0.006515;0.004319;0.003425;0.00237;0.001727;0.001239;0.000998;0.000798;0.000639;0.000494;0.000381;0.000317;0.000269;0.000234;0.040869;0.041313;0.044492;0.053786;0.084548;0.14093;0.108439;0.107544;0.082139;0.097033;0.093115;0.061284;0.057386;0.049109;0.042402;0.026561;0.02287;0.018845;0.011952;0.008954;0.006759;0.004603;0.003328;0.002468;0.002014;0.001227;0.000855;0.000627;0.000509;0.000436;0.00034;0.000271;0.000206;0.000167;0.000146;0.00013;0.008258578313913658;0.002299555275954725
14;EMSC-20070117_0000067;2007-01-17 13:17:22;10388518;usp000f2v8;;20070117_0000067;RO;45.5538;26.381;120.4817;ISC-webservice;TF;4.3;ISC-webservice;4.35;ISC-webservice;;;4.4;Mw;RCMTS;;;;;;;;;;;GE;TIRR;00;HN;3.0;;;;RO;44.4581;28.4128;77;;;;;;;;0.383942;302.057214;201.2;234.51498893437494;308.0;;;;;D;0;E;90.0;N;0.0;Z;0.1;0.1;0.1;30.0;30.0;30.0;8.0;4.4;120.4817;90;234.51498893437494;234.51498893437494;201.2;150.0;302.057214;False;31.07;5;0.402185;0.691644;0.759498;0.5199785;0.693822;0.348073;0.011513;0.019413;0.027943;0.0182132;0.0220552;0.00998503;0.001471;0.001434;-0.002063;0.001405625;0.00192807;0.000710201;48.595;46.875;47.15;47.727;47.995;48.995;46.8;0.0303218;0.0445358;0.0541838;0.0371895;0.0484839;0.0268439;3.76603237084;4.8025451927;4.97652078267;4.33703164347;5.21047234219;3.18083841531;0.000500483068284;0.000852450381609;0.000961785785717;0.000676466730793;0.000977458408967;0.000375475147419;0.410469;0.574645;1.33077;1.37552;1.37173;0.698205;0.85728;0.670415;0.536496;0.485431;0.297374;0.229032;0.230899;0.256277;0.248122;0.224206;0.201368;0.187765;0.139262;0.109077;0.068386;0.043039;0.03144;0.023113;0.017782;0.010608;0.007363;0.006149;0.005346;0.00423;0.003123;0.002385;0.002169;0.00164;0.001398;0.001139;0.69402;0.758165;1.56915;1.54707;1.77081;1.35118;1.21391;1.09906;1.5541;1.18897;0.783143;0.701132;0.507351;0.415067;0.345239;0.320549;0.289633;0.227943;0.163961;0.124221;0.075097;0.047866;0.030498;0.023172;0.018183;0.011739;0.008167;0.006026;0.004848;0.004485;0.003825;0.003099;0.002352;0.001865;0.001554;0.001347;0.762857;0.855883;1.71345;2.13057;2.12736;1.70007;1.49822;1.87052;1.69943;1.55371;0.893953;0.524523;0.434326;0.479903;0.525297;0.364838;0.277724;0.221245;0.166776;0.138425;0.096773;0.05975;0.047739;0.039334;0.032694;0.021302;0.014187;0.010224;0.007764;0.006465;0.004972;0.004028;0.002705;0.002294;0.002012;0.001821;0.527724;0.6880395;1.465075;1.354065;1.50395;1.01067;1.08224;1.05475;1.22909;1.01819;0.5898325;0.5338745;0.3587515;0.3180245;0.2892545;0.2657935;0.2444925;0.2085405;0.152722;0.1168975;0.071123;0.044958;0.030969;0.0231425;0.0178865;0.011321;0.0078575;0.0060875;0.0050675;0.0043575;0.003501;0.002753;0.0022915;0.001779;0.0014835;0.0012595;0.695261;0.81377;1.79995;1.55562;1.93831;1.3646;1.22408;1.14593;1.5541;1.1979;0.783143;0.701131;0.507351;0.419704;0.388921;0.370953;0.32036;0.281554;0.204899;0.156698;0.093335;0.05751;0.038119;0.029918;0.024048;0.015461;0.010567;0.008124;0.006717;0.005607;0.004397;0.003545;0.002889;0.002255;0.001907;0.001625;0.35436;0.436205;0.95287;1.15082;1.0782;0.692351;0.851163;0.670416;0.455773;0.485431;0.289651;0.221824;0.175449;0.162679;0.222065;0.135649;0.105337;0.08672;0.081706;0.060539;0.035431;0.019421;0.014855;0.012593;0.011365;0.007693;0.005864;0.004002;0.002844;0.002117;0.002005;0.001549;0.001098;0.000942;0.000848;0.000724;0.0565365335660664;0.016633964503899337
