;event_id;event_time;ISC_ev_id;USGS_ev_id;INGV_ev_id;EMSC_ev_id;ev_nation_code;ev_latitude;ev_longitude;ev_depth_km;ev_hyp_ref;fm_type_code;ML;ML_ref;Mw;Mw_ref;Ms;Ms_ref;EMEC_Mw;EMEC_Mw_type;EMEC_Mw_ref;event_source_id;es_strike;es_dip;es_rake;es_strike_dip_rake_ref;es_z_top;es_z_top_ref;es_length;es_width;es_geometry_ref;network_code;station_code;location_code;instrument_code;sensor_depth_m;proximity_code;housing_code;installation_code;st_nation_code;st_latitude;st_longitude;st_elevation;ec8_code;ec8_code_method;ec8_code_ref;vs30_m_sec;vs30_ref;vs30_calc_method;vs30_meas_type;slope_deg;vs30_m_sec_WA;epi_dist;hypo_dist;epi_az;JB_dist;rup_dist;Rx_dist;Ry0_dist;instrument_type_code;late_triggered_flag_01;U_channel_code;U_azimuth_deg;V_channel_code;V_azimuth_deg;W_channel_code;U_hp;V_hp;W_hp;U_lp;V_lp;W_lp;max_usable_T;mag;hypo_depth;rake;rhypo;rrup;rjb;xvf;vs30;vs30measured;z1pt0;region;U_pga;V_pga;W_pga;rotD50_pga;rotD100_pga;rotD00_pga;U_pgv;V_pgv;W_pgv;rotD50_pgv;rotD100_pgv;rotD00_pgv;U_pgd;V_pgd;W_pgd;rotD50_pgd;rotD100_pgd;rotD00_pgd;U_T90;V_T90;W_T90;GM_T90;rotD50_T90;rotD100_T90;rotD00_T90;U_housner;V_housner;W_housner;rotD50_housner;rotD100_housner;rotD00_housner;U_CAV;V_CAV;W_CAV;rotD50_CAV;rotD100_CAV;rotD00_CAV;U_ia;V_ia;W_ia;rotD50_ia;rotD100_ia;rotD00_ia;U_T0_010;U_T0_025;U_T0_040;U_T0_050;U_T0_070;U_T0_100;U_T0_150;U_T0_200;U_T0_250;U_T0_300;U_T0_350;U_T0_400;U_T0_450;U_T0_500;U_T0_600;U_T0_700;U_T0_750;U_T0_800;U_T0_900;U_T1_000;U_T1_200;U_T1_400;U_T1_600;U_T1_800;U_T2_000;U_T2_500;U_T3_000;U_T3_500;U_T4_000;U_T4_500;U_T5_000;U_T6_000;U_T7_000;U_T8_000;U_T9_000;U_T10_000;V_T0_010;V_T0_025;V_T0_040;V_T0_050;V_T0_070;V_T0_100;V_T0_150;V_T0_200;V_T0_250;V_T0_300;V_T0_350;V_T0_400;V_T0_450;V_T0_500;V_T0_600;V_T0_700;V_T0_750;V_T0_800;V_T0_900;V_T1_000;V_T1_200;V_T1_400;V_T1_600;V_T1_800;V_T2_000;V_T2_500;V_T3_000;V_T3_500;V_T4_000;V_T4_500;V_T5_000;V_T6_000;V_T7_000;V_T8_000;V_T9_000;V_T10_000;W_T0_010;W_T0_025;W_T0_040;W_T0_050;W_T0_070;W_T0_100;W_T0_150;W_T0_200;W_T0_250;W_T0_300;W_T0_350;W_T0_400;W_T0_450;W_T0_500;W_T0_600;W_T0_700;W_T0_750;W_T0_800;W_T0_900;W_T1_000;W_T1_200;W_T1_400;W_T1_600;W_T1_800;W_T2_000;W_T2_500;W_T3_000;W_T3_500;W_T4_000;W_T4_500;W_T5_000;W_T6_000;W_T7_000;W_T8_000;W_T9_000;W_T10_000;rotD50_T0_010;rotD50_T0_025;rotD50_T0_040;rotD50_T0_050;rotD50_T0_070;rotD50_T0_100;rotD50_T0_150;rotD50_T0_200;rotD50_T0_250;rotD50_T0_300;rotD50_T0_350;rotD50_T0_400;rotD50_T0_450;rotD50_T0_500;rotD50_T0_600;rotD50_T0_700;rotD50_T0_750;rotD50_T0_800;rotD50_T0_900;rotD50_T1_000;rotD50_T1_200;rotD50_T1_400;rotD50_T1_600;rotD50_T1_800;rotD50_T2_000;rotD50_T2_500;rotD50_T3_000;rotD50_T3_500;rotD50_T4_000;rotD50_T4_500;rotD50_T5_000;rotD50_T6_000;rotD50_T7_000;rotD50_T8_000;rotD50_T9_000;rotD50_T10_000;rotD100_T0_010;rotD100_T0_025;rotD100_T0_040;rotD100_T0_050;rotD100_T0_070;rotD100_T0_100;rotD100_T0_150;rotD100_T0_200;rotD100_T0_250;rotD100_T0_300;rotD100_T0_350;rotD100_T0_400;rotD100_T0_450;rotD100_T0_500;rotD100_T0_600;rotD100_T0_700;rotD100_T0_750;rotD100_T0_800;rotD100_T0_900;rotD100_T1_000;rotD100_T1_200;rotD100_T1_400;rotD100_T1_600;rotD100_T1_800;rotD100_T2_000;rotD100_T2_500;rotD100_T3_000;rotD100_T3_500;rotD100_T4_000;rotD100_T4_500;rotD100_T5_000;rotD100_T6_000;rotD100_T7_000;rotD100_T8_000;rotD100_T9_000;rotD100_T10_000;rotD00_T0_010;rotD00_T0_025;rotD00_T0_040;rotD00_T0_050;rotD00_T0_070;rotD00_T0_100;rotD00_T0_150;rotD00_T0_200;rotD00_T0_250;rotD00_T0_300;rotD00_T0_350;rotD00_T0_400;rotD00_T0_450;rotD00_T0_500;rotD00_T0_600;rotD00_T0_700;rotD00_T0_750;rotD00_T0_800;rotD00_T0_900;rotD00_T1_000;rotD00_T1_200;rotD00_T1_400;rotD00_T1_600;rotD00_T1_800;rotD00_T2_000;rotD00_T2_500;rotD00_T3_000;rotD00_T3_500;rotD00_T4_000;rotD00_T4_500;rotD00_T5_000;rotD00_T6_000;rotD00_T7_000;rotD00_T8_000;rotD00_T9_000;rotD00_T10_000;rotD50_AvgSA[0,3];rotD50_AvgSA[0,6]
25;EMSC-20070505_0000103;2007-05-05 17:30:09;12648643;usp000fbag;;20070505_0000103;RO;45.7082;26.6582;97.1381;ISC-webservice;U;4.1;EMSC-CSEM;;;;;3.8;Mw;INFP;;;;;;;;;;;GE;TIRR;00;HN;3.0;;;;RO;44.4581;28.4128;77;;;;;;;;0.383942;302.057214;195.9;218.66097153266745;315.8;;;;;D;0;E;90.0;N;0.0;Z;0.25;0.25;0.25;30.0;30.0;30.0;3.2;3.8;97.1381;90;218.66097153266745;218.66097153266745;195.9;150.0;302.057214;False;31.07;5;-0.285055;0.515042;-0.526131;0.4086195;0.521773;0.218795;0.003547;0.006384;0.007842;0.00560834;0.00658994;0.00339003;0.000151;-0.000167;0.000177;0.0001508465;0.000176013;0.000125902;38.91;33.86;32.14;36.297;37.915;38.91;33.675;0.00434227;0.00651561;0.00607394;0.005440855;0.00651561;0.00393777;1.45973864558;1.92913492561;2.08715922505;1.71448542794;2.10306502591;1.18606039055;0.000112900678761;0.000245411823268;0.000284228356592;0.000179156262012;0.000282157389904;7.61551307412e-05;0.299751;0.448911;0.970488;0.829942;0.82786;0.612286;0.536459;0.234607;0.152961;0.120512;0.088261;0.054044;0.041278;0.034338;0.021676;0.015229;0.01435;0.013558;0.011266;0.008722;0.005892;0.004623;0.003388;0.002672;0.001939;0.001555;0.001602;0.001008;0.000856;0.000782;0.000652;0.000497;0.000395;0.000333;0.000288;0.00026;0.543948;0.725191;1.67148;1.55154;1.49826;1.00797;0.662083;0.334751;0.323362;0.181599;0.104651;0.112584;0.072392;0.061374;0.036123;0.02644;0.023582;0.019722;0.01213;0.00956;0.006802;0.00561;0.004668;0.003865;0.003198;0.002426;0.001629;0.001256;0.001042;0.000953;0.000785;0.000622;0.000537;0.000481;0.000429;0.000388;0.538461;0.637828;1.94238;1.89089;1.84091;1.2579;0.860456;0.445958;0.251119;0.17483;0.111212;0.069753;0.041537;0.031698;0.025549;0.018336;0.016275;0.014347;0.012722;0.010162;0.007426;0.004921;0.003503;0.003014;0.002837;0.002283;0.001753;0.001418;0.001225;0.001125;0.001025;0.00084;0.000697;0.000617;0.000545;0.000487;0.4193725;0.5937745;1.53946;1.16883;1.1985;0.751693;0.6533155;0.2736735;0.2315745;0.138643;0.10387;0.079609;0.0601825;0.0505825;0.0293025;0.021411;0.017237;0.0150425;0.011326;0.0087725;0.0064225;0.004988;0.0038165;0.003242;0.002445;0.002026;0.0015945;0.0011665;0.00096;0.00091;0.000767;0.000606;0.0005015;0.0004455;0.0003915;0.000353;0.54924;0.743788;1.74697;1.55154;1.6536;1.0119;0.785015;0.335292;0.323362;0.181599;0.113946;0.112584;0.073146;0.061374;0.036123;0.026582;0.023584;0.019827;0.01373;0.011241;0.006995;0.005642;0.004703;0.003913;0.003325;0.002472;0.001867;0.001281;0.001141;0.000955;0.00083;0.00069;0.000615;0.000541;0.000471;0.00042;0.224921;0.31508;0.729936;0.777792;0.66447;0.565458;0.344269;0.177486;0.134525;0.10008;0.067416;0.043533;0.036533;0.034338;0.02111;0.014043;0.012757;0.011952;0.009593;0.007931;0.005358;0.003592;0.002559;0.002087;0.001939;0.001555;0.001122;0.000715;0.00063;0.000557;0.000453;0.000369;0.000299;0.00026;0.000235;0.00021;0.008876470616264022;0.003192526380283004
26;EMSC-20070505_0000103;2007-05-05 17:30:09;12648643;usp000fbag;;20070505_0000103;RO;45.7082;26.6582;97.1381;ISC-webservice;U;4.1;EMSC-CSEM;;;;;3.8;Mw;INFP;;;;;;;;;;;RO;IAS;00;HN;0.0;;;;RO;47.1931;27.553;195;;;;;;;;6.846236;690.214592;178.8;203.48280141478787;202.9;;;;;D;0;E;90.0;N;0.0;Z;0.35;0.35;0.35;30.0;30.0;30.0;2.285714285714286;3.8;97.1381;90;203.48280141478787;203.48280141478787;178.8;145.65;690.214592;False;31.07;4;-0.66823;-0.486353;0.331346;0.6122225;0.671947;0.40781;-0.012935;-0.009398;-0.00648;0.0112626;0.0133886;0.00776707;0.000443;0.000402;0.000211;0.0004218045;0.00054417;0.000287666;54.72;86.505;99.38;68.801;71.485;95.045;41.07;0.0158152;0.0131185;0.00818328;0.0145679;0.0166238;0.0129763;2.38665611517;2.24472317013;2.3784075402;2.32671774612;2.3881566554;2.24360000535;0.000232424762759;0.000144167243346;0.000138273455528;0.000188295985005;0.000239223608353;0.000137368416439;0.679629;0.734062;0.952759;0.898191;1.20374;1.44714;1.96906;0.938473;0.417686;0.428726;0.281845;0.192343;0.132845;0.092717;0.091998;0.061287;0.054721;0.052447;0.049342;0.03442;0.02046;0.011754;0.008836;0.008517;0.006774;0.004531;0.003339;0.002884;0.002328;0.00216;0.001672;0.001252;0.001076;0.00093;0.000835;0.000758;0.488407;0.528358;0.720166;0.931181;1.05963;1.26289;1.10495;0.47186;0.496682;0.383194;0.276247;0.197328;0.128298;0.104577;0.081741;0.058781;0.048887;0.039962;0.029206;0.022256;0.013856;0.008372;0.010684;0.008818;0.008634;0.007364;0.004348;0.002757;0.001658;0.001421;0.001155;0.000843;0.000753;0.000676;0.000599;0.000544;0.338092;0.381249;0.61508;0.910428;1.02066;0.869008;0.702668;0.443947;0.240484;0.233679;0.131278;0.085925;0.075954;0.064081;0.044701;0.022633;0.022877;0.021972;0.014485;0.011875;0.008774;0.008992;0.00876;0.006356;0.004937;0.003578;0.004094;0.0023;0.001562;0.001272;0.000901;0.000727;0.000553;0.000541;0.000487;0.00039;0.6149375;0.662437;0.8638285;0.938022;1.10735;1.39856;1.48163;0.784005;0.430699;0.400832;0.279046;0.1947645;0.134745;0.107664;0.086096;0.060034;0.0517015;0.0462825;0.040161;0.027952;0.0161225;0.010101;0.0110865;0.008752;0.0083585;0.0069385;0.003738;0.002829;0.0021575;0.0018095;0.001614;0.0013035;0.001088;0.0009305;0.000821;0.000729;0.683415;0.738035;0.96599;0.981228;1.42978;1.68738;2.0621;0.975072;0.58654;0.449255;0.351145;0.215038;0.141472;0.125216;0.111634;0.075157;0.066388;0.061779;0.05604;0.039084;0.022456;0.012118;0.012822;0.009518;0.009137;0.007472;0.004433;0.003145;0.002534;0.002318;0.001978;0.001463;0.001208;0.001054;0.000938;0.000844;0.408639;0.448911;0.514017;0.822228;0.799405;1.08066;1.02973;0.455042;0.375263;0.351397;0.226539;0.144216;0.120476;0.085258;0.053389;0.039852;0.038318;0.030005;0.024075;0.017914;0.011274;0.008372;0.008584;0.007013;0.005371;0.004363;0.003234;0.002427;0.001597;0.001399;0.001122;0.000843;0.000753;0.000639;0.000552;0.000496;0.023795985507282544;0.007446593161902922
27;EMSC-20070505_0000103;2007-05-05 17:30:09;12648643;usp000fbag;;20070505_0000103;RO;45.7082;26.6582;97.1381;ISC-webservice;U;4.1;EMSC-CSEM;;;;;3.8;Mw;INFP;;;;;;;;;;;RO;MLR;00;HN;0.0;;;;RO;45.4909;25.945;1392;;;;;;;;27.402644;1305.613413;60.7;114.54388011417284;66.3;;;;;D;0;E;90.0;N;0.0;Z;0.25;0.25;0.25;30.0;30.0;30.0;3.2;3.8;97.1381;90;114.54388011417284;114.54388011417284;60.7;18.0;1305.613413;False;31.07;4;0.036503;0.04519;0.06249;0.042887;0.050272;0.03458;-0.001938;-0.00283;-0.002013;0.0024396;0.00295214;0.00182109;0.000192;-0.000265;9.3e-05;0.000241195;0.000321309;0.00012499;16.235;16.86;16.17;16.545;16.5075;16.875;16.05;0.00531602;0.00758815;0.00361675;0.00678524;0.00803206;0.00505104;0.144619324969;0.155115594984;0.137615444938;0.14911824245;0.156894200056;0.141348814982;1.90454244743e-06;2.22554050798e-06;1.71210024265e-06;2.0650436452e-06;2.22573578039e-06;1.90435011575e-06;0.03653;0.036868;0.037508;0.036972;0.057642;0.070226;0.080401;0.102884;0.086917;0.103582;0.123365;0.109795;0.108836;0.073964;0.043631;0.028605;0.025354;0.020953;0.017427;0.01448;0.007785;0.005784;0.004571;0.003392;0.002915;0.001538;0.001079;0.000792;0.000577;0.000478;0.000406;0.000287;0.000234;0.000188;0.000153;0.000131;0.045298;0.046293;0.046836;0.051155;0.101058;0.101989;0.089457;0.146712;0.091101;0.12091;0.116985;0.07024;0.060756;0.083024;0.091332;0.064844;0.058878;0.05111;0.03533;0.022687;0.014965;0.009977;0.006595;0.004973;0.00383;0.002311;0.001556;0.001047;0.000833;0.000791;0.000623;0.000433;0.000321;0.000272;0.000243;0.000208;0.062574;0.065379;0.073327;0.080492;0.138024;0.13549;0.140807;0.123178;0.118261;0.088221;0.077803;0.077153;0.071483;0.057459;0.033193;0.022979;0.019823;0.016843;0.010371;0.006456;0.004203;0.002511;0.001756;0.001537;0.001106;0.00084;0.000534;0.000474;0.000352;0.000291;0.00027;0.000215;0.000172;0.00014;0.000129;0.000119;0.0429185;0.0438635;0.0441215;0.045066;0.0768135;0.0816035;0.089429;0.138669;0.0957635;0.1159825;0.1136805;0.093019;0.1052315;0.085232;0.0773815;0.0549175;0.043729;0.0373775;0.0258805;0.0170125;0.0116735;0.0078495;0.0055875;0.0043745;0.0036405;0.0020365;0.0013675;0.0009445;0.0007525;0.0006995;0.0005595;0.000395;0.000302;0.0002555;0.000225;0.000193;0.050429;0.051091;0.052009;0.055141;0.101402;0.103558;0.115764;0.155391;0.104874;0.13526;0.123494;0.110067;0.118607;0.098515;0.092136;0.066736;0.061156;0.052669;0.036485;0.023856;0.01649;0.011086;0.007853;0.006016;0.004522;0.002403;0.001649;0.001196;0.000914;0.000841;0.000675;0.00046;0.000343;0.000279;0.000244;0.000209;0.03458;0.034751;0.035535;0.036825;0.041857;0.067238;0.070412;0.096735;0.079301;0.083657;0.083272;0.066839;0.060756;0.068376;0.038574;0.028605;0.024461;0.017607;0.012884;0.010843;0.007785;0.004949;0.003879;0.003071;0.002261;0.001043;0.00088;0.000648;0.000434;0.000335;0.00029;0.000226;0.000182;0.000147;0.000129;0.000111;0.009361945137212084;0.0026277190395644907
28;EMSC-20070512_0000109;2007-05-12 19:06:40;12653814;usp000fbus;;20070512_0000109;RO;45.6768;26.4449;144.3023;ISC-webservice;U;4.1;EMSC-CSEM;;;;;4.2;Mw;INFP;;;;;;;;;;;GE;TIRR;00;HN;3.0;;;;RO;44.4581;28.4128;77;;;;;;;;0.383942;302.057214;205.8;251.34994287902674;311.8;;;;;D;0;E;90.0;N;0.0;Z;0.15;0.15;0.15;30.0;30.0;30.0;5.333333333333334;4.2;144.3023;90;251.34994287902674;251.34994287902674;205.8;150.0;302.057214;False;31.07;5;0.449668;0.221053;0.385162;0.323673;0.457743;0.187731;0.008304;-0.004971;0.005238;0.00598782;0.0084474;0.00429936;-0.000209;0.000258;-0.00042;0.000233053;0.000289185;0.000168361;47.08;53.405;49.76;50.143;51.935;53.98;44.725;0.00514858;0.00657092;0.0110178;0.00573793;0.00659111;0.00496414;1.13708347002;1.40108192052;1.4693018995;1.28698595291;1.48282969992;1.03267704524;7.02669717732e-05;7.37395473464e-05;0.000105273382618;7.20032571033e-05;8.13864997697e-05;6.26200532485e-05;0.450701;0.493239;1.19798;0.883474;1.25425;1.24147;0.554334;0.288182;0.174412;0.109854;0.092195;0.07494;0.066441;0.047148;0.029444;0.021825;0.018367;0.016063;0.0102;0.008734;0.006165;0.004868;0.003939;0.003071;0.002645;0.001992;0.001545;0.001411;0.001159;0.00097;0.00107;0.000746;0.000701;0.000633;0.000536;0.000487;0.224931;0.254778;0.617786;0.423088;0.550449;0.813262;0.407345;0.689543;0.319945;0.186759;0.12176;0.07913;0.049753;0.036223;0.024363;0.022311;0.021888;0.01969;0.01456;0.013104;0.00854;0.007003;0.005107;0.003751;0.003023;0.002259;0.001446;0.001129;0.000894;0.000828;0.000792;0.000549;0.00048;0.000387;0.000303;0.000297;0.40954;0.561006;1.81228;1.13526;0.829569;1.0344;0.658727;0.48543;0.253584;0.192793;0.121709;0.109254;0.097406;0.098338;0.072515;0.058436;0.051678;0.046469;0.035519;0.03115;0.021676;0.015705;0.011244;0.00823;0.006217;0.003902;0.002524;0.001782;0.001448;0.001257;0.001065;0.000761;0.000598;0.000565;0.000458;0.000374;0.3263275;0.3639195;0.906523;0.7113725;0.919232;0.906429;0.422941;0.511654;0.2429045;0.1469265;0.109157;0.077852;0.058707;0.047961;0.0268835;0.0219115;0.0188205;0.015929;0.0141145;0.010105;0.0072875;0.005437;0.0041305;0.003248;0.002842;0.002021;0.0014205;0.00114;0.0009565;0.000855;0.000793;0.0005585;0.000509;0.000457;0.000388;0.000357;0.458189;0.501671;1.21647;0.895274;1.27276;1.25579;0.565507;0.693606;0.319945;0.189001;0.122344;0.092179;0.071405;0.052816;0.030556;0.024379;0.023014;0.020385;0.015618;0.013502;0.008708;0.007003;0.005107;0.003753;0.003199;0.002331;0.001558;0.00146;0.001181;0.000993;0.001083;0.000754;0.000707;0.000636;0.000539;0.000496;0.193277;0.24436;0.617786;0.354253;0.550449;0.701006;0.338282;0.261367;0.15675;0.099806;0.07084;0.068686;0.044922;0.03453;0.02098;0.013456;0.012586;0.013822;0.009177;0.007559;0.005124;0.003813;0.003243;0.002683;0.00227;0.001605;0.001196;0.000947;0.000727;0.000697;0.000648;0.000455;0.000396;0.000306;0.000277;0.000258;0.009008362311196536;0.0031270967609451496
29;EMSC-20070512_0000109;2007-05-12 19:06:40;12653814;usp000fbus;;20070512_0000109;RO;45.6768;26.4449;144.3023;ISC-webservice;U;4.1;EMSC-CSEM;;;;;4.2;Mw;INFP;;;;;;;;;;;RO;MLR;00;HN;0.0;;;;RO;45.4909;25.945;1392;;;;;;;;27.402644;1305.613413;44.1;150.89056890770212;61.9;;;;;D;0;E;90.0;N;0.0;Z;0.25;0.25;0.25;30.0;30.0;30.0;3.2;4.2;144.3023;90;150.89056890770212;150.89056890770212;44.1;18.0;1305.613413;False;31.07;4;-0.066798;-0.056707;0.095369;0.057992;0.072984;0.053487;0.002874;0.002415;0.002577;0.00264567;0.0036148;0.0016805;0.000191;0.000208;0.000186;0.000204607;0.000291109;0.000135513;20.65;21.66;18.58;21.149;21.235;21.775;20.65;0.00650496;0.00591137;0.00516935;0.00623517;0.00796938;0.00479198;0.177141430032;0.191831620077;0.201520685002;0.183998662554;0.191831620077;0.176423419765;2.9526736664e-06;2.91642261305e-06;4.26638304862e-06;2.93454495647e-06;3.04874963396e-06;2.82033756947e-06;0.066798;0.067297;0.069347;0.071963;0.092718;0.105787;0.251004;0.110968;0.161041;0.124406;0.107623;0.106929;0.107185;0.112528;0.07801;0.043392;0.031179;0.025528;0.02033;0.01632;0.00935;0.006737;0.004403;0.003435;0.003055;0.001881;0.001251;0.000822;0.000715;0.000628;0.000557;0.000411;0.00032;0.000279;0.000236;0.000216;0.056799;0.058212;0.057817;0.060901;0.085434;0.125667;0.150572;0.143767;0.176905;0.106685;0.091849;0.07879;0.068402;0.061504;0.047309;0.04321;0.035362;0.02697;0.02126;0.014833;0.008508;0.008181;0.006066;0.00481;0.003994;0.002383;0.001488;0.001011;0.000791;0.000723;0.000528;0.000383;0.000312;0.00026;0.000227;0.000198;0.095542;0.098467;0.108725;0.115969;0.171536;0.218645;0.29574;0.145206;0.145127;0.114429;0.086158;0.119236;0.116206;0.084294;0.034806;0.021065;0.022359;0.020281;0.015151;0.010821;0.00751;0.004712;0.003543;0.002905;0.00229;0.001449;0.000981;0.000749;0.000625;0.000564;0.000483;0.000336;0.00028;0.000233;0.000197;0.000176;0.058223;0.059212;0.06057;0.064416;0.0856115;0.1238045;0.1977625;0.136031;0.1698665;0.117276;0.100242;0.0940915;0.08988;0.094472;0.065488;0.043301;0.0334785;0.026249;0.020795;0.0155715;0.008926;0.0078765;0.005908;0.0042155;0.0034975;0.002086;0.0013685;0.000918;0.000758;0.0006815;0.0005425;0.000396;0.000316;0.000269;0.0002315;0.000206;0.073014;0.074078;0.074777;0.077349;0.092718;0.134125;0.252174;0.147747;0.196478;0.134535;0.134289;0.131116;0.126793;0.120276;0.085195;0.056255;0.04231;0.037075;0.029032;0.021666;0.012393;0.009482;0.007354;0.005627;0.004432;0.002497;0.001629;0.001201;0.001007;0.000908;0.000728;0.000534;0.000426;0.000364;0.000313;0.00028;0.053488;0.055075;0.055045;0.055782;0.075078;0.105787;0.134973;0.105;0.133167;0.092226;0.067968;0.050363;0.04779;0.052615;0.031972;0.019806;0.019432;0.016226;0.01219;0.008432;0.006123;0.004841;0.004389;0.003425;0.002778;0.001554;0.001023;0.000693;0.000499;0.000417;0.000322;0.000224;0.000181;0.000144;0.000132;0.000112;0.009209981117684585;0.002605058318626585
