;event_id;event_time;ISC_ev_id;USGS_ev_id;INGV_ev_id;EMSC_ev_id;ev_nation_code;ev_latitude;ev_longitude;ev_depth_km;ev_hyp_ref;fm_type_code;ML;ML_ref;Mw;Mw_ref;Ms;Ms_ref;EMEC_Mw;EMEC_Mw_type;EMEC_Mw_ref;event_source_id;es_strike;es_dip;es_rake;es_strike_dip_rake_ref;es_z_top;es_z_top_ref;es_length;es_width;es_geometry_ref;network_code;station_code;location_code;instrument_code;sensor_depth_m;proximity_code;housing_code;installation_code;st_nation_code;st_latitude;st_longitude;st_elevation;ec8_code;ec8_code_method;ec8_code_ref;vs30_m_sec;vs30_ref;vs30_calc_method;vs30_meas_type;slope_deg;vs30_m_sec_WA;epi_dist;hypo_dist;epi_az;JB_dist;rup_dist;Rx_dist;Ry0_dist;instrument_type_code;late_triggered_flag_01;U_channel_code;U_azimuth_deg;V_channel_code;V_azimuth_deg;W_channel_code;U_hp;V_hp;W_hp;U_lp;V_lp;W_lp;max_usable_T;mag;hypo_depth;rake;rhypo;rrup;rjb;xvf;vs30;vs30measured;z1pt0;region;U_pga;V_pga;W_pga;rotD50_pga;rotD100_pga;rotD00_pga;U_pgv;V_pgv;W_pgv;rotD50_pgv;rotD100_pgv;rotD00_pgv;U_pgd;V_pgd;W_pgd;rotD50_pgd;rotD100_pgd;rotD00_pgd;U_T90;V_T90;W_T90;GM_T90;rotD50_T90;rotD100_T90;rotD00_T90;U_housner;V_housner;W_housner;rotD50_housner;rotD100_housner;rotD00_housner;U_CAV;V_CAV;W_CAV;rotD50_CAV;rotD100_CAV;rotD00_CAV;U_ia;V_ia;W_ia;rotD50_ia;rotD100_ia;rotD00_ia;U_T0_010;U_T0_025;U_T0_040;U_T0_050;U_T0_070;U_T0_100;U_T0_150;U_T0_200;U_T0_250;U_T0_300;U_T0_350;U_T0_400;U_T0_450;U_T0_500;U_T0_600;U_T0_700;U_T0_750;U_T0_800;U_T0_900;U_T1_000;U_T1_200;U_T1_400;U_T1_600;U_T1_800;U_T2_000;U_T2_500;U_T3_000;U_T3_500;U_T4_000;U_T4_500;U_T5_000;U_T6_000;U_T7_000;U_T8_000;U_T9_000;U_T10_000;V_T0_010;V_T0_025;V_T0_040;V_T0_050;V_T0_070;V_T0_100;V_T0_150;V_T0_200;V_T0_250;V_T0_300;V_T0_350;V_T0_400;V_T0_450;V_T0_500;V_T0_600;V_T0_700;V_T0_750;V_T0_800;V_T0_900;V_T1_000;V_T1_200;V_T1_400;V_T1_600;V_T1_800;V_T2_000;V_T2_500;V_T3_000;V_T3_500;V_T4_000;V_T4_500;V_T5_000;V_T6_000;V_T7_000;V_T8_000;V_T9_000;V_T10_000;W_T0_010;W_T0_025;W_T0_040;W_T0_050;W_T0_070;W_T0_100;W_T0_150;W_T0_200;W_T0_250;W_T0_300;W_T0_350;W_T0_400;W_T0_450;W_T0_500;W_T0_600;W_T0_700;W_T0_750;W_T0_800;W_T0_900;W_T1_000;W_T1_200;W_T1_400;W_T1_600;W_T1_800;W_T2_000;W_T2_500;W_T3_000;W_T3_500;W_T4_000;W_T4_500;W_T5_000;W_T6_000;W_T7_000;W_T8_000;W_T9_000;W_T10_000;rotD50_T0_010;rotD50_T0_025;rotD50_T0_040;rotD50_T0_050;rotD50_T0_070;rotD50_T0_100;rotD50_T0_150;rotD50_T0_200;rotD50_T0_250;rotD50_T0_300;rotD50_T0_350;rotD50_T0_400;rotD50_T0_450;rotD50_T0_500;rotD50_T0_600;rotD50_T0_700;rotD50_T0_750;rotD50_T0_800;rotD50_T0_900;rotD50_T1_000;rotD50_T1_200;rotD50_T1_400;rotD50_T1_600;rotD50_T1_800;rotD50_T2_000;rotD50_T2_500;rotD50_T3_000;rotD50_T3_500;rotD50_T4_000;rotD50_T4_500;rotD50_T5_000;rotD50_T6_000;rotD50_T7_000;rotD50_T8_000;rotD50_T9_000;rotD50_T10_000;rotD100_T0_010;rotD100_T0_025;rotD100_T0_040;rotD100_T0_050;rotD100_T0_070;rotD100_T0_100;rotD100_T0_150;rotD100_T0_200;rotD100_T0_250;rotD100_T0_300;rotD100_T0_350;rotD100_T0_400;rotD100_T0_450;rotD100_T0_500;rotD100_T0_600;rotD100_T0_700;rotD100_T0_750;rotD100_T0_800;rotD100_T0_900;rotD100_T1_000;rotD100_T1_200;rotD100_T1_400;rotD100_T1_600;rotD100_T1_800;rotD100_T2_000;rotD100_T2_500;rotD100_T3_000;rotD100_T3_500;rotD100_T4_000;rotD100_T4_500;rotD100_T5_000;rotD100_T6_000;rotD100_T7_000;rotD100_T8_000;rotD100_T9_000;rotD100_T10_000;rotD00_T0_010;rotD00_T0_025;rotD00_T0_040;rotD00_T0_050;rotD00_T0_070;rotD00_T0_100;rotD00_T0_150;rotD00_T0_200;rotD00_T0_250;rotD00_T0_300;rotD00_T0_350;rotD00_T0_400;rotD00_T0_450;rotD00_T0_500;rotD00_T0_600;rotD00_T0_700;rotD00_T0_750;rotD00_T0_800;rotD00_T0_900;rotD00_T1_000;rotD00_T1_200;rotD00_T1_400;rotD00_T1_600;rotD00_T1_800;rotD00_T2_000;rotD00_T2_500;rotD00_T3_000;rotD00_T3_500;rotD00_T4_000;rotD00_T4_500;rotD00_T5_000;rotD00_T6_000;rotD00_T7_000;rotD00_T8_000;rotD00_T9_000;rotD00_T10_000;rotD50_AvgSA[0,3];rotD50_AvgSA[0,6]
15;EMSC-20070117_0000067;2007-01-17 13:17:22;10388518;usp000f2v8;;20070117_0000067;RO;45.5538;26.381;120.4817;ISC-webservice;TF;4.3;ISC-webservice;4.35;ISC-webservice;;;4.4;Mw;RCMTS;;;;;;;;;;;RO;IAS;00;HN;0.0;;;;RO;47.1931;27.553;195;;;;;;;;6.846236;690.214592;203.3;236.3191275265081;206.8;;;;;D;0;E;90.0;N;0.0;Z;0.3;0.3;0.3;30.0;30.0;30.0;2.666666666666667;4.4;120.4817;90;236.3191275265081;236.3191275265081;203.3;145.65;690.214592;False;31.07;4;-0.92271;0.892534;-1.12265;0.9363645;1.075261;0.792796;0.01702;0.019719;0.022998;0.0176936;0.0212206;0.0162711;-0.000876;-0.001941;-0.000824;0.00144479;0.00198517;0.000786857;64.465;65.97;60.585;65.213;64.81;67.255;58.075;0.0343503;0.0432062;0.0229809;0.03954475;0.0432978;0.0343503;6.7298804281;6.35880249089;6.93512188146;6.53442100183;6.73579539172;6.34119759509;0.00134760362459;0.00119169402696;0.00146451362796;0.00126964878251;0.00135872377233;0.00118057366329;0.928818;0.969792;1.14311;1.49113;1.93957;1.93473;2.619;1.90763;0.709556;0.50247;0.463969;0.418565;0.329084;0.326454;0.19849;0.148348;0.146209;0.179136;0.169706;0.102743;0.054953;0.031905;0.021869;0.017272;0.012633;0.012595;0.006519;0.004096;0.003564;0.00299;0.002605;0.002195;0.001733;0.001475;0.001305;0.001156;0.892564;0.937813;1.21371;2.12641;2.05656;2.37757;2.14516;1.49762;0.972116;0.939156;0.820708;0.704473;0.610493;0.415265;0.265832;0.223635;0.19081;0.15472;0.1518;0.105731;0.069386;0.043862;0.031648;0.031569;0.028867;0.017943;0.012769;0.008735;0.007361;0.006318;0.004972;0.003583;0.002669;0.002406;0.002047;0.001721;1.12268;1.19122;1.43223;1.96791;2.14522;3.60145;2.33134;1.06974;0.682195;0.432566;0.288198;0.263802;0.275369;0.19638;0.161702;0.108778;0.086244;0.062895;0.061578;0.04413;0.029077;0.021884;0.016586;0.014936;0.012494;0.005883;0.005221;0.005591;0.004839;0.004206;0.003017;0.00221;0.001892;0.001621;0.001456;0.001303;0.936898;0.9930195;1.227955;1.923025;1.93952;2.488925;2.6523;1.68249;0.8057975;0.796717;0.6663645;0.57435;0.532965;0.385414;0.255064;0.1919805;0.165983;0.1601285;0.15576;0.104237;0.060662;0.041259;0.0280295;0.025457;0.021144;0.014741;0.009385;0.0063715;0.005364;0.0046005;0.0036425;0.0026055;0.001978;0.0017725;0.001508;0.001267;1.09351;1.16712;1.37879;2.1862;2.55698;2.75347;2.99945;2.17863;1.13698;1.06431;0.935329;0.752598;0.622621;0.429875;0.285595;0.232315;0.20372;0.179214;0.178217;0.132325;0.074578;0.049938;0.035224;0.031714;0.028932;0.01876;0.012919;0.008735;0.007362;0.006318;0.004989;0.003583;0.002691;0.002433;0.00207;0.001737;0.794836;0.840506;1.01232;1.20431;1.48458;1.91509;2.10687;1.16325;0.626409;0.391851;0.348874;0.379227;0.329084;0.326454;0.190266;0.142693;0.139535;0.136252;0.117446;0.069809;0.03466;0.025015;0.018738;0.013709;0.010534;0.010412;0.006053;0.004096;0.003552;0.002929;0.002428;0.002047;0.001575;0.001321;0.001155;0.001002;0.06155805815481691;0.01795306576626465
16;EMSC-20070117_0000067;2007-01-17 13:17:22;10388518;usp000f2v8;;20070117_0000067;RO;45.5538;26.381;120.4817;ISC-webservice;TF;4.3;ISC-webservice;4.35;ISC-webservice;;;4.4;Mw;RCMTS;;;;;;;;;;;RO;MLR;00;HN;0.0;;;;RO;45.4909;25.945;1392;;;;;;;;27.402644;1305.613413;34.8;125.40685800581242;78.2;;;;;D;0;E;90.0;N;0.0;Z;0.1;0.1;0.1;30.0;30.0;30.0;8.0;4.4;120.4817;90;125.40685800581242;125.40685800581242;34.8;18.0;1305.613413;False;31.07;4;0.183809;-0.189211;0.401265;0.183752;0.233724;0.153013;0.01329;0.013435;0.010909;0.0125083;0.0135627;0.00991552;-0.001822;0.00112;-0.00111;0.00145607;0.00190774;0.00084492;20.375;20.285;19.36;20.33;20.33;21.94;19.46;0.0372818;0.0301289;0.0260135;0.03249525;0.0373033;0.0294601;0.779179685033;0.815923319497;0.757154389563;0.798874509764;0.830717285262;0.745999484628;4.77580310744e-05;5.23039511484e-05;5.57166187925e-05;5.00309999869e-05;5.97041996309e-05;4.03577649038e-05;0.183941;0.184865;0.1886;0.199203;0.234403;0.451093;0.675529;0.566483;0.410926;0.473773;0.410654;0.413813;0.400969;0.327072;0.284215;0.254739;0.207807;0.139901;0.084518;0.083333;0.092638;0.083204;0.053654;0.037209;0.032429;0.016927;0.008594;0.006688;0.00466;0.003895;0.003146;0.002753;0.002446;0.001551;0.001267;0.001078;0.18961;0.191029;0.194511;0.246758;0.344732;0.489972;0.453951;0.613112;0.572348;0.425611;0.437926;0.346134;0.349402;0.287731;0.237402;0.173993;0.14269;0.126906;0.092277;0.074159;0.067703;0.051849;0.039813;0.026523;0.022548;0.013586;0.009056;0.006282;0.004668;0.003812;0.002811;0.002019;0.001696;0.001396;0.001097;0.000896;0.402009;0.410784;0.439031;0.464224;0.53171;1.07463;1.08002;0.655541;0.510695;0.385502;0.544367;0.413546;0.290972;0.25587;0.170077;0.134299;0.125672;0.116551;0.094064;0.072557;0.047809;0.037638;0.029883;0.020374;0.015416;0.009044;0.005416;0.004119;0.003448;0.002947;0.002686;0.001654;0.001464;0.001346;0.001148;0.000938;0.183822;0.1848305;0.1897375;0.236664;0.287068;0.494576;0.5780485;0.5896945;0.5016855;0.4445725;0.4304025;0.4047985;0.3450805;0.295626;0.256658;0.216792;0.1720675;0.1322725;0.0876555;0.0797905;0.0820415;0.0671765;0.0468055;0.032406;0.0261995;0.015344;0.008785;0.0066145;0.004664;0.003871;0.0030925;0.0021855;0.001734;0.001352;0.0010825;0.0008875;0.233922;0.238168;0.237961;0.287216;0.351917;0.592063;0.770099;0.657275;0.572348;0.522371;0.496695;0.422892;0.40575;0.328086;0.312716;0.273211;0.214817;0.164545;0.108621;0.087945;0.095579;0.084138;0.060572;0.040506;0.036725;0.018185;0.01186;0.008522;0.005948;0.004684;0.00351;0.002752;0.002446;0.00155;0.001269;0.001081;0.153329;0.154919;0.160195;0.199203;0.21292;0.357449;0.334601;0.332797;0.363863;0.389823;0.346192;0.324921;0.311869;0.257085;0.181273;0.105486;0.087228;0.089963;0.06074;0.056481;0.063697;0.045175;0.028356;0.019804;0.013773;0.008087;0.005156;0.003811;0.003085;0.002449;0.00219;0.001779;0.001372;0.000996;0.000814;0.00072;0.05452933915297494;0.015373381223359149
17;EMSC-20070117_0000067;2007-01-17 13:17:22;10388518;usp000f2v8;;20070117_0000067;RO;45.5538;26.381;120.4817;ISC-webservice;TF;4.3;ISC-webservice;4.35;ISC-webservice;;;4.4;Mw;RCMTS;;;;;;;;;;;RO;VRI;00;HN;0.0;0;ERR;;RO;45.8657;26.7277;475;;;;;;;;5.227826;597.891754;43.9;128.23045673665052;218.0;;;;;D;0;E;90.0;N;0.0;Z;0.35;0.35;0.35;30.0;30.0;30.0;2.285714285714286;4.4;120.4817;90;128.23045673665052;128.23045673665052;43.9;49.39;597.891754;False;31.07;4;-1.182366;0.635;-0.858719;1.0333825;1.203362;0.62944;0.050084;0.022059;-0.01302;0.03580685;0.0504338;0.0207009;-0.002598;-0.001853;0.000803;0.002230625;0.0027035;0.00164533;20.56;20.275;19.645;20.417;20.515;20.915;20.17;0.0823555;0.0485958;0.0239607;0.0682567;0.0825187;0.0484884;3.60447830836;2.03854243024;1.78852149983;2.92430961562;3.63922719;1.94351936003;0.00101424332019;0.000332255067772;0.0002599959862;0.000673249253375;0.00104010005261;0.000306398236332;1.18298;1.21153;1.29549;1.51448;1.61078;3.64332;2.16359;2.7961;2.76291;3.07982;2.64259;1.94193;1.34916;0.998284;0.619828;0.371615;0.28739;0.246227;0.195941;0.169157;0.1087;0.082008;0.060291;0.047512;0.035876;0.026368;0.017574;0.013879;0.011198;0.008986;0.007419;0.005998;0.004984;0.004274;0.003741;0.003349;0.637118;0.660474;0.703017;0.916406;1.0678;1.90164;1.66839;1.50663;1.1571;1.31556;1.349;0.831143;0.672175;0.484175;0.38224;0.283445;0.29375;0.26396;0.172227;0.135795;0.071278;0.040546;0.032569;0.024753;0.020089;0.014531;0.00935;0.007811;0.006497;0.005042;0.004144;0.003534;0.002731;0.002268;0.001899;0.001641;0.869195;0.927119;1.00635;1.43553;2.58886;1.44104;1.20013;0.818692;0.918239;0.625491;0.396388;0.227299;0.230165;0.1955;0.11989;0.087505;0.103535;0.099984;0.078017;0.070501;0.042574;0.039716;0.02311;0.014655;0.009892;0.008092;0.005641;0.004408;0.00316;0.002452;0.002657;0.002014;0.001627;0.001349;0.001153;0.001009;1.034825;1.06053;1.12395;1.293845;1.40525;2.68739;1.955455;2.311785;1.97904;2.435445;2.032615;1.435425;0.987593;0.7226485;0.4939115;0.338398;0.3015025;0.2572525;0.1959785;0.1491395;0.103201;0.077477;0.0498725;0.0373425;0.0281005;0.020021;0.013624;0.0106765;0.0086515;0.0078035;0.0066445;0.004896;0.004044;0.003394;0.0029385;0.002574;1.20437;1.23959;1.31797;1.53258;1.70031;3.7561;2.22003;2.91989;2.79715;3.32842;2.82591;1.94633;1.35688;1.01325;0.622722;0.402655;0.330847;0.281099;0.211451;0.173068;0.12328;0.088879;0.066569;0.051409;0.038593;0.027545;0.018584;0.014437;0.011441;0.009324;0.007722;0.006064;0.005047;0.004316;0.003778;0.003379;0.630569;0.647465;0.682727;0.895865;0.926195;1.65129;1.66839;1.29771;0.924351;0.851853;1.08097;0.814782;0.670442;0.470792;0.289531;0.280907;0.277485;0.229986;0.160268;0.123978;0.071278;0.040546;0.031806;0.023203;0.018366;0.012951;0.008904;0.00712;0.005942;0.004882;0.004035;0.003139;0.00255;0.002157;0.001827;0.001612;0.09709237487915004;0.028560580499942822
18;EMSC-20070215_0000030;2007-02-15 02:32:54;11502892;usp000f4wj;;20070215_0000030;RO;45.8658;26.7617;95.7796;ISC-webservice;U;4.4;ISC-webservice;;;;;4.3;Mw;INFP;;;;;;;;;;;RO;IAS;00;HN;0.0;;;;RO;47.1931;27.553;195;;;;;;;;6.846236;690.214592;159.5;186.04833182847946;202.7;;;;;D;0;E;90.0;N;0.0;Z;0.35;0.35;0.35;30.0;30.0;30.0;2.285714285714286;4.3;95.7796;90;186.04833182847946;186.04833182847946;159.5;145.65;690.214592;False;31.07;4;-2.348541;1.768412;-2.774093;1.8199;2.467961;1.214236;-0.040835;-0.037011;-0.038242;0.03676135;0.0411042;0.0272733;0.001485;0.001598;-0.000949;0.001536;0.00174433;0.00109881;35.405;36.27;33.27;35.835;35.8425;37.36;32.33;0.0476166;0.0432176;0.0289606;0.04529595;0.052875;0.0374734;5.50655095884;5.60195362733;6.59532534937;5.54217095613;5.64845938677;5.46752749951;0.0019153013312;0.00193539680987;0.00297726705703;0.00192534907053;0.00210077071867;0.00174992749585;2.34867;2.61329;4.15053;4.19918;4.33625;5.66156;3.82588;1.24815;1.47021;1.28109;1.04843;0.890006;0.657737;0.551836;0.367227;0.253642;0.230347;0.184245;0.13245;0.090107;0.056333;0.03754;0.031931;0.026989;0.020531;0.014399;0.012233;0.009636;0.0082;0.006895;0.005973;0.004995;0.004093;0.003536;0.003113;0.002785;1.80034;1.91538;2.61441;3.23093;4.29236;8.63673;2.32227;1.34035;0.801366;1.14308;1.23328;0.879468;0.663792;0.465107;0.281314;0.201165;0.162809;0.133373;0.110685;0.082074;0.066365;0.048359;0.035687;0.023423;0.017812;0.016359;0.010378;0.007871;0.005802;0.005101;0.00444;0.003472;0.002874;0.002518;0.00228;0.002087;2.84398;3.34009;6.7119;7.33203;5.30651;8.29595;1.75434;1.52645;1.11428;0.745054;0.54565;0.447371;0.385723;0.260262;0.183034;0.123879;0.103953;0.089899;0.069688;0.057384;0.037494;0.026474;0.018602;0.02045;0.017086;0.01145;0.009019;0.006794;0.005096;0.004614;0.00428;0.003543;0.003106;0.002641;0.002373;0.00214;1.829265;1.977275;3.263485;3.68414;4.314305;7.20827;3.22729;1.36574;1.312075;1.19686;1.117555;0.884737;0.6607645;0.5147995;0.3295765;0.230943;0.1908645;0.1493565;0.1149645;0.085446;0.062181;0.0440985;0.0341795;0.0245465;0.0181135;0.0158315;0.010653;0.008362;0.006647;0.005903;0.0052275;0.0042685;0.0035255;0.003045;0.0026305;0.002323;2.47603;2.76397;4.45402;4.62856;5.10137;8.70501;3.8552;1.57737;1.58268;1.49037;1.29705;0.990051;0.901332;0.627956;0.435739;0.264235;0.24103;0.193693;0.13245;0.107489;0.072217;0.04956;0.038507;0.029259;0.022176;0.017581;0.0135;0.009758;0.008397;0.007058;0.006127;0.005038;0.004142;0.003564;0.003132;0.002794;1.21523;1.34405;2.03725;2.55436;2.90147;3.80421;2.3208;1.13705;0.801366;0.871903;0.818311;0.778843;0.527786;0.313116;0.167215;0.113565;0.130608;0.124146;0.096835;0.065236;0.036792;0.031333;0.022244;0.017379;0.013917;0.012741;0.007766;0.006949;0.00524;0.004479;0.003859;0.003304;0.00269;0.002338;0.002049;0.001824;0.0705953768398158;0.02300865763750399
19;EMSC-20070215_0000030;2007-02-15 02:32:54;11502892;usp000f4wj;;20070215_0000030;RO;45.8658;26.7617;95.7796;ISC-webservice;U;4.4;ISC-webservice;;;;;4.3;Mw;INFP;;;;;;;;;;;RO;VRI;00;HN;0.0;0;ERR;;RO;45.8657;26.7277;475;;;;;;;;5.227826;597.891754;2.6;95.81488285313509;89.7;;;;;D;0;E;90.0;N;0.0;Z;0.35;0.35;0.35;30.0;30.0;30.0;2.285714285714286;4.3;95.7796;90;95.81488285313509;95.81488285313509;2.6;49.39;597.891754;False;31.07;4;-0.700498;0.325308;-0.553964;0.5383845;0.711694;0.282087;0.039846;-0.013662;0.0109;0.02959565;0.0414039;0.0132196;-0.002269;0.001108;0.000566;0.00183209;0.00228656;0.00111074;18.15;19.975;16.26;19.041;18.5625;20.23;18.15;0.0687719;0.0349957;0.0163268;0.05455325;0.0710489;0.033696;2.54534733969;1.27378119498;1.25953310027;2.02477672482;2.56812425822;1.24558756035;0.000539003979991;0.000105712845535;0.000135329904503;0.000322358429207;0.000546997243334;9.77195277037e-05;0.704427;0.721042;0.852892;1.46461;0.83097;1.62893;1.75457;1.75329;2.00221;1.77837;2.16307;2.00183;1.48952;1.06385;0.492847;0.227931;0.211091;0.200198;0.157463;0.132689;0.095124;0.07635;0.054558;0.039914;0.031212;0.016491;0.011531;0.009023;0.007395;0.006253;0.005796;0.004665;0.003781;0.003237;0.00285;0.002565;0.326016;0.337369;0.377108;0.493813;0.4907;0.670543;0.589989;0.789633;0.635972;0.832589;0.823779;0.443824;0.388796;0.503321;0.381556;0.228548;0.192086;0.168559;0.109672;0.096817;0.057534;0.038778;0.031564;0.019177;0.016826;0.010709;0.006109;0.004464;0.003728;0.003296;0.00248;0.001995;0.001568;0.001359;0.001154;0.000999;0.559227;0.590827;0.916131;1.18796;1.89898;2.13234;0.844256;0.477876;0.444356;0.548877;0.3588;0.199121;0.188518;0.141017;0.114104;0.10699;0.086743;0.057557;0.039338;0.036433;0.023177;0.017469;0.0119;0.010302;0.006334;0.004755;0.004271;0.00472;0.002807;0.002503;0.00203;0.001656;0.001316;0.001034;0.00092;0.000843;0.54074;0.5530925;0.6382115;1.11349;0.716555;1.1726;1.27187;1.298145;1.46703;1.34779;1.65481;1.445095;1.069155;0.8445085;0.4434185;0.2709615;0.2062305;0.1792835;0.1247075;0.103618;0.0677245;0.0541975;0.041345;0.02977;0.025003;0.0157715;0.0095965;0.0075305;0.0063265;0.004972;0.004396;0.0035705;0.0028805;0.0024655;0.0021605;0.0019355;0.714663;0.729018;0.859158;1.47211;0.837229;1.62893;1.79869;1.75922;2.05462;1.89875;2.27435;2.03908;1.49756;1.11851;0.524638;0.315296;0.285135;0.25225;0.172354;0.133256;0.095124;0.076634;0.055383;0.041946;0.032528;0.019511;0.012668;0.010064;0.007687;0.00687;0.006207;0.005042;0.004063;0.003481;0.003045;0.002723;0.283047;0.298544;0.352204;0.493813;0.488343;0.659453;0.542637;0.789633;0.552344;0.832589;0.515387;0.440002;0.388796;0.39009;0.306859;0.201295;0.17454;0.141845;0.106478;0.08895;0.050862;0.035199;0.027742;0.018548;0.015577;0.0093;0.006109;0.004147;0.003245;0.003296;0.002309;0.001658;0.001318;0.001119;0.000952;0.000848;0.0713112930564023;0.020307853648268138
