;event_id;event_time;ISC_ev_id;USGS_ev_id;INGV_ev_id;EMSC_ev_id;ev_nation_code;ev_latitude;ev_longitude;ev_depth_km;ev_hyp_ref;fm_type_code;ML;ML_ref;Mw;Mw_ref;Ms;Ms_ref;EMEC_Mw;EMEC_Mw_type;EMEC_Mw_ref;event_source_id;es_strike;es_dip;es_rake;es_strike_dip_rake_ref;es_z_top;es_z_top_ref;es_length;es_width;es_geometry_ref;network_code;station_code;location_code;instrument_code;sensor_depth_m;proximity_code;housing_code;installation_code;st_nation_code;st_latitude;st_longitude;st_elevation;ec8_code;ec8_code_method;ec8_code_ref;vs30_m_sec;vs30_ref;vs30_calc_method;vs30_meas_type;slope_deg;vs30_m_sec_WA;epi_dist;hypo_dist;epi_az;JB_dist;rup_dist;Rx_dist;Ry0_dist;instrument_type_code;late_triggered_flag_01;U_channel_code;U_azimuth_deg;V_channel_code;V_azimuth_deg;W_channel_code;U_hp;V_hp;W_hp;U_lp;V_lp;W_lp;max_usable_T;mag;hypo_depth;rake;rhypo;rrup;rjb;xvf;vs30;vs30measured;z1pt0;region;U_pga;V_pga;W_pga;rotD50_pga;rotD100_pga;rotD00_pga;U_pgv;V_pgv;W_pgv;rotD50_pgv;rotD100_pgv;rotD00_pgv;U_pgd;V_pgd;W_pgd;rotD50_pgd;rotD100_pgd;rotD00_pgd;U_T90;V_T90;W_T90;GM_T90;rotD50_T90;rotD100_T90;rotD00_T90;U_housner;V_housner;W_housner;rotD50_housner;rotD100_housner;rotD00_housner;U_CAV;V_CAV;W_CAV;rotD50_CAV;rotD100_CAV;rotD00_CAV;U_ia;V_ia;W_ia;rotD50_ia;rotD100_ia;rotD00_ia;U_T0_010;U_T0_025;U_T0_040;U_T0_050;U_T0_070;U_T0_100;U_T0_150;U_T0_200;U_T0_250;U_T0_300;U_T0_350;U_T0_400;U_T0_450;U_T0_500;U_T0_600;U_T0_700;U_T0_750;U_T0_800;U_T0_900;U_T1_000;U_T1_200;U_T1_400;U_T1_600;U_T1_800;U_T2_000;U_T2_500;U_T3_000;U_T3_500;U_T4_000;U_T4_500;U_T5_000;U_T6_000;U_T7_000;U_T8_000;U_T9_000;U_T10_000;V_T0_010;V_T0_025;V_T0_040;V_T0_050;V_T0_070;V_T0_100;V_T0_150;V_T0_200;V_T0_250;V_T0_300;V_T0_350;V_T0_400;V_T0_450;V_T0_500;V_T0_600;V_T0_700;V_T0_750;V_T0_800;V_T0_900;V_T1_000;V_T1_200;V_T1_400;V_T1_600;V_T1_800;V_T2_000;V_T2_500;V_T3_000;V_T3_500;V_T4_000;V_T4_500;V_T5_000;V_T6_000;V_T7_000;V_T8_000;V_T9_000;V_T10_000;W_T0_010;W_T0_025;W_T0_040;W_T0_050;W_T0_070;W_T0_100;W_T0_150;W_T0_200;W_T0_250;W_T0_300;W_T0_350;W_T0_400;W_T0_450;W_T0_500;W_T0_600;W_T0_700;W_T0_750;W_T0_800;W_T0_900;W_T1_000;W_T1_200;W_T1_400;W_T1_600;W_T1_800;W_T2_000;W_T2_500;W_T3_000;W_T3_500;W_T4_000;W_T4_500;W_T5_000;W_T6_000;W_T7_000;W_T8_000;W_T9_000;W_T10_000;rotD50_T0_010;rotD50_T0_025;rotD50_T0_040;rotD50_T0_050;rotD50_T0_070;rotD50_T0_100;rotD50_T0_150;rotD50_T0_200;rotD50_T0_250;rotD50_T0_300;rotD50_T0_350;rotD50_T0_400;rotD50_T0_450;rotD50_T0_500;rotD50_T0_600;rotD50_T0_700;rotD50_T0_750;rotD50_T0_800;rotD50_T0_900;rotD50_T1_000;rotD50_T1_200;rotD50_T1_400;rotD50_T1_600;rotD50_T1_800;rotD50_T2_000;rotD50_T2_500;rotD50_T3_000;rotD50_T3_500;rotD50_T4_000;rotD50_T4_500;rotD50_T5_000;rotD50_T6_000;rotD50_T7_000;rotD50_T8_000;rotD50_T9_000;rotD50_T10_000;rotD100_T0_010;rotD100_T0_025;rotD100_T0_040;rotD100_T0_050;rotD100_T0_070;rotD100_T0_100;rotD100_T0_150;rotD100_T0_200;rotD100_T0_250;rotD100_T0_300;rotD100_T0_350;rotD100_T0_400;rotD100_T0_450;rotD100_T0_500;rotD100_T0_600;rotD100_T0_700;rotD100_T0_750;rotD100_T0_800;rotD100_T0_900;rotD100_T1_000;rotD100_T1_200;rotD100_T1_400;rotD100_T1_600;rotD100_T1_800;rotD100_T2_000;rotD100_T2_500;rotD100_T3_000;rotD100_T3_500;rotD100_T4_000;rotD100_T4_500;rotD100_T5_000;rotD100_T6_000;rotD100_T7_000;rotD100_T8_000;rotD100_T9_000;rotD100_T10_000;rotD00_T0_010;rotD00_T0_025;rotD00_T0_040;rotD00_T0_050;rotD00_T0_070;rotD00_T0_100;rotD00_T0_150;rotD00_T0_200;rotD00_T0_250;rotD00_T0_300;rotD00_T0_350;rotD00_T0_400;rotD00_T0_450;rotD00_T0_500;rotD00_T0_600;rotD00_T0_700;rotD00_T0_750;rotD00_T0_800;rotD00_T0_900;rotD00_T1_000;rotD00_T1_200;rotD00_T1_400;rotD00_T1_600;rotD00_T1_800;rotD00_T2_000;rotD00_T2_500;rotD00_T3_000;rotD00_T3_500;rotD00_T4_000;rotD00_T4_500;rotD00_T5_000;rotD00_T6_000;rotD00_T7_000;rotD00_T8_000;rotD00_T9_000;rotD00_T10_000;rotD50_AvgSA[0,3];rotD50_AvgSA[0,6]
5;EMSC-20060902_0000059;2006-09-02 17:37:09;11121402;usp000esbf;;20060902_0000059;RO;45.6798;26.5663;145.773;ISC-webservice;U;4.4;EMSC-CSEM;;;;;4.1;Mw;INFP;;;;;;;;;;;GE;TIRR;00;HN;3.0;;;;RO;44.4581;28.4128;77;;;;;;;;0.383942;302.057214;198.9;246.59881899352234;313.7;;;;;D;0;E;90.0;N;0.0;Z;0.3;0.3;0.3;30.0;30.0;30.0;2.666666666666667;4.1;145.773;90;246.59881899352234;246.59881899352234;198.9;150.0;302.057214;False;31.07;5;0.061119;-0.067743;-0.112087;0.067538;0.077197;0.058738;-0.002185;0.002048;0.002763;0.002037905;0.00219252;0.00180622;8.7e-05;-0.000162;0.000261;0.000143044;0.000172926;8.47131e-05;51.38;52.045;50.28;51.711;52.0975;53.055;50.065;0.00313935;0.00544186;0.00675986;0.0043866;0.00545637;0.00311445;0.614290245322;0.754482404886;0.798732440139;0.688055965048;0.835778420459;0.49509924996;1.13539878246e-05;1.63660464102e-05;1.89044155545e-05;1.38600105274e-05;1.96625028295e-05;8.05753966994e-06;0.061718;0.081836;0.198887;0.169145;0.147662;0.189051;0.10603;0.123227;0.127604;0.118026;0.089323;0.064078;0.053136;0.035115;0.019883;0.012463;0.009453;0.008296;0.007318;0.005424;0.003487;0.002631;0.001847;0.001342;0.001145;0.001227;0.000847;0.000432;0.000377;0.000347;0.000299;0.000238;0.000197;0.000168;0.000149;0.000133;0.068362;0.091616;0.216275;0.201706;0.266308;0.238115;0.143357;0.110384;0.130527;0.137393;0.098774;0.081935;0.062831;0.062322;0.05287;0.035737;0.033025;0.029565;0.020728;0.014716;0.009415;0.006737;0.004531;0.003283;0.002573;0.001674;0.001148;0.000707;0.00054;0.000532;0.000395;0.000292;0.000235;0.000195;0.000168;0.000144;0.112476;0.124183;0.241221;0.265422;0.289231;0.279325;0.127244;0.151272;0.121706;0.086018;0.074502;0.063165;0.071804;0.054118;0.045653;0.046274;0.043501;0.038399;0.030999;0.024848;0.014146;0.009684;0.006676;0.005544;0.004717;0.002423;0.001562;0.001373;0.000908;0.000753;0.000581;0.000438;0.000357;0.0003;0.000256;0.000223;0.068044;0.086426;0.206348;0.1731545;0.2150125;0.191926;0.1092675;0.1153505;0.130126;0.117061;0.089969;0.0693325;0.0560185;0.0455535;0.0373845;0.0261665;0.023461;0.0210075;0.01594;0.0122895;0.0072165;0.0053855;0.0038435;0.0029465;0.001861;0.0013115;0.0008905;0.0006125;0.0004845;0.0004085;0.000341;0.000262;0.00021;0.000174;0.0001495;0.000131;0.078968;0.110341;0.247624;0.20593;0.273545;0.254759;0.145477;0.142243;0.140627;0.143487;0.100087;0.086698;0.070824;0.064391;0.05287;0.035782;0.033164;0.029705;0.020859;0.015217;0.009862;0.007071;0.00468;0.003334;0.002573;0.001747;0.001152;0.000708;0.000544;0.000532;0.000395;0.000292;0.000234;0.000195;0.000168;0.000145;0.059472;0.065611;0.163517;0.153166;0.1444;0.14811;0.090877;0.089651;0.109871;0.081148;0.079954;0.050981;0.033147;0.032231;0.019621;0.011115;0.008487;0.008296;0.007265;0.005305;0.003233;0.00237;0.001691;0.001342;0.001145;0.001105;0.00081;0.000432;0.000371;0.000309;0.000263;0.000207;0.000175;0.00015;0.000131;0.000119;0.006535212548312049;0.0017479566462018357
6;EMSC-20060923_0000041;2006-09-23 05:44:07;8767706;usp000etmv;;20060923_0000041;RO;45.5426;26.3885;124.2611;ISC-webservice;U;4.2;EMSC-CSEM;;;2.6;ISC-webservice;4.3;Mw;INFP;;;;;;;;;;;GE;TIRR;00;HN;3.0;;;;RO;44.4581;28.4128;77;;;;;;;;0.383942;302.057214;200.0;235.45874579894033;307.8;;;;;D;0;E;90.0;N;0.0;Z;0.15;0.15;0.15;30.0;30.0;30.0;5.333333333333334;4.3;124.2611;90;235.45874579894033;235.45874579894033;200.0;150.0;302.057214;False;31.07;5;-1.090387;-1.320158;0.970533;1.0815735;1.320158;0.819255;0.026244;0.031171;0.026846;0.02654175;0.0316866;0.0211698;0.001666;-0.001526;0.001992;0.00159266;0.00180794;0.00147478;47.095;48.185;49.695;47.637;48.08;50.23;45.19;0.0400865;0.0616141;0.0572557;0.05030865;0.0623415;0.0375078;3.4986875563;4.42267092758;4.53450447078;4.03905381318;4.56219985525;3.32674257308;0.000571390100591;0.00101060465338;0.000949669608703;0.000790997408227;0.00103437469439;0.000547620077228;1.10067;1.17642;1.23504;1.90736;2.4208;2.0026;2.74473;1.62104;0.927492;0.637628;0.636284;0.501431;0.342211;0.309178;0.272686;0.203412;0.171917;0.151004;0.126184;0.104949;0.080299;0.060663;0.043907;0.030333;0.022336;0.012244;0.008829;0.00721;0.005891;0.005046;0.004056;0.003024;0.002308;0.00187;0.001699;0.001523;1.33636;1.40814;1.69085;1.66555;2.05939;2.8107;5.08602;2.64696;2.18319;1.15246;0.884461;0.957774;0.643023;0.518665;0.429868;0.291032;0.284346;0.234455;0.203242;0.156325;0.094869;0.07119;0.049302;0.037581;0.028925;0.017;0.011122;0.008193;0.006413;0.005535;0.004268;0.0034;0.002905;0.002534;0.00228;0.002039;0.972892;1.02101;1.35119;1.44447;2.23341;2.06478;3.22166;2.81446;1.06454;0.891355;0.887363;0.766783;0.691362;0.469942;0.326302;0.30649;0.278065;0.238105;0.191503;0.16209;0.109206;0.0836;0.058263;0.044327;0.034522;0.020919;0.013567;0.009887;0.007753;0.006342;0.00518;0.003941;0.003084;0.002593;0.002216;0.001964;1.095025;1.1656;1.405225;1.62433;2.04223;2.24097;3.60687;2.03287;1.543745;0.911623;0.878455;0.6885205;0.4748615;0.37329;0.343914;0.254309;0.2250055;0.2084095;0.162626;0.1279575;0.0837355;0.0656585;0.048178;0.035065;0.026949;0.0157305;0.0104345;0.0074645;0.005888;0.0050415;0.004073;0.003044;0.002331;0.002055;0.0017825;0.001587;1.33636;1.40814;1.69085;1.92373;2.46354;2.83036;5.10089;2.76627;2.18319;1.15246;0.999757;0.963839;0.650639;0.519104;0.445918;0.312485;0.301187;0.259621;0.220937;0.158725;0.111794;0.075373;0.052751;0.039745;0.030685;0.017198;0.011287;0.008267;0.006497;0.005588;0.004317;0.003477;0.002968;0.002605;0.002336;0.002081;0.82071;0.885303;1.17779;1.29326;1.57843;1.87899;2.39209;1.44279;0.873354;0.597063;0.584805;0.397649;0.316386;0.257565;0.230905;0.160937;0.144636;0.131366;0.110572;0.096733;0.065575;0.04189;0.030445;0.02181;0.01663;0.012175;0.008597;0.006788;0.005492;0.004729;0.003709;0.002777;0.002159;0.001772;0.001507;0.00131;0.07737777011233665;0.02145254292854548
7;EMSC-20060923_0000041;2006-09-23 05:44:07;8767706;usp000etmv;;20060923_0000041;RO;45.5426;26.3885;124.2611;ISC-webservice;U;4.2;EMSC-CSEM;;;2.6;ISC-webservice;4.3;Mw;INFP;;;;;;;;;;;RO;IAS;00;HN;0.0;;;;RO;47.1931;27.553;195;;;;;;;;6.846236;690.214592;204.2;239.0365264414834;206.5;;;;;D;0;E;90.0;N;0.0;Z;0.35;0.35;0.35;30.0;30.0;30.0;2.285714285714286;4.3;124.2611;90;239.0365264414834;239.0365264414834;204.2;145.65;690.214592;False;31.07;4;-1.174039;1.148759;-1.046667;1.1502055;1.266474;0.936642;0.026991;0.029548;0.016524;0.027868;0.036213;0.0232721;-0.001266;-0.001706;-0.000512;0.001395265;0.00176405;0.0011484;38.295;42.75;50.535;40.461;40.0025;48.875;37.025;0.0387148;0.0405536;0.0191057;0.0410656;0.0428028;0.0387148;8.34580934344;7.87793067114;8.56216209077;8.1169613844;8.49949741567;7.66090208787;0.00244092787858;0.00196368034188;0.00203608160037;0.00220230394256;0.00271286642114;0.00169174151141;1.18281;1.22273;1.77054;2.97636;3.65095;2.77237;5.66596;1.64689;1.01765;0.780147;0.614484;0.572698;0.416172;0.349439;0.251251;0.213515;0.155093;0.115064;0.109175;0.066889;0.050956;0.041271;0.027234;0.02025;0.019307;0.011767;0.01019;0.007784;0.005797;0.005388;0.004087;0.003264;0.002714;0.002307;0.002075;0.00181;1.153;1.2219;1.93179;3.57162;2.79548;2.47502;4.00201;1.79639;0.964997;0.952233;0.815319;0.751751;0.591885;0.429622;0.268851;0.17956;0.147684;0.124291;0.118358;0.087294;0.051317;0.038377;0.025891;0.021543;0.016153;0.014526;0.009361;0.007285;0.005549;0.005119;0.004054;0.003194;0.002609;0.002318;0.00199;0.001795;1.04974;1.1734;1.96535;3.26304;2.81777;2.24527;2.08028;0.630204;0.537783;0.452317;0.372175;0.436928;0.370543;0.178354;0.152461;0.089864;0.069142;0.059384;0.041089;0.02885;0.021611;0.016475;0.011535;0.00954;0.007877;0.006033;0.004566;0.003617;0.002941;0.002439;0.002086;0.001618;0.00139;0.001202;0.00108;0.000979;1.15356;1.22145;1.86765;3.34634;2.936085;2.538345;4.794395;1.83239;1.025325;0.8510315;0.863437;0.700255;0.5889605;0.425572;0.264721;0.1926925;0.152989;0.1260035;0.110817;0.0791015;0.0505375;0.0399975;0.027392;0.0219265;0.0193285;0.012171;0.0092115;0.0074095;0.0057145;0.005253;0.0040705;0.0032445;0.002697;0.0023455;0.00202;0.0018125;1.26814;1.37398;1.9877;3.75068;3.65095;2.82922;6.18383;1.99489;1.1846;1.00431;0.980555;0.807253;0.677233;0.443049;0.310768;0.220491;0.173399;0.148269;0.12957;0.095893;0.058949;0.045029;0.030081;0.025156;0.020963;0.01612;0.010465;0.008048;0.00663;0.005963;0.005144;0.004143;0.003464;0.002873;0.002514;0.002203;0.938267;1.00331;1.57422;2.37382;1.99924;1.95813;3.69102;1.49182;0.856113;0.654937;0.508658;0.544231;0.406064;0.348341;0.215246;0.151214;0.136064;0.110997;0.094628;0.064034;0.045067;0.035843;0.023882;0.019093;0.016153;0.011066;0.007928;0.006114;0.004889;0.004248;0.003495;0.002838;0.002339;0.001977;0.001734;0.00154;0.05900160716562718;0.018988646944273782
8;EMSC-20060923_0000041;2006-09-23 05:44:07;8767706;usp000etmv;;20060923_0000041;RO;45.5426;26.3885;124.2611;ISC-webservice;U;4.2;EMSC-CSEM;;;2.6;ISC-webservice;4.3;Mw;INFP;;;;;;;;;;;RO;MLR;00;HN;0.0;;;;RO;45.4909;25.945;1392;;;;;;;;27.402644;1305.613413;35.1;129.1233169230484;80.4;;;;;D;0;E;90.0;N;0.0;Z;0.25;0.25;0.25;30.0;30.0;30.0;3.2;4.3;124.2611;90;129.1233169230484;129.1233169230484;35.1;18.0;1305.613413;False;31.07;4;-0.129625;-0.17113;0.238644;0.129873;0.175316;0.095184;-0.005379;0.007424;0.010315;0.00609183;0.00744387;0.00537905;-0.000708;0.000495;-0.000961;0.0005941575;0.000731229;0.000476735;22.105;21.105;19.7;21.599;21.765;23.61;18.56;0.0188688;0.0169479;0.0201855;0.0181113;0.019447;0.0168692;0.563058755355;0.539950845205;0.550837469815;0.550770915139;0.579164409992;0.512685894955;2.3056345229e-05;2.25949842304e-05;2.69921468261e-05;2.28256647297e-05;2.80562172384e-05;1.75951186982e-05;0.129739;0.130521;0.134569;0.135839;0.143661;0.185963;0.416858;0.431302;0.470585;0.289651;0.210336;0.186189;0.179547;0.213678;0.184482;0.105863;0.07952;0.066775;0.051499;0.047391;0.042893;0.030309;0.023213;0.017475;0.01446;0.006871;0.003776;0.002789;0.002073;0.001832;0.001496;0.001078;0.000849;0.000647;0.000542;0.000459;0.171756;0.173948;0.174992;0.181143;0.232496;0.207618;0.340463;0.54831;0.44992;0.310747;0.275413;0.204572;0.211948;0.179045;0.194876;0.15803;0.128549;0.095927;0.06153;0.044075;0.026311;0.016793;0.012308;0.009373;0.007614;0.005073;0.003587;0.00221;0.001665;0.001378;0.00118;0.000939;0.000764;0.000662;0.000569;0.000508;0.23923;0.242671;0.253297;0.248718;0.317063;0.443621;0.564539;0.545159;0.372166;0.371398;0.331209;0.260198;0.208619;0.227159;0.180902;0.13186;0.116594;0.101292;0.074122;0.057281;0.038667;0.026637;0.018819;0.014172;0.010926;0.006505;0.005013;0.003884;0.003266;0.002776;0.002197;0.001599;0.001252;0.00102;0.000838;0.000715;0.130141;0.131391;0.134563;0.146312;0.1673975;0.186505;0.380715;0.4902675;0.462839;0.3016735;0.2222155;0.2016455;0.200682;0.197372;0.1893925;0.1402945;0.1122405;0.088191;0.0586625;0.048296;0.03461;0.028135;0.021328;0.014806;0.0123405;0.006171;0.003866;0.0028005;0.0020215;0.0017295;0.0012925;0.0009555;0.000761;0.000642;0.000543;0.0004775;0.175661;0.177884;0.178872;0.186299;0.234125;0.210778;0.481913;0.633625;0.5248;0.324586;0.281055;0.253534;0.218918;0.215971;0.213339;0.164854;0.135084;0.097851;0.067778;0.055184;0.043462;0.030401;0.025167;0.01769;0.014506;0.007094;0.004329;0.003145;0.002289;0.001961;0.001496;0.001078;0.00085;0.00068;0.000587;0.000518;0.095385;0.096833;0.097109;0.099164;0.115083;0.144442;0.207044;0.329266;0.26853;0.275536;0.188354;0.1621;0.139017;0.168481;0.153919;0.077613;0.06471;0.059054;0.045359;0.039216;0.02387;0.014305;0.012308;0.007573;0.006051;0.003874;0.002582;0.001963;0.001527;0.001288;0.00108;0.000812;0.000673;0.000538;0.00045;0.000402;0.02773470010265889;0.007306041195791206
9;EMSC-20060923_0000041;2006-09-23 05:44:07;8767706;usp000etmv;;20060923_0000041;RO;45.5426;26.3885;124.2611;ISC-webservice;U;4.2;EMSC-CSEM;;;2.6;ISC-webservice;4.3;Mw;INFP;;;;;;;;;;;RO;VRI;00;HN;0.0;0;ERR;;RO;45.8657;26.7277;475;;;;;;;;5.227826;597.891754;44.6;132.02265325772694;216.5;;;;;D;0;E;90.0;N;0.0;Z;0.35;0.35;0.35;30.0;30.0;30.0;2.285714285714286;4.3;124.2611;90;132.02265325772694;132.02265325772694;44.6;49.39;597.891754;False;31.07;4;-0.833616;-0.590413;-0.685676;0.7057365;0.834198;0.458061;-0.025952;0.024119;-0.016824;0.024556;0.0267399;0.0171205;0.001508;0.001134;0.00106;0.00130183;0.00150153;0.00106601;24.275;22.14;23.2;23.183;23.685;24.285;21.95;0.0488505;0.0417426;0.0230888;0.04522735;0.0493689;0.0413416;4.36346728831;2.45229608627;1.94640760966;3.55041784192;4.43755198049;2.2988214854;0.0012485331415;0.000399292405794;0.000273456664826;0.000823912735022;0.00129429627789;0.000353529247364;0.835388;0.855255;0.911957;0.945834;1.2356;1.65092;3.87664;2.52665;1.52193;1.84644;1.24062;0.690455;0.735182;0.55467;0.35036;0.208223;0.179014;0.149053;0.089511;0.081455;0.066772;0.041818;0.033988;0.028217;0.019915;0.014485;0.01049;0.007647;0.005921;0.004897;0.003906;0.003011;0.002444;0.002052;0.001785;0.00156;0.59087;0.600358;0.622889;0.64543;0.821809;1.05264;1.55336;1.80711;1.97628;1.4663;1.06349;0.778045;0.546853;0.421265;0.292018;0.197141;0.175267;0.144945;0.111309;0.075413;0.064794;0.040709;0.030795;0.02435;0.020398;0.009449;0.007029;0.004785;0.004777;0.003921;0.003246;0.002758;0.002279;0.001922;0.001776;0.001574;0.686719;0.711577;0.799364;0.971509;1.72834;1.59529;1.67065;1.6699;1.2728;0.801365;0.434522;0.264152;0.185061;0.158148;0.096312;0.068189;0.061319;0.058566;0.049045;0.05173;0.030387;0.021726;0.016597;0.013092;0.012104;0.006758;0.006266;0.004783;0.004622;0.004152;0.002812;0.002234;0.001805;0.00156;0.001296;0.001129;0.707643;0.721327;0.7665735;0.812949;1.037515;1.201285;3.176525;2.239845;1.788915;1.75084;1.20478;0.756469;0.6183515;0.453067;0.294374;0.199982;0.1852375;0.1469575;0.1000165;0.0772735;0.0639915;0.041643;0.0333215;0.026137;0.0201905;0.0117315;0.00883;0.0068905;0.0053855;0.004492;0.003722;0.002908;0.002386;0.002009;0.0017765;0.001562;0.837031;0.857479;0.914544;0.952893;1.26221;1.65724;3.93639;3.0279;2.1401;1.94608;1.26046;0.828171;0.867725;0.600333;0.355192;0.230753;0.203624;0.157155;0.122417;0.085391;0.070459;0.044407;0.034566;0.029292;0.02259;0.014498;0.01049;0.007786;0.005923;0.005065;0.004115;0.003043;0.00247;0.002091;0.001888;0.001681;0.459557;0.463934;0.486714;0.514891;0.677889;0.914793;1.16402;1.80711;1.39418;0.980863;1.01868;0.690455;0.458239;0.332254;0.220358;0.176339;0.164477;0.13606;0.085917;0.069917;0.052161;0.035266;0.029822;0.021127;0.015643;0.008867;0.006743;0.004785;0.003835;0.003388;0.002914;0.002181;0.001767;0.001516;0.001315;0.001147;0.06070949966309171;0.017567789888714224
