;event_id;event_time;ISC_ev_id;USGS_ev_id;INGV_ev_id;EMSC_ev_id;ev_nation_code;ev_latitude;ev_longitude;ev_depth_km;ev_hyp_ref;fm_type_code;ML;ML_ref;Mw;Mw_ref;Ms;Ms_ref;EMEC_Mw;EMEC_Mw_type;EMEC_Mw_ref;event_source_id;es_strike;es_dip;es_rake;es_strike_dip_rake_ref;es_z_top;es_z_top_ref;es_length;es_width;es_geometry_ref;network_code;station_code;location_code;instrument_code;sensor_depth_m;proximity_code;housing_code;installation_code;st_nation_code;st_latitude;st_longitude;st_elevation;ec8_code;ec8_code_method;ec8_code_ref;vs30_m_sec;vs30_ref;vs30_calc_method;vs30_meas_type;slope_deg;vs30_m_sec_WA;epi_dist;hypo_dist;epi_az;JB_dist;rup_dist;Rx_dist;Ry0_dist;instrument_type_code;late_triggered_flag_01;U_channel_code;U_azimuth_deg;V_channel_code;V_azimuth_deg;W_channel_code;U_hp;V_hp;W_hp;U_lp;V_lp;W_lp;max_usable_T;mag;hypo_depth;rake;rhypo;rrup;rjb;xvf;vs30;vs30measured;z1pt0;region;U_pga;V_pga;W_pga;rotD50_pga;rotD100_pga;rotD00_pga;U_pgv;V_pgv;W_pgv;rotD50_pgv;rotD100_pgv;rotD00_pgv;U_pgd;V_pgd;W_pgd;rotD50_pgd;rotD100_pgd;rotD00_pgd;U_T90;V_T90;W_T90;GM_T90;rotD50_T90;rotD100_T90;rotD00_T90;U_housner;V_housner;W_housner;rotD50_housner;rotD100_housner;rotD00_housner;U_CAV;V_CAV;W_CAV;rotD50_CAV;rotD100_CAV;rotD00_CAV;U_ia;V_ia;W_ia;rotD50_ia;rotD100_ia;rotD00_ia;U_T0_010;U_T0_025;U_T0_040;U_T0_050;U_T0_070;U_T0_100;U_T0_150;U_T0_200;U_T0_250;U_T0_300;U_T0_350;U_T0_400;U_T0_450;U_T0_500;U_T0_600;U_T0_700;U_T0_750;U_T0_800;U_T0_900;U_T1_000;U_T1_200;U_T1_400;U_T1_600;U_T1_800;U_T2_000;U_T2_500;U_T3_000;U_T3_500;U_T4_000;U_T4_500;U_T5_000;U_T6_000;U_T7_000;U_T8_000;U_T9_000;U_T10_000;V_T0_010;V_T0_025;V_T0_040;V_T0_050;V_T0_070;V_T0_100;V_T0_150;V_T0_200;V_T0_250;V_T0_300;V_T0_350;V_T0_400;V_T0_450;V_T0_500;V_T0_600;V_T0_700;V_T0_750;V_T0_800;V_T0_900;V_T1_000;V_T1_200;V_T1_400;V_T1_600;V_T1_800;V_T2_000;V_T2_500;V_T3_000;V_T3_500;V_T4_000;V_T4_500;V_T5_000;V_T6_000;V_T7_000;V_T8_000;V_T9_000;V_T10_000;W_T0_010;W_T0_025;W_T0_040;W_T0_050;W_T0_070;W_T0_100;W_T0_150;W_T0_200;W_T0_250;W_T0_300;W_T0_350;W_T0_400;W_T0_450;W_T0_500;W_T0_600;W_T0_700;W_T0_750;W_T0_800;W_T0_900;W_T1_000;W_T1_200;W_T1_400;W_T1_600;W_T1_800;W_T2_000;W_T2_500;W_T3_000;W_T3_500;W_T4_000;W_T4_500;W_T5_000;W_T6_000;W_T7_000;W_T8_000;W_T9_000;W_T10_000;rotD50_T0_010;rotD50_T0_025;rotD50_T0_040;rotD50_T0_050;rotD50_T0_070;rotD50_T0_100;rotD50_T0_150;rotD50_T0_200;rotD50_T0_250;rotD50_T0_300;rotD50_T0_350;rotD50_T0_400;rotD50_T0_450;rotD50_T0_500;rotD50_T0_600;rotD50_T0_700;rotD50_T0_750;rotD50_T0_800;rotD50_T0_900;rotD50_T1_000;rotD50_T1_200;rotD50_T1_400;rotD50_T1_600;rotD50_T1_800;rotD50_T2_000;rotD50_T2_500;rotD50_T3_000;rotD50_T3_500;rotD50_T4_000;rotD50_T4_500;rotD50_T5_000;rotD50_T6_000;rotD50_T7_000;rotD50_T8_000;rotD50_T9_000;rotD50_T10_000;rotD100_T0_010;rotD100_T0_025;rotD100_T0_040;rotD100_T0_050;rotD100_T0_070;rotD100_T0_100;rotD100_T0_150;rotD100_T0_200;rotD100_T0_250;rotD100_T0_300;rotD100_T0_350;rotD100_T0_400;rotD100_T0_450;rotD100_T0_500;rotD100_T0_600;rotD100_T0_700;rotD100_T0_750;rotD100_T0_800;rotD100_T0_900;rotD100_T1_000;rotD100_T1_200;rotD100_T1_400;rotD100_T1_600;rotD100_T1_800;rotD100_T2_000;rotD100_T2_500;rotD100_T3_000;rotD100_T3_500;rotD100_T4_000;rotD100_T4_500;rotD100_T5_000;rotD100_T6_000;rotD100_T7_000;rotD100_T8_000;rotD100_T9_000;rotD100_T10_000;rotD00_T0_010;rotD00_T0_025;rotD00_T0_040;rotD00_T0_050;rotD00_T0_070;rotD00_T0_100;rotD00_T0_150;rotD00_T0_200;rotD00_T0_250;rotD00_T0_300;rotD00_T0_350;rotD00_T0_400;rotD00_T0_450;rotD00_T0_500;rotD00_T0_600;rotD00_T0_700;rotD00_T0_750;rotD00_T0_800;rotD00_T0_900;rotD00_T1_000;rotD00_T1_200;rotD00_T1_400;rotD00_T1_600;rotD00_T1_800;rotD00_T2_000;rotD00_T2_500;rotD00_T3_000;rotD00_T3_500;rotD00_T4_000;rotD00_T4_500;rotD00_T5_000;rotD00_T6_000;rotD00_T7_000;rotD00_T8_000;rotD00_T9_000;rotD00_T10_000;rotD50_AvgSA[0,3];rotD50_AvgSA[0,6]
20;EMSC-20070328_0000047;2007-03-28 00:59:05;11707102;usp000f7p4;;20070328_0000047;RO;45.6221;26.523;146.7023;ISC-webservice;U;4.0;EMSC-CSEM;;;;;4.1;Mw;INFP;;;;;;;;;;;RO;MLR;00;HN;0.0;;;;RO;45.4909;25.945;1392;;;;;;;;27.402644;1305.613413;47.4;154.16979219448277;71.9;;;;;D;0;E;90.0;N;0.0;Z;0.35;0.35;0.35;30.0;30.0;30.0;2.285714285714286;4.1;146.7023;90;154.16979219448277;154.16979219448277;47.4;18.0;1305.613413;False;31.07;4;-0.061545;0.03577;-0.030463;0.0474195;0.063542;0.034472;0.001818;0.001748;0.001364;0.001791225;0.00197325;0.00147223;0.000186;0.000186;-0.000102;0.0001709945;0.000204096;0.000144839;12.805;18.905;15.76;15.559;16.3375;29.235;11.26;0.00551651;0.00455513;0.00351003;0.004909385;0.00551675;0.00450134;0.145525440142;0.154537050021;0.162500445041;0.149734362465;0.167674855031;0.122814844969;1.58601817362e-06;1.38155924275e-06;1.63067478833e-06;1.48379039461e-06;1.67894700956e-06;1.2886332732e-06;0.061665;0.062677;0.064045;0.067631;0.073806;0.082983;0.217175;0.125633;0.097966;0.077427;0.05743;0.060479;0.053256;0.057321;0.061539;0.041849;0.033738;0.027572;0.017915;0.013926;0.010411;0.007403;0.005809;0.004685;0.003599;0.00193;0.001339;0.000932;0.000703;0.000599;0.000487;0.000358;0.000279;0.00023;0.000195;0.000168;0.035799;0.036659;0.037717;0.039429;0.055221;0.072951;0.137605;0.096558;0.092113;0.089418;0.086001;0.064194;0.038772;0.041192;0.036792;0.036114;0.029076;0.020678;0.015355;0.011135;0.006362;0.00586;0.004865;0.00365;0.003061;0.001965;0.001243;0.000813;0.000584;0.000527;0.000405;0.000288;0.000227;0.000192;0.000161;0.00014;0.030523;0.030697;0.032339;0.034275;0.05299;0.119961;0.106542;0.098875;0.141437;0.072113;0.047912;0.079199;0.051497;0.043695;0.022628;0.017942;0.012254;0.01104;0.007981;0.00565;0.004267;0.004245;0.003232;0.002705;0.002671;0.00166;0.001005;0.000588;0.000366;0.000304;0.000237;0.000197;0.000161;0.000129;0.00011;9.4e-05;0.0475085;0.0485545;0.0503285;0.0528775;0.05615;0.0789295;0.1785905;0.1150435;0.097124;0.0833205;0.0639215;0.0630355;0.0448275;0.0551525;0.051151;0.038609;0.0312275;0.0246535;0.016626;0.0117365;0.008359;0.006792;0.0055135;0.0043175;0.003362;0.001937;0.001315;0.000873;0.0005755;0.0005155;0.0004025;0.0002905;0.00023;0.0001955;0.000165;0.0001435;0.063654;0.064725;0.06617;0.069876;0.075491;0.092282;0.229487;0.148766;0.102468;0.10453;0.086897;0.072124;0.053883;0.060641;0.067101;0.052193;0.038813;0.031679;0.020349;0.014838;0.010411;0.009241;0.006193;0.005345;0.003824;0.002462;0.00156;0.000951;0.000709;0.000609;0.000496;0.000362;0.000281;0.000232;0.000196;0.000169;0.034575;0.035339;0.036965;0.038271;0.047127;0.061614;0.092496;0.073066;0.089165;0.067265;0.055082;0.041048;0.038196;0.037911;0.035365;0.01838;0.016831;0.013846;0.009264;0.007695;0.006;0.004405;0.003268;0.002252;0.001776;0.001123;0.000786;0.000561;0.000453;0.000389;0.000312;0.000232;0.000178;0.000149;0.000123;0.000106;0.008002665936600215;0.002176608910385797
21;EMSC-20070405_0000059;2007-04-05 01:22:29;11916079;usp000f8qk;;20070405_0000059;RO;45.6885;26.6317;110.5413;ISC-webservice;U;4.0;EMSC-CSEM;;;2.8;ISC-webservice;4.1;Mw;INFP;;;;;;;;;;;GE;TIRR;00;HN;3.0;;;;RO;44.4581;28.4128;77;;;;;;;;0.383942;302.057214;195.9;224.93596645643402;314.9;;;;;D;0;E;90.0;N;0.0;Z;0.35;0.35;0.35;30.0;30.0;30.0;2.285714285714286;4.1;110.5413;90;224.93596645643402;224.93596645643402;195.9;150.0;302.057214;False;31.07;5;1.026617;1.23916;-1.32864;1.1378395;1.609148;0.638287;-0.013459;-0.024153;0.021178;0.01714565;0.0242281;0.0106242;0.00062;-0.001094;0.000918;0.000782214;0.00111501;0.000542624;40.275;34.42;36.305;37.233;36.4825;40.855;34.42;0.0185805;0.0348564;0.028859;0.027729;0.0350804;0.0179852;3.33837460149;4.4052991524;4.5111695244;3.91434629273;4.8672687066;2.63450892058;0.000562637226975;0.00114225457599;0.00112940653581;0.000852445934723;0.00136051470041;0.000344377131584;1.06864;1.39335;3.4609;2.70215;1.15559;1.73353;1.0394;0.503835;0.333173;0.198793;0.147603;0.182233;0.178902;0.183081;0.184649;0.146135;0.121879;0.098339;0.073922;0.058936;0.033594;0.024878;0.017804;0.013129;0.010579;0.005684;0.004041;0.00318;0.002595;0.002328;0.002008;0.001631;0.001343;0.001156;0.001016;0.000907;1.26909;1.73702;4.50079;3.03367;2.88762;3.38139;1.93172;1.14366;1.2256;1.22218;0.685635;0.643152;0.622458;0.42201;0.198406;0.137842;0.124635;0.116537;0.117982;0.096763;0.056544;0.032167;0.022206;0.017221;0.013725;0.009809;0.007611;0.006342;0.005358;0.004701;0.004011;0.003191;0.002625;0.002243;0.001955;0.001735;1.3351;1.46547;3.61581;3.977;2.66573;3.37811;1.7246;0.882043;0.96478;0.76042;0.436759;0.521087;0.454011;0.393397;0.281776;0.174588;0.140684;0.113445;0.073996;0.05125;0.030731;0.02391;0.019821;0.01626;0.013419;0.009724;0.007106;0.00565;0.004702;0.004173;0.003523;0.002767;0.002298;0.001955;0.001702;0.001503;1.173855;1.580445;4.017375;2.87416;2.08768;3.006835;1.396285;0.846439;0.8852495;0.86515;0.488388;0.4607425;0.441505;0.311643;0.191909;0.1448235;0.123257;0.106454;0.096676;0.0762565;0.0432985;0.0305085;0.0207375;0.015683;0.0128645;0.0079795;0.005989;0.0047265;0.0038985;0.003411;0.0028925;0.002294;0.0018795;0.0016005;0.0013925;0.0012345;1.60937;2.21936;5.63542;3.94743;2.89177;3.48651;1.97465;1.14415;1.23409;1.22218;0.687989;0.643152;0.624383;0.440731;0.211805;0.178629;0.158877;0.144824;0.135483;0.106513;0.057674;0.033204;0.024455;0.018524;0.01518;0.01004;0.00773;0.006444;0.005433;0.00475;0.00405;0.003215;0.002641;0.002254;0.001964;0.001743;0.655037;0.807816;2.04263;1.44594;0.996564;1.35395;0.713854;0.397097;0.262836;0.192507;0.138077;0.165556;0.169478;0.18204;0.169872;0.112463;0.08442;0.073249;0.053167;0.041085;0.030364;0.022667;0.015709;0.011538;0.009126;0.005085;0.003648;0.002795;0.002252;0.002002;0.001675;0.001335;0.00107;0.000899;0.000795;0.000702;0.04420536135317335;0.013670376552342302
22;EMSC-20070405_0000059;2007-04-05 01:22:29;11916079;usp000f8qk;;20070405_0000059;RO;45.6885;26.6317;110.5413;ISC-webservice;U;4.0;EMSC-CSEM;;;2.8;ISC-webservice;4.1;Mw;INFP;;;;;;;;;;;RO;IAS;00;HN;0.0;;;;RO;47.1931;27.553;195;;;;;;;;6.846236;690.214592;181.6;212.59806914854613;203.3;;;;;D;0;E;90.0;N;0.0;Z;0.45;0.45;0.45;30.0;30.0;30.0;1.777777777777778;4.1;110.5413;90;212.59806914854613;212.59806914854613;181.6;145.65;690.214592;False;31.07;4;1.516111;-1.200295;-1.446715;1.262481;1.522308;0.841977;0.02392;-0.021844;0.017648;0.0231752;0.026471;0.0122765;-0.000588;0.00086;-0.00038;0.0007141745;0.000901898;0.000477446;25.725;33.775;36.575;29.476;27.535;39.485;24.35;0.0212176;0.0237191;0.0126498;0.02222425;0.0259005;0.0178343;4.53388221906;4.18061565737;5.15162544902;4.36386521979;4.53794423515;4.13542293017;0.00125387992719;0.000803926497799;0.00116280693087;0.001028903229;0.00136161275409;0.000696193900706;1.54664;1.70693;2.28592;3.44518;4.49337;2.43164;3.75524;1.25834;0.562078;0.335288;0.264079;0.183248;0.160779;0.138836;0.115332;0.080559;0.085326;0.093736;0.066312;0.03967;0.022347;0.019744;0.015476;0.012975;0.010068;0.007287;0.006043;0.004469;0.003793;0.003525;0.00297;0.002509;0.002075;0.001807;0.001633;0.001463;1.20808;1.29356;2.401;3.14733;2.8771;2.6002;3.30494;0.953733;0.527598;0.505847;0.385841;0.203274;0.145724;0.168852;0.171726;0.130929;0.124143;0.110685;0.086438;0.059334;0.031683;0.02122;0.017508;0.014551;0.012281;0.00837;0.006193;0.005005;0.004133;0.003454;0.002957;0.002317;0.001888;0.001584;0.001367;0.001234;1.45039;1.68348;2.21241;4.48345;3.69017;1.935;1.8538;0.917808;0.311089;0.221172;0.149917;0.096943;0.081801;0.079216;0.082042;0.05444;0.043742;0.036524;0.031277;0.0271;0.016754;0.011058;0.009415;0.008559;0.006656;0.005487;0.004476;0.003624;0.003012;0.002595;0.002181;0.00199;0.001646;0.001427;0.00127;0.001126;1.262965;1.371195;2.30357;3.215635;3.94921;2.514235;3.54554;1.152;0.5398545;0.433219;0.312766;0.186397;0.15147;0.156029;0.1414145;0.1135565;0.097513;0.1020465;0.0713015;0.0512985;0.0281355;0.019903;0.016043;0.0134135;0.010855;0.0076475;0.006118;0.004737;0.003928;0.0034895;0.0029635;0.002425;0.002002;0.0017215;0.001522;0.001369;1.5542;1.71711;2.76734;4.00272;4.53621;3.19941;4.11513;1.32388;0.653878;0.512257;0.395617;0.25193;0.173081;0.182434;0.176542;0.131601;0.124696;0.110831;0.088043;0.061192;0.032841;0.024254;0.01898;0.015934;0.013207;0.009347;0.007016;0.005543;0.004623;0.003899;0.003408;0.002893;0.002381;0.002051;0.00178;0.001596;0.842025;0.948113;1.783;2.00133;1.97031;1.64803;1.92201;0.718617;0.345886;0.278606;0.25703;0.161468;0.11986;0.097136;0.115137;0.072591;0.067928;0.063477;0.056447;0.036687;0.020846;0.01695;0.012971;0.010821;0.007601;0.004885;0.003978;0.002854;0.002449;0.002098;0.001783;0.001297;0.001089;0.000953;0.000843;0.000751;0.036179276247442396;0.012813334871085012
23;EMSC-20070405_0000059;2007-04-05 01:22:29;11916079;usp000f8qk;;20070405_0000059;RO;45.6885;26.6317;110.5413;ISC-webservice;U;4.0;EMSC-CSEM;;;2.8;ISC-webservice;4.1;Mw;INFP;;;;;;;;;;;RO;MLR;00;HN;0.0;;;;RO;45.4909;25.945;1392;;;;;;;;27.402644;1305.613413;57.9;124.78697450331104;67.5;;;;;D;0;E;90.0;N;0.0;Z;0.25;0.25;0.25;30.0;30.0;30.0;3.2;4.1;110.5413;90;124.78697450331104;124.78697450331104;57.9;18.0;1305.613413;False;31.07;4;-0.100225;-0.092618;-0.093029;0.1035555;0.114661;0.079466;-0.005153;0.004961;0.00449;0.005184845;0.00678956;0.00426695;0.0006;0.000629;-0.00034;0.000613983;0.00068671;0.00053805;8.79;14.255;17.435;11.194;11.88;15.985;8.185;0.0188853;0.0167012;0.011493;0.01787475;0.0189981;0.0163839;0.312791604931;0.336251700162;0.303965170053;0.322528962503;0.344982970001;0.295777214952;1.04054718636e-05;1.03549448879e-05;7.93527786866e-06;1.03802083757e-05;1.20545503968e-05;8.7058829413e-06;0.100284;0.101631;0.102428;0.105642;0.110544;0.115805;0.23262;0.318463;0.322217;0.364883;0.274558;0.236444;0.279151;0.210465;0.148411;0.118159;0.096103;0.081342;0.066605;0.054949;0.044201;0.030321;0.022789;0.015452;0.011776;0.00724;0.004623;0.003088;0.002193;0.001677;0.001304;0.001019;0.000786;0.000603;0.00051;0.000438;0.09267;0.093196;0.094072;0.095968;0.096205;0.129912;0.196397;0.267341;0.275093;0.211914;0.213656;0.182952;0.255535;0.220196;0.120178;0.119865;0.120946;0.098684;0.071969;0.063422;0.031379;0.023043;0.016986;0.012667;0.009746;0.005982;0.003985;0.002604;0.00184;0.001462;0.001186;0.000893;0.000722;0.000613;0.000515;0.000437;0.093146;0.094368;0.096738;0.097822;0.112272;0.131088;0.143129;0.256161;0.261798;0.202876;0.186161;0.121087;0.165056;0.174681;0.148245;0.084946;0.069725;0.056152;0.046569;0.034163;0.019126;0.011566;0.008568;0.005943;0.004616;0.003031;0.002053;0.001517;0.001279;0.001042;0.000792;0.00069;0.000528;0.000429;0.000376;0.000322;0.1036485;0.104531;0.1058525;0.107638;0.113059;0.120625;0.215413;0.2774315;0.3321145;0.301211;0.2338815;0.2139825;0.270042;0.2153305;0.126589;0.119012;0.1103595;0.0971905;0.070202;0.057944;0.0387215;0.027124;0.0204165;0.015361;0.011749;0.0061185;0.0039875;0.002695;0.0020295;0.001664;0.001264;0.0008985;0.000729;0.0005905;0.0005005;0.0004345;0.114679;0.115345;0.116465;0.118353;0.121551;0.143269;0.29146;0.380373;0.382632;0.420118;0.305196;0.246617;0.349966;0.267032;0.149306;0.146122;0.131962;0.102483;0.081181;0.065574;0.044527;0.031199;0.022798;0.01688;0.013524;0.00762;0.004724;0.003132;0.002276;0.001801;0.001393;0.00109;0.000832;0.000638;0.000537;0.000466;0.079529;0.079971;0.08083;0.082103;0.096205;0.11168;0.173166;0.207123;0.275093;0.202767;0.209416;0.147154;0.13859;0.129379;0.088536;0.091928;0.094164;0.077367;0.045983;0.037321;0.028761;0.022577;0.01631;0.012107;0.009405;0.00531;0.003208;0.0024;0.001777;0.001462;0.001134;0.000839;0.000668;0.000537;0.000452;0.000383;0.026952987885457774;0.006858662551485509
24;EMSC-20070503_0000085;2007-05-03 20:07:12;12647203;usp000fb60;;20070503_0000085;RO;45.7368;26.6505;88.4879;ISC-webservice;U;4.0;EMSC-CSEM;;;;;3.8;Mw;INFP;;;;;;;;;;;RO;IAS;00;HN;0.0;;;;RO;47.1931;27.553;195;;;;;;;;6.846236;690.214592;176.1;197.08200944380997;203.5;;;;;D;0;E;90.0;N;0.0;Z;0.45;0.45;0.45;30.0;30.0;30.0;1.777777777777778;3.8;88.4879;90;197.08200944380997;197.08200944380997;176.1;145.65;690.214592;False;31.07;4;-0.257078;0.255835;-0.199701;0.259258;0.325932;0.210755;-0.00645;-0.007044;0.003607;0.006616555;0.00708503;0.00534045;0.000238;0.000327;-0.00016;0.0002599765;0.000328981;0.000195506;64.64;90.615;105.685;76.533;74.075;96.68;59.96;0.00908207;0.0107444;0.00621089;0.009806425;0.0109654;0.00828758;1.44834108549;1.42929521986;1.40450661981;1.43774311771;1.47777582559;1.38605195493;7.76201213395e-05;5.93114594064e-05;5.36940093377e-05;6.84657695786e-05;8.2077182739e-05;5.48543922116e-05;0.258292;0.271077;0.343648;0.463977;0.681458;0.65194;0.866421;0.359881;0.291764;0.147814;0.110423;0.095469;0.072807;0.071463;0.071469;0.045676;0.03749;0.03495;0.034721;0.0211;0.009563;0.006224;0.005228;0.004374;0.004632;0.004093;0.002147;0.001585;0.001308;0.001259;0.000846;0.000657;0.000544;0.00049;0.000411;0.000389;0.256244;0.273398;0.355875;0.482926;0.577472;0.660822;0.810569;0.417599;0.484819;0.360805;0.248561;0.155178;0.12492;0.089512;0.068573;0.05015;0.0421;0.037055;0.026756;0.018659;0.016643;0.009848;0.007626;0.006429;0.004929;0.00435;0.002479;0.001967;0.0016;0.001321;0.001033;0.000894;0.000724;0.000621;0.000554;0.000496;0.199942;0.215357;0.32051;0.454147;0.475552;0.632764;0.429365;0.236881;0.161699;0.133228;0.103894;0.075275;0.056781;0.041531;0.031551;0.014369;0.015496;0.017956;0.010936;0.010016;0.009028;0.007833;0.0069;0.005072;0.005428;0.003474;0.002106;0.001279;0.000834;0.000615;0.0005;0.000501;0.000373;0.000312;0.00026;0.00024;0.2595575;0.2740425;0.374413;0.465047;0.6199795;0.6516105;0.8738835;0.4257375;0.347708;0.2698645;0.1915395;0.1258415;0.093311;0.0766505;0.070021;0.04806;0.040288;0.0349915;0.030115;0.019457;0.0121865;0.008042;0.005861;0.004926;0.004709;0.003913;0.002096;0.0015745;0.001313;0.001251;0.000873;0.000679;0.0005645;0.0005045;0.000445;0.000417;0.326806;0.35037;0.436673;0.516841;0.757047;0.79764;0.901685;0.503339;0.484819;0.363672;0.253199;0.170956;0.130292;0.090626;0.092143;0.057927;0.052827;0.047432;0.034809;0.024751;0.017169;0.009849;0.007647;0.006634;0.005059;0.004413;0.002479;0.001971;0.001604;0.00135;0.001032;0.000894;0.000724;0.000622;0.000554;0.000496;0.214835;0.231631;0.294718;0.322165;0.489728;0.547698;0.697898;0.326008;0.271042;0.146383;0.072221;0.064599;0.066242;0.048229;0.033122;0.029081;0.024624;0.022313;0.017826;0.015504;0.009215;0.006094;0.005228;0.00425;0.004105;0.003382;0.001792;0.001334;0.001165;0.001027;0.000821;0.000639;0.000527;0.00046;0.000397;0.000355;0.014454528169986727;0.004390363450581299
