;event_id;event_time;ISC_ev_id;USGS_ev_id;INGV_ev_id;EMSC_ev_id;ev_nation_code;ev_latitude;ev_longitude;ev_depth_km;ev_hyp_ref;fm_type_code;ML;ML_ref;Mw;Mw_ref;Ms;Ms_ref;EMEC_Mw;EMEC_Mw_type;EMEC_Mw_ref;event_source_id;es_strike;es_dip;es_rake;es_strike_dip_rake_ref;es_z_top;es_z_top_ref;es_length;es_width;es_geometry_ref;network_code;station_code;location_code;instrument_code;sensor_depth_m;proximity_code;housing_code;installation_code;st_nation_code;st_latitude;st_longitude;st_elevation;ec8_code;ec8_code_method;ec8_code_ref;vs30_m_sec;vs30_ref;vs30_calc_method;vs30_meas_type;slope_deg;vs30_m_sec_WA;epi_dist;hypo_dist;epi_az;JB_dist;rup_dist;Rx_dist;Ry0_dist;instrument_type_code;late_triggered_flag_01;U_channel_code;U_azimuth_deg;V_channel_code;V_azimuth_deg;W_channel_code;U_hp;V_hp;W_hp;U_lp;V_lp;W_lp;max_usable_T;mag;hypo_depth;rake;rhypo;rrup;rjb;xvf;vs30;vs30measured;z1pt0;region;U_pga;V_pga;W_pga;rotD50_pga;rotD100_pga;rotD00_pga;U_pgv;V_pgv;W_pgv;rotD50_pgv;rotD100_pgv;rotD00_pgv;U_pgd;V_pgd;W_pgd;rotD50_pgd;rotD100_pgd;rotD00_pgd;U_T90;V_T90;W_T90;GM_T90;rotD50_T90;rotD100_T90;rotD00_T90;U_housner;V_housner;W_housner;rotD50_housner;rotD100_housner;rotD00_housner;U_CAV;V_CAV;W_CAV;rotD50_CAV;rotD100_CAV;rotD00_CAV;U_ia;V_ia;W_ia;rotD50_ia;rotD100_ia;rotD00_ia;U_T0_010;U_T0_025;U_T0_040;U_T0_050;U_T0_070;U_T0_100;U_T0_150;U_T0_200;U_T0_250;U_T0_300;U_T0_350;U_T0_400;U_T0_450;U_T0_500;U_T0_600;U_T0_700;U_T0_750;U_T0_800;U_T0_900;U_T1_000;U_T1_200;U_T1_400;U_T1_600;U_T1_800;U_T2_000;U_T2_500;U_T3_000;U_T3_500;U_T4_000;U_T4_500;U_T5_000;U_T6_000;U_T7_000;U_T8_000;U_T9_000;U_T10_000;V_T0_010;V_T0_025;V_T0_040;V_T0_050;V_T0_070;V_T0_100;V_T0_150;V_T0_200;V_T0_250;V_T0_300;V_T0_350;V_T0_400;V_T0_450;V_T0_500;V_T0_600;V_T0_700;V_T0_750;V_T0_800;V_T0_900;V_T1_000;V_T1_200;V_T1_400;V_T1_600;V_T1_800;V_T2_000;V_T2_500;V_T3_000;V_T3_500;V_T4_000;V_T4_500;V_T5_000;V_T6_000;V_T7_000;V_T8_000;V_T9_000;V_T10_000;W_T0_010;W_T0_025;W_T0_040;W_T0_050;W_T0_070;W_T0_100;W_T0_150;W_T0_200;W_T0_250;W_T0_300;W_T0_350;W_T0_400;W_T0_450;W_T0_500;W_T0_600;W_T0_700;W_T0_750;W_T0_800;W_T0_900;W_T1_000;W_T1_200;W_T1_400;W_T1_600;W_T1_800;W_T2_000;W_T2_500;W_T3_000;W_T3_500;W_T4_000;W_T4_500;W_T5_000;W_T6_000;W_T7_000;W_T8_000;W_T9_000;W_T10_000;rotD50_T0_010;rotD50_T0_025;rotD50_T0_040;rotD50_T0_050;rotD50_T0_070;rotD50_T0_100;rotD50_T0_150;rotD50_T0_200;rotD50_T0_250;rotD50_T0_300;rotD50_T0_350;rotD50_T0_400;rotD50_T0_450;rotD50_T0_500;rotD50_T0_600;rotD50_T0_700;rotD50_T0_750;rotD50_T0_800;rotD50_T0_900;rotD50_T1_000;rotD50_T1_200;rotD50_T1_400;rotD50_T1_600;rotD50_T1_800;rotD50_T2_000;rotD50_T2_500;rotD50_T3_000;rotD50_T3_500;rotD50_T4_000;rotD50_T4_500;rotD50_T5_000;rotD50_T6_000;rotD50_T7_000;rotD50_T8_000;rotD50_T9_000;rotD50_T10_000;rotD100_T0_010;rotD100_T0_025;rotD100_T0_040;rotD100_T0_050;rotD100_T0_070;rotD100_T0_100;rotD100_T0_150;rotD100_T0_200;rotD100_T0_250;rotD100_T0_300;rotD100_T0_350;rotD100_T0_400;rotD100_T0_450;rotD100_T0_500;rotD100_T0_600;rotD100_T0_700;rotD100_T0_750;rotD100_T0_800;rotD100_T0_900;rotD100_T1_000;rotD100_T1_200;rotD100_T1_400;rotD100_T1_600;rotD100_T1_800;rotD100_T2_000;rotD100_T2_500;rotD100_T3_000;rotD100_T3_500;rotD100_T4_000;rotD100_T4_500;rotD100_T5_000;rotD100_T6_000;rotD100_T7_000;rotD100_T8_000;rotD100_T9_000;rotD100_T10_000;rotD00_T0_010;rotD00_T0_025;rotD00_T0_040;rotD00_T0_050;rotD00_T0_070;rotD00_T0_100;rotD00_T0_150;rotD00_T0_200;rotD00_T0_250;rotD00_T0_300;rotD00_T0_350;rotD00_T0_400;rotD00_T0_450;rotD00_T0_500;rotD00_T0_600;rotD00_T0_700;rotD00_T0_750;rotD00_T0_800;rotD00_T0_900;rotD00_T1_000;rotD00_T1_200;rotD00_T1_400;rotD00_T1_600;rotD00_T1_800;rotD00_T2_000;rotD00_T2_500;rotD00_T3_000;rotD00_T3_500;rotD00_T4_000;rotD00_T4_500;rotD00_T5_000;rotD00_T6_000;rotD00_T7_000;rotD00_T8_000;rotD00_T9_000;rotD00_T10_000;rotD50_AvgSA[0,3];rotD50_AvgSA[0,6]
35;EMSC-20081217_0000052;2008-12-17 07:37:50;13402991;usp000gqsh;;20081217_0000052;RO;45.6522;26.484;89.1475;ISC-webservice;U;4.0;ISC-webservice;;;3.0;ISC-webservice;4.2;Mw;INFP;;;;;;;;;;;GE;TIRR;00;HN;3.0;;;;RO;44.4581;28.4128;77;;;;;;;;0.383942;302.057214;201.7;220.52248582910994;311.8;;;;;D;0;E;90.0;N;0.0;Z;0.2;0.2;0.2;30.0;30.0;30.0;4.0;4.2;89.1475;90;220.52248582910994;220.52248582910994;201.7;150.0;302.057214;False;31.07;5;-1.410987;1.131052;-1.266903;1.2786115;1.563056;1.020533;0.025367;-0.011754;0.017368;0.01934;0.0273513;0.0114497;-0.000847;0.000386;-0.00058;0.0006543115;0.000907676;0.000321877;38.975;45.05;41.62;41.903;42.8375;45.055;38.185;0.0196026;0.013375;0.0155562;0.01560175;0.0208087;0.0116503;4.30869427223;5.32841451083;5.8689954408;4.88787851872;5.66306535976;3.77983695357;0.00118766594545;0.00130935769183;0.00188727979573;0.00124851186489;0.00149744835742;0.000999575246706;1.41243;1.96455;3.64637;5.24612;4.979;1.7849;1.77979;1.40582;0.87964;0.555384;0.385134;0.28166;0.216596;0.16862;0.105171;0.069094;0.057155;0.050667;0.041266;0.034276;0.024976;0.019519;0.015377;0.012103;0.010841;0.007263;0.005459;0.004275;0.003684;0.003223;0.002853;0.002359;0.002041;0.001828;0.001648;0.001484;1.19337;1.76694;5.70928;3.37236;1.82728;1.49949;1.51271;0.636281;0.489898;0.313609;0.25539;0.175783;0.188857;0.155527;0.109791;0.059107;0.047316;0.040205;0.032707;0.02224;0.016868;0.011035;0.008028;0.006268;0.005307;0.004228;0.002811;0.00213;0.001784;0.001685;0.001578;0.001371;0.0011;0.000978;0.000847;0.000769;1.31341;1.65747;4.05098;6.53365;3.66567;2.23104;1.66553;0.988888;0.608305;0.442981;0.278338;0.194747;0.163234;0.116889;0.074987;0.05922;0.050294;0.052372;0.043008;0.024519;0.017618;0.01356;0.01081;0.009078;0.007895;0.005413;0.003881;0.003164;0.002665;0.002367;0.002115;0.001688;0.001385;0.001195;0.00107;0.000977;1.31863;1.785835;4.787265;4.755115;3.74551;1.52937;1.585275;1.05089;0.6574395;0.4143735;0.2939015;0.2173085;0.195171;0.1586305;0.105687;0.05932;0.0508705;0.0479095;0.0353835;0.027808;0.020305;0.014938;0.011963;0.0093605;0.0082805;0.0056545;0.004191;0.003287;0.002758;0.0024725;0.0021615;0.001807;0.0015555;0.0013865;0.0012495;0.001121;1.56552;2.12248;5.70928;6.09643;5.11194;1.99123;1.85831;1.46493;0.928731;0.583952;0.403052;0.302963;0.232881;0.180549;0.117321;0.073466;0.060804;0.054157;0.044205;0.036782;0.026879;0.0209;0.016723;0.01308;0.011546;0.007891;0.005852;0.004588;0.0039;0.003406;0.003004;0.002543;0.00218;0.001946;0.001757;0.001581;1.12151;1.63943;3.64637;2.65427;1.75594;1.1445;1.28415;0.622629;0.4202;0.29733;0.217939;0.15403;0.115197;0.081502;0.057807;0.042355;0.044025;0.03703;0.028276;0.019671;0.012843;0.010464;0.007185;0.005893;0.004985;0.003636;0.002476;0.001956;0.001633;0.001501;0.001381;0.001151;0.000944;0.000821;0.000736;0.000668;0.026582738514485164;0.009407969329111645
36;EMSC-20081217_0000052;2008-12-17 07:37:50;13402991;usp000gqsh;;20081217_0000052;RO;45.6522;26.484;89.1475;ISC-webservice;U;4.0;ISC-webservice;;;3.0;ISC-webservice;4.2;Mw;INFP;;;;;;;;;;;RO;CNCR;00;HN;0.0;;;;RO;44.4439;26.2619;105;;;;;;;;0.469356;309.702521;135.4;162.11242011718286;7.3;;;;;D;0;E;90.0;N;0.0;Z;0.35;0.35;0.35;20.0;20.0;20.0;2.285714285714286;4.2;89.1475;90;162.11242011718286;162.11242011718286;135.4;140.08;309.702521;False;31.07;5;-2.266599;-3.023701;0.944635;2.688635;3.348443;1.458308;-0.040588;0.072698;-0.023146;0.06227395;0.0820374;0.0316206;0.001265;0.002981;0.000634;0.002172065;0.00299679;0.00109796;9.2;9.41;24.605;9.304;9.3175;10.985;9.015;0.0424693;0.0881844;0.0250697;0.06888005;0.0885573;0.0413929;4.76264028889;4.86395215795;4.40518967412;4.81514514252;5.22237610344;4.38746154459;0.0026036614794;0.00304840918135;0.00150999358288;0.00282603522791;0.00368133310159;0.00197073777193;2.28047;2.38783;2.61871;2.75117;4.59009;7.07192;6.06653;3.03257;1.24235;1.34889;0.912341;0.482729;0.343142;0.299577;0.269079;0.175265;0.136559;0.129049;0.107659;0.080531;0.044697;0.034437;0.024922;0.023236;0.020939;0.015426;0.012744;0.009534;0.00793;0.006951;0.005931;0.00476;0.003964;0.003384;0.002999;0.002663;3.03184;3.15147;3.42352;3.81092;6.21987;6.24199;6.13883;6.45272;4.49376;3.59969;1.88191;1.18258;0.929937;0.726388;0.465577;0.352481;0.308351;0.261249;0.19502;0.158722;0.091092;0.066183;0.051277;0.041595;0.032485;0.023311;0.018232;0.013862;0.011796;0.010761;0.009515;0.007805;0.006622;0.005734;0.005076;0.004556;0.944939;0.994963;1.18632;1.35722;3.24909;3.72308;2.47482;1.5634;1.69194;0.693428;0.396199;0.320824;0.265828;0.257879;0.16779;0.075047;0.070258;0.060229;0.047608;0.037135;0.021403;0.018735;0.01345;0.011636;0.009241;0.006363;0.006409;0.004537;0.003708;0.003407;0.002883;0.002471;0.002053;0.001779;0.001575;0.001432;2.69381;2.807765;3.047575;3.296185;5.578025;6.67549;6.18371;4.77616;3.35328;2.661255;1.517975;0.9132745;0.712181;0.569829;0.3481195;0.266987;0.239159;0.2073915;0.1557815;0.1225665;0.0748775;0.053702;0.0445815;0.035863;0.030758;0.0211355;0.0163265;0.0127435;0.0106935;0.00945;0.0082025;0.006462;0.005293;0.004564;0.004026;0.003641;3.35822;3.50524;3.83397;4.38779;7.63274;8.53366;6.50211;6.53851;4.54262;3.6614;1.8992;1.19799;0.929937;0.732478;0.471655;0.364788;0.330238;0.285596;0.211654;0.164351;0.092824;0.066183;0.051599;0.041866;0.033347;0.023939;0.018789;0.014824;0.012759;0.011707;0.010371;0.00853;0.007264;0.006339;0.005616;0.005063;1.45934;1.48029;1.53625;1.71323;3.90587;4.75749;5.84881;2.40637;0.981594;1.28293;0.890982;0.472502;0.334822;0.27105;0.247884;0.162363;0.136559;0.122625;0.088893;0.068793;0.041542;0.034031;0.024421;0.021218;0.018461;0.013042;0.011204;0.007905;0.00654;0.005661;0.004871;0.003906;0.003261;0.002773;0.002437;0.002141;0.10051964199103333;0.033586233565385044
37;EMSC-20081217_0000052;2008-12-17 07:37:50;13402991;usp000gqsh;;20081217_0000052;RO;45.6522;26.484;89.1475;ISC-webservice;U;4.0;ISC-webservice;;;3.0;ISC-webservice;4.2;Mw;INFP;;;;;;;;;;;RO;GHRR;00;HN;0.0;;;;RO;46.0605;27.408;209;;;;;;;;3.190405;504.925814;84.9;123.10681035690105;238.0;;;;;D;0;E;90.0;N;0.0;Z;0.35;0.35;0.35;30.0;30.0;30.0;2.285714285714286;4.2;89.1475;90;123.10681035690105;123.10681035690105;84.9;101.32;504.925814;False;31.07;4;0.339545;-0.471218;0.197249;0.4290365;0.481439;0.335227;0.010704;-0.018588;0.006348;0.0162843;0.0195356;0.0102717;-0.000865;-0.001251;0.000525;0.00120639;0.00135803;0.000805858;27.24;22.865;34.515;24.957;24.74;27.24;22.865;0.0267623;0.0417029;0.0150553;0.03579785;0.0417726;0.0262837;1.53672431462;1.81570915939;1.45582402433;1.68938153309;1.83391112986;1.50132269932;0.000135671693193;0.000239202027519;0.000104198859468;0.000187436884898;0.000241502653181;0.000133371088546;0.341519;0.348203;0.403536;0.453837;0.545137;0.825991;1.11797;1.12818;0.723596;0.586676;0.458657;0.328794;0.287999;0.313443;0.215929;0.182451;0.156151;0.126447;0.091501;0.056888;0.038708;0.029255;0.028001;0.018674;0.012298;0.008273;0.005563;0.003807;0.003041;0.002536;0.00205;0.001576;0.001297;0.001084;0.000937;0.000824;0.471225;0.484342;0.487561;0.535074;0.68374;1.12649;1.21876;1.17958;1.7816;1.40797;0.883298;0.835629;0.562858;0.397356;0.225382;0.193423;0.178275;0.15427;0.164635;0.101303;0.058729;0.059302;0.04084;0.022518;0.018869;0.012309;0.008403;0.006765;0.005007;0.004228;0.003377;0.002635;0.002185;0.001842;0.001589;0.001399;0.197544;0.212397;0.299664;0.366544;0.775723;0.5582;0.429376;0.499376;0.461916;0.356847;0.410185;0.300352;0.240774;0.177509;0.112815;0.085119;0.07047;0.068509;0.052185;0.038082;0.020343;0.015205;0.010513;0.009158;0.007651;0.004124;0.003002;0.002316;0.001748;0.001552;0.001327;0.000951;0.00078;0.000658;0.000567;0.000498;0.4295185;0.4449155;0.4754665;0.5097165;0.6396485;1.0709;1.207285;1.154545;1.35156;1.05798;0.7859695;0.6890925;0.4612545;0.3408915;0.2241215;0.1821005;0.1629955;0.136625;0.1209955;0.0817655;0.051839;0.046906;0.0323145;0.022261;0.0176765;0.0098135;0.006372;0.0050665;0.0042245;0.0036745;0.0030795;0.0022735;0.0017865;0.001485;0.001257;0.001083;0.484462;0.497187;0.508873;0.544974;0.705046;1.28799;1.62263;1.24105;1.82684;1.44694;0.931672;0.848348;0.595914;0.443304;0.276776;0.216526;0.18049;0.169352;0.165098;0.102448;0.059582;0.059589;0.042499;0.024391;0.021154;0.012331;0.008451;0.006846;0.005089;0.004296;0.003437;0.002675;0.00221;0.001863;0.001608;0.001413;0.336218;0.347702;0.387935;0.407622;0.525331;0.805987;0.822316;1.02758;0.723596;0.491541;0.434508;0.315997;0.240564;0.270434;0.174117;0.135506;0.118581;0.105739;0.086999;0.056274;0.034342;0.023326;0.022325;0.017832;0.012298;0.007506;0.004874;0.003562;0.002831;0.00241;0.001938;0.0015;0.001236;0.001033;0.000891;0.000784;0.04985499716287505;0.01408275337249829
38;EMSC-20081217_0000052;2008-12-17 07:37:50;13402991;usp000gqsh;;20081217_0000052;RO;45.6522;26.484;89.1475;ISC-webservice;U;4.0;ISC-webservice;;;3.0;ISC-webservice;4.2;Mw;INFP;;;;;;;;;;;RO;HUMR;00;HN;0.0;;;;RO;44.5281;24.9804;247;;;;;;;;2.769113;483.369173;172.1;193.8186955797866;42.9;;;;;D;0;E;90.0;N;0.0;Z;0.35;0.35;0.35;30.0;30.0;30.0;2.285714285714286;4.2;89.1475;90;193.8186955797866;193.8186955797866;172.1;119.8;483.369173;False;31.07;5;-0.953837;1.589775;-0.550498;1.213802;1.698012;0.740532;0.020779;-0.038633;-0.015551;0.02812;0.0390683;0.0195065;0.001004;0.001014;0.000538;0.0010016615;0.00117414;0.000630648;15.395;14.165;33.33;14.767;14.6375;15.785;14.11;0.0299373;0.0352565;0.0153383;0.0323245;0.0354894;0.0295311;3.17175004956;3.45989330392;2.45953885017;3.32767817179;3.47204893545;3.16884617692;0.00086446297859;0.00116800135419;0.00036856778264;0.00101623216444;0.00123375640102;0.000798707931952;0.966086;1.03921;1.35708;1.68492;3.39109;2.87687;3.09676;1.4926;1.05849;0.756442;0.615291;0.407785;0.344951;0.30685;0.177286;0.098394;0.08562;0.079833;0.075563;0.055802;0.034659;0.025414;0.019378;0.015842;0.012952;0.009152;0.006853;0.005433;0.00446;0.003906;0.003284;0.002631;0.002174;0.001874;0.001635;0.001448;1.58982;1.67786;1.80138;2.57139;3.11399;4.78189;4.22821;2.27145;1.98031;0.867867;0.494667;0.462592;0.408688;0.255981;0.174729;0.114067;0.103035;0.097211;0.057982;0.048468;0.040413;0.027587;0.02567;0.021059;0.017025;0.011009;0.008247;0.006965;0.00599;0.005377;0.004808;0.004;0.003403;0.002955;0.002631;0.002374;0.554383;0.550903;1.05045;1.35694;1.40478;1.6172;2.11272;0.912533;0.640409;0.514223;0.269725;0.219094;0.105572;0.105686;0.089671;0.046321;0.042592;0.045271;0.037886;0.026169;0.015813;0.01404;0.011515;0.009355;0.007755;0.005107;0.003903;0.003066;0.002596;0.002271;0.001908;0.001509;0.001262;0.00111;0.000995;0.000902;1.22399;1.28158;1.55023;1.93387;3.18743;3.88079;3.84957;1.905255;1.563825;0.909108;0.60179;0.452634;0.3836255;0.2885675;0.184537;0.1080255;0.097574;0.0874965;0.0723825;0.0522535;0.035061;0.0255095;0.0207195;0.017743;0.014933;0.0103005;0.007817;0.0062435;0.005182;0.004541;0.0038785;0.003109;0.0025445;0.0021985;0.0019515;0.0017535;1.70163;1.79974;1.92239;2.62091;3.49286;4.8518;4.36883;2.3589;2.00176;0.956219;0.669128;0.481989;0.466268;0.359007;0.206788;0.121713;0.106427;0.097832;0.081454;0.063708;0.044182;0.02786;0.025734;0.021059;0.017025;0.011089;0.008453;0.007084;0.006074;0.005451;0.004866;0.004035;0.00344;0.002999;0.002669;0.002406;0.741359;0.779674;0.920984;1.26737;2.00969;2.6031;1.88598;1.20242;1.05849;0.756442;0.485631;0.407785;0.2683;0.245923;0.168288;0.080047;0.067723;0.067783;0.05495;0.04114;0.025751;0.022224;0.015365;0.011631;0.009696;0.006833;0.005273;0.004467;0.003689;0.003269;0.002803;0.002305;0.001912;0.001653;0.001443;0.001278;0.04583027242781496;0.01590494907419863
39;EMSC-20081217_0000052;2008-12-17 07:37:50;13402991;usp000gqsh;;20081217_0000052;RO;45.6522;26.484;89.1475;ISC-webservice;U;4.0;ISC-webservice;;;3.0;ISC-webservice;4.2;Mw;INFP;;;;;;;;;;;RO;IAS;00;HN;0.0;;;;RO;47.1931;27.553;195;;;;;;;;6.846236;690.214592;190.0;209.874430925375;206.0;;;;;D;0;E;90.0;N;0.0;Z;0.25;0.25;0.25;30.0;30.0;30.0;3.2;4.2;89.1475;90;209.874430925375;209.874430925375;190.0;145.65;690.214592;False;31.07;4;0.281295;0.335462;0.316563;0.3034615;0.404024;0.245548;-0.008074;-0.009426;-0.004737;0.008341435;0.0102789;0.00759277;0.000617;0.000621;-0.000172;0.0006045215;0.000784026;0.000411885;112.565;105.66;108.19;109.058;109.325;114.135;103.21;0.0168479;0.0200626;0.00742688;0.01829745;0.0204636;0.0168313;3.03026610385;3.04095923442;2.93659103965;3.03561266913;3.13718321875;2.93934688513;0.000189939427124;0.000213866782289;0.000180200260515;0.000201903094818;0.000214704090041;0.000189102079702;0.281548;0.29516;0.380805;0.512922;0.683857;0.697638;1.01;0.496872;0.341472;0.206682;0.239037;0.230152;0.22984;0.185525;0.187989;0.086864;0.07534;0.074684;0.074087;0.050169;0.023251;0.016498;0.012583;0.011115;0.007597;0.005245;0.003817;0.00257;0.002172;0.00172;0.001341;0.001067;0.000826;0.000676;0.000566;0.000478;0.335471;0.352015;0.408764;0.540352;0.683046;0.819574;1.11365;0.804636;0.638807;0.400562;0.33677;0.195392;0.159458;0.129626;0.145741;0.118524;0.115654;0.104772;0.097679;0.066763;0.035241;0.021633;0.014334;0.010149;0.008659;0.005127;0.003673;0.00285;0.002235;0.001951;0.001908;0.001339;0.001044;0.000881;0.000773;0.000684;0.322662;0.353112;0.41413;0.603355;0.862555;0.646524;0.5528;0.406785;0.222574;0.181708;0.123169;0.094369;0.065526;0.059468;0.059819;0.043723;0.03326;0.033974;0.022905;0.017513;0.009845;0.008209;0.005725;0.003654;0.00285;0.0022;0.001244;0.001037;0.000855;0.000736;0.000707;0.00055;0.000441;0.000384;0.000339;0.000301;0.3056245;0.3256805;0.393603;0.5145745;0.6895825;0.773208;1.103105;0.65033;0.4959925;0.3629535;0.2779065;0.2126505;0.1993035;0.16388;0.1634915;0.1002925;0.095229;0.089762;0.076106;0.0556035;0.0295295;0.0192725;0.014251;0.010835;0.0088435;0.0052915;0.0037765;0.0027345;0.0022035;0.0018405;0.001696;0.0012085;0.000949;0.0007965;0.0006785;0.0005905;0.404857;0.432329;0.515611;0.667433;0.758971;0.972075;1.16613;0.836694;0.638932;0.404474;0.392095;0.254682;0.240228;0.188342;0.205019;0.136401;0.118563;0.10672;0.102945;0.070362;0.036065;0.023192;0.015935;0.011614;0.009966;0.006286;0.004533;0.003753;0.003048;0.002551;0.002293;0.001681;0.001306;0.001091;0.000942;0.000822;0.246637;0.250776;0.334926;0.41393;0.599434;0.672483;0.913137;0.484175;0.321488;0.206682;0.182032;0.139081;0.158259;0.116613;0.092375;0.083872;0.073986;0.064115;0.05993;0.033412;0.019128;0.015737;0.012103;0.009919;0.006952;0.004706;0.003125;0.002336;0.001911;0.001561;0.001205;0.000993;0.000792;0.000665;0.000566;0.000478;0.02655407095700994;0.007692836051963066
