event_id;event_time;ISC_ev_id;INGV_ev_id;EMSC_ev_id;ev_nation_code;ev_latitude;ev_longitude;ev_depth_km;ev_hyp_ref;fm_type_code;ML;ML_ref;Mw;Mw_ref;Ms;Ms_ref;network_code;station_code;location_code;instrument_code;sensor_depth_m;proximity_code;housing_code;installation_code;st_nation_code;st_latitude;st_longitude;st_elevation;ec8_code;ec8_code_ref;vs30_m_sec;vs30_ref;vs30_meas_type;slope_deg;vs30_m_sec_WA;epi_dist;epi_az;instrument_type_code;U_hp;V_hp;U_lp;V_lp;U_pga;V_pga;U_pgv;V_pgv;U_T0_025;U_T0_040;U_T0_050;U_T0_070;U_T0_100;U_T0_150;U_T0_200;U_T0_250;U_T0_300;U_T0_350;U_T0_400;U_T0_450;U_T0_500;U_T0_600;U_T0_700;U_T0_750;U_T0_800;U_T0_900;U_T1_000;U_T1_200;U_T1_400;U_T1_600;U_T1_800;U_T2_000;U_T2_500;U_T3_000;U_T3_500;U_T4_000;U_T4_500;U_T5_000;V_T0_025;V_T0_040;V_T0_050;V_T0_070;V_T0_100;V_T0_150;V_T0_200;V_T0_250;V_T0_300;V_T0_350;V_T0_400;V_T0_450;V_T0_500;V_T0_600;V_T0_700;V_T0_750;V_T0_800;V_T0_900;V_T1_000;V_T1_200;V_T1_400;V_T1_600;V_T1_800;V_T2_000;V_T2_500;V_T3_000;V_T3_500;V_T4_000;V_T4_500;V_T5_000
EMSC-20150808_0000064;08.08.2015 22:46;607646874;5914151;20150808_0000064;IT;38.458;14.272;11.5;INGV_OSS_ETNEO_SEISMIC_CATALOG;U;4.1;INGV_OSS_ETNEO_SEISMIC_CATALOG;;;;;IV;EPOZ;0;HN;0;;;;IT;37.6719;15.1885;124;A*;ESM;;;;1.310353;379.800495;118.7;317.6;D;0.1;0.1;40;40;-0.046241;-0.048909;-0.00755;0.004527;0.046517;0.04701;0.049537;0.050622;0.062865;0.072267;0.085313;0.112536;0.123682;0.162762;0.133717;0.125439;0.133116;0.179699;0.120898;0.135251;0.135595;0.129474;0.073422;0.072445;0.061275;0.059648;0.051266;0.033246;0.01711;0.013456;0.009484;0.008187;0.006956;0.004794;0.049178;0.050844;0.050171;0.054256;0.078415;0.086889;0.115149;0.121131;0.152256;0.194513;0.173152;0.157754;0.138076;0.198969;0.128436;0.107316;0.110364;0.099219;0.087139;0.077724;0.060111;0.048902;0.022047;0.019791;0.017419;0.011043;0.008056;0.005834;0.005057;0.003577
EMSC-20150808_0000064;08.08.2015 22:46;607646874;5914151;20150808_0000064;IT;38.458;14.272;11.5;INGV_OSS_ETNEO_SEISMIC_CATALOG;U;4.1;INGV_OSS_ETNEO_SEISMIC_CATALOG;;;;;IV;EPZF;0;HH;0;;;;IT;37.824;14.857;1140;B*;ESM;;;;4.600512;569.214396;87.1;324.1;D;0.04;0.04;30;30;-0.118883;-0.158668;-0.009708;0.014442;0.119484;0.120993;0.122277;0.128188;0.144242;0.161849;0.310638;0.447107;0.415612;0.500102;0.474102;0.326023;0.296377;0.240505;0.214469;0.219897;0.182659;0.127808;0.184504;0.131433;0.073356;0.055273;0.035831;0.035593;0.017102;0.013805;0.007265;0.005309;0.004136;0.004287;0.159484;0.160411;0.161624;0.164444;0.196729;0.322443;0.32619;0.619634;0.769537;0.592204;0.438774;0.384729;0.407392;0.447601;0.347396;0.294293;0.271094;0.262949;0.192607;0.135609;0.069616;0.048355;0.042365;0.028674;0.025103;0.01406;0.011601;0.007782;0.005562;0.004942
EMSC-20150808_0000064;08.08.2015 22:46;607646874;5914151;20150808_0000064;IT;38.458;14.272;11.5;INGV_OSS_ETNEO_SEISMIC_CATALOG;U;4.1;INGV_OSS_ETNEO_SEISMIC_CATALOG;;;;;IV;EVRN;0;HN;0;0;VAU;P;IT;37.6892;15.1356;421;A*;ESM;;;;6.167782;648.230463;114.1;318.7;D;0.2;0.2;40;40;-0.119232;0.087346;-0.006166;0.005502;0.120586;0.127853;0.135125;0.133079;0.154118;0.239884;0.214788;0.328185;0.266817;0.295518;0.272879;0.25046;0.18598;0.178319;0.150972;0.168039;0.191464;0.137397;0.103717;0.054589;0.045322;0.031915;0.030147;0.030289;0.016411;0.007855;0.005256;0.003807;0.003351;0.002437;0.087546;0.089197;0.095667;0.094018;0.117973;0.239196;0.335759;0.276893;0.272702;0.214839;0.188915;0.186876;0.244504;0.138196;0.099406;0.093034;0.110451;0.091771;0.098552;0.063502;0.06519;0.032561;0.024368;0.017944;0.011578;0.004874;0.003532;0.00298;0.002443;0.001736
EMSC-20150808_0000064;08.08.2015 22:46;607646874;5914151;20150808_0000064;IT;38.458;14.272;11.5;INGV_OSS_ETNEO_SEISMIC_CATALOG;U;4.1;INGV_OSS_ETNEO_SEISMIC_CATALOG;;;;;IV;GIB;0;HH;0;;;;IT;37.990126;14.026023;1020;A*;ESM;;;;6.748967;684.188324;56.2;22.4;D;0.04;0.04;50;50;0.226794;-0.274794;-0.018267;-0.015667;0.228546;0.235812;0.234981;0.299092;0.300465;0.512545;0.631116;0.786044;0.988213;0.69502;0.482154;0.51543;0.479205;0.333744;0.315866;0.414384;0.326644;0.303362;0.21895;0.125881;0.079677;0.102161;0.075466;0.061825;0.028507;0.01829;0.012548;0.00856;0.006845;0.005016;0.276528;0.280397;0.289147;0.307223;0.486663;0.460644;0.947335;1.20971;0.761697;0.641227;0.57644;0.569045;0.612509;0.626577;0.341678;0.236191;0.252419;0.214135;0.151756;0.102313;0.074754;0.072365;0.046592;0.028583;0.021364;0.013939;0.008754;0.006359;0.005151;0.003642
EMSC-20150808_0000064;08.08.2015 22:46;607646874;5914151;20150808_0000064;IT;38.458;14.272;11.5;INGV_OSS_ETNEO_SEISMIC_CATALOG;U;4.1;INGV_OSS_ETNEO_SEISMIC_CATALOG;;;;;IV;IFIL;0;HH;0;;;;IT;38.5642;14.5753;277;A*;ESM;;;;14.98538;944.090572;29;246.1;D;0.04;0.04;50;50;-6.190643;-2.727249;0.260346;0.135622;6.69823;7.52802;10.431;13.0193;16.6223;14.0469;12.1842;16.2692;15.6382;23.5834;16.3297;14.0908;10.5963;6.9192;6.04276;4.54464;3.49521;2.46013;1.72313;1.01273;0.60822;0.449321;0.332544;0.26391;0.192417;0.120341;0.090518;0.07097;0.060248;0.048604;2.77161;2.78503;3.06175;5.29018;5.34493;4.71725;5.42032;4.52022;6.04811;7.53118;7.05038;7.61999;5.77793;3.45706;1.72371;1.63918;1.46487;1.18421;0.8666;0.619632;0.390615;0.217564;0.178648;0.146724;0.124477;0.072538;0.056299;0.045303;0.038692;0.031499
EMSC-20150808_0000064;08.08.2015 22:46;607646874;5914151;20150808_0000064;IT;38.458;14.272;11.5;INGV_OSS_ETNEO_SEISMIC_CATALOG;U;4.1;INGV_OSS_ETNEO_SEISMIC_CATALOG;;;;;IV;ILLI;0;HH;0;2;ERR;;IT;38.4457;14.9483;283;A*;ESM;;;;3.597624;523.469892;59.1;271.5;D;0.04;0.04;30;30;3.371026;-4.069845;0.261834;0.321372;3.42072;3.55484;3.88704;3.7732;5.88004;9.54018;8.15971;5.3087;7.01673;6.08986;6.29421;6.77188;4.71502;8.23547;8.80067;9.37563;8.83704;3.66101;2.23676;1.8329;0.932518;0.691322;0.609854;0.426229;0.354419;0.246064;0.155363;0.121937;0.096189;0.06962;4.1015;4.27342;4.33354;4.9443;5.46995;7.9388;8.88228;8.74078;11.945;8.75362;10.263;12.4122;15.2865;10.7268;11.2604;10.1429;8.18644;4.10727;3.50586;3.69108;1.82452;1.32499;0.946712;0.564995;0.272948;0.235699;0.140753;0.104912;0.09405;0.071756
EMSC-20150808_0000064;08.08.2015 22:46;607646874;5914151;20150808_0000064;IT;38.458;14.272;11.5;INGV_OSS_ETNEO_SEISMIC_CATALOG;U;4.1;INGV_OSS_ETNEO_SEISMIC_CATALOG;;;;;IV;IST3;0;HH;0;;;;IT;38.7992;15.2304;255;A*;ESM;;;;16.215409;977.459251;91.6;245.9;D;0.07;0.07;30;30;0.128499;0.166035;0.005018;-0.006938;0.134637;0.163029;0.203142;0.405732;0.441404;0.459378;0.215926;0.187997;0.188556;0.176007;0.204438;0.217566;0.191047;0.108791;0.098018;0.080585;0.080332;0.074897;0.077742;0.077363;0.028667;0.01974;0.017595;0.014236;0.009716;0.006516;0.005813;0.004297;0.003678;0.002539;0.170856;0.176882;0.240018;0.398738;0.537435;0.646532;0.420838;0.345443;0.211396;0.201636;0.202991;0.181299;0.218605;0.135897;0.105909;0.094587;0.099428;0.106872;0.09306;0.075617;0.041972;0.023183;0.018399;0.015545;0.014576;0.013072;0.00916;0.005769;0.004364;0.003983
EMSC-20150808_0000064;08.08.2015 22:46;607646874;5914151;20150808_0000064;IT;38.458;14.272;11.5;INGV_OSS_ETNEO_SEISMIC_CATALOG;U;4.1;INGV_OSS_ETNEO_SEISMIC_CATALOG;;;;;IV;ISTR;0;HH;0;;;;IT;38.7866;15.1918;103;A*;ESM;;;;11.061536;840.01622;88;245.8;D;0.1;0.1;30;30;0.2765;-0.296193;-0.011217;0.016091;0.284551;0.318634;0.341362;0.543662;0.725905;0.610756;0.394417;0.574209;0.542837;0.465911;0.583878;0.594564;0.325737;0.281637;0.153096;0.13227;0.150342;0.156313;0.109725;0.050571;0.052005;0.033967;0.0205;0.015621;0.01034;0.006186;0.004091;0.003147;0.002636;0.002316;0.305047;0.324151;0.399919;0.548751;0.731085;0.660039;0.932195;0.591084;0.626665;0.737127;0.822594;0.902763;0.795211;0.346919;0.238847;0.196456;0.151531;0.132446;0.133213;0.09755;0.052439;0.038217;0.02732;0.021917;0.017788;0.012223;0.006959;0.004792;0.004126;0.003116
EMSC-20150808_0000064;08.08.2015 22:46;607646874;5914151;20150808_0000064;IT;38.458;14.272;11.5;INGV_OSS_ETNEO_SEISMIC_CATALOG;U;4.1;INGV_OSS_ETNEO_SEISMIC_CATALOG;;;;;IV;IVPL;0;HH;0;;;;IT;38.3763;14.9801;486;B*;ESM;;;;7.899888;755.658159;62.5;278.6;D;0.04;0.04;30;30;-0.816675;0.9913;-0.068645;0.081184;0.835168;0.886853;1.05946;1.24084;1.43849;1.84672;1.77891;1.53163;1.51508;1.58957;2.59963;2.7029;2.60807;2.28596;1.1392;1.42015;1.45829;1.04614;0.960866;0.496054;0.367006;0.288204;0.223923;0.147103;0.067621;0.03749;0.031482;0.025652;0.020626;0.015551;1.02297;1.07926;1.46816;2.43749;2.22048;2.80007;2.16665;2.28423;2.13102;2.55442;3.52887;3.63749;2.24642;1.64719;1.5147;2.43472;2.3251;1.76709;1.58354;1.10333;0.38375;0.257879;0.172316;0.148616;0.086196;0.062497;0.044611;0.039499;0.03423;0.024242
EMSC-20150808_0000064;08.08.2015 22:46;607646874;5914151;20150808_0000064;IT;38.458;14.272;11.5;INGV_OSS_ETNEO_SEISMIC_CATALOG;U;4.1;INGV_OSS_ETNEO_SEISMIC_CATALOG;;;;;IV;JOPP;0;HN;2;;;;IT;38.6068;15.8856;500;B*;ESM;;;;10.509849;825.628945;141.7;263.8;D;0.1;0.1;30;30;-0.014252;-0.020708;0.00087;-0.001069;0.014504;0.014818;0.020428;0.028792;0.029698;0.043497;0.039752;0.034759;0.035133;0.040802;0.037304;0.032982;0.037051;0.025825;0.028068;0.02023;0.01697;0.011641;0.010242;0.007967;0.007923;0.006379;0.00317;0.002364;0.001848;0.001109;0.000965;0.000712;0.000795;0.000583;0.021141;0.02237;0.022051;0.029145;0.037592;0.041078;0.069807;0.041852;0.033442;0.030711;0.028523;0.032669;0.027636;0.028355;0.01907;0.015529;0.012744;0.011808;0.012168;0.008701;0.007806;0.006566;0.005345;0.004147;0.002874;0.002851;0.002574;0.002352;0.001607;0.001223
EMSC-20150808_0000064;08.08.2015 22:46;607646874;5914151;20150808_0000064;IT;38.458;14.272;11.5;INGV_OSS_ETNEO_SEISMIC_CATALOG;U;4.1;INGV_OSS_ETNEO_SEISMIC_CATALOG;;;;;IV;MCSR;0;HH;0;;;;IT;38.0646;15.2301;1064;A*;ESM;;;;12.626767;881.140851;94.5;297.8;D;0.04;0.04;30;30;0.366065;-0.371112;0.021565;0.019582;0.367736;0.371472;0.373478;0.387784;0.499797;0.539901;0.979021;1.10211;1.38978;1.3205;1.78694;1.095;0.700873;0.626311;0.339108;0.259291;0.234361;0.155845;0.125552;0.073009;0.05378;0.035932;0.022954;0.021461;0.012878;0.008432;0.00732;0.006607;0.005368;0.003996;0.375798;0.384275;0.391346;0.463883;0.574868;0.819498;1.67767;0.894749;1.19637;1.72621;0.942423;0.866792;0.644318;0.384997;0.179569;0.148074;0.108528;0.083271;0.077752;0.067254;0.036024;0.025065;0.028003;0.026533;0.016434;0.009739;0.007704;0.005512;0.004396;0.003578
EMSC-20150808_0000064;08.08.2015 22:46;607646874;5914151;20150808_0000064;IT;38.458;14.272;11.5;INGV_OSS_ETNEO_SEISMIC_CATALOG;U;4.1;INGV_OSS_ETNEO_SEISMIC_CATALOG;;;;;IV;MILZ;0;HH;0;;;;IT;38.2713;15.2313;0;A*;ESM;;;;;;86.4;284.2;D;0.07;0.07;30;30;-0.137789;0.114992;0.0107;0.008215;0.142598;0.154623;0.158262;0.193258;0.201981;0.363703;0.312959;0.264762;0.399366;0.376603;0.501602;0.479596;0.30822;0.307229;0.386768;0.330679;0.249286;0.172403;0.123086;0.094447;0.062165;0.042747;0.024688;0.016731;0.011622;0.007588;0.006489;0.005251;0.004702;0.003625;0.119049;0.134329;0.176761;0.169015;0.247752;0.219297;0.276978;0.303077;0.189353;0.201733;0.206601;0.284488;0.304608;0.154492;0.159364;0.178377;0.186441;0.202317;0.172068;0.088085;0.045743;0.028707;0.019611;0.015916;0.011874;0.010832;0.00979;0.005825;0.005138;0.003939
EMSC-20150808_0000064;08.08.2015 22:46;607646874;5914151;20150808_0000064;IT;38.458;14.272;11.5;INGV_OSS_ETNEO_SEISMIC_CATALOG;U;4.1;INGV_OSS_ETNEO_SEISMIC_CATALOG;;;;;IV;MPNC;0;HH;0;;;;IT;38.1465;15.3528;479;B*;ESM;;;;9.795254;807.069078;100.7;290.4;D;0.07;0.07;30;30;-0.310953;-0.280223;-0.01565;-0.017198;0.313545;0.319991;0.319443;0.378374;0.418722;0.7632;0.445638;0.509161;0.656797;0.534333;0.5272;0.821459;0.979507;0.447993;0.325732;0.358768;0.329355;0.335506;0.182895;0.105483;0.06263;0.044584;0.02914;0.026359;0.01324;0.009872;0.007371;0.005439;0.004237;0.003659;0.283255;0.2895;0.299083;0.355157;0.441752;0.898772;0.834849;0.61911;0.681454;0.698566;0.770195;0.63047;0.511832;0.370818;0.343238;0.307812;0.323085;0.229869;0.146619;0.078913;0.045056;0.035387;0.030962;0.021833;0.011185;0.008013;0.006836;0.00536;0.004272;0.003226
EMSC-20150808_0000064;08.08.2015 22:46;607646874;5914151;20150808_0000064;IT;38.458;14.272;11.5;INGV_OSS_ETNEO_SEISMIC_CATALOG;U;4.1;INGV_OSS_ETNEO_SEISMIC_CATALOG;;;;;IV;MSFR;0;HH;0;;;;IT;38.0339;14.5916;723;A*;ESM;;;;3.071366;499.507843;54.8;329.4;D;0.07;0.07;50;50;-0.104706;0.145719;0.006348;-0.008003;0.107264;0.113858;0.139517;0.233292;0.275775;0.273244;0.285406;0.317752;0.172572;0.193758;0.114184;0.1058;0.115133;0.145423;0.092611;0.098487;0.087673;0.121176;0.130599;0.099504;0.069809;0.050734;0.033354;0.02756;0.019491;0.012428;0.008088;0.005867;0.004954;0.00385;0.151362;0.153276;0.16633;0.241292;0.290544;0.374101;0.28491;0.292668;0.426994;0.252956;0.17199;0.116579;0.115927;0.149978;0.12789;0.136493;0.143787;0.118897;0.100558;0.049297;0.031546;0.022716;0.02003;0.023393;0.016789;0.011838;0.006098;0.004647;0.003922;0.003155
EMSC-20150808_0000064;08.08.2015 22:46;607646874;5914151;20150808_0000064;IT;38.458;14.272;11.5;INGV_OSS_ETNEO_SEISMIC_CATALOG;U;4.1;INGV_OSS_ETNEO_SEISMIC_CATALOG;;;;;IV;MUCR;0;HH;1;;;;IT;38.043;14.8739;1042;B*;ESM;;;;17.700317;1018.304689;70;311.4;D;0.04;0.04;50;50;0.252602;-0.315966;-0.012682;-0.021292;0.255047;0.258165;0.265222;0.329868;0.490313;0.983866;0.630936;0.691655;0.736444;0.591249;0.58671;0.347866;0.356708;0.35964;0.331704;0.250294;0.281277;0.232545;0.217616;0.133205;0.09327;0.053567;0.039583;0.035031;0.018655;0.011905;0.008631;0.00597;0.004397;0.003644;0.320462;0.317639;0.350687;0.414448;0.518724;0.6082;0.812496;0.909906;1.13335;0.96009;0.845199;0.922973;1.17134;0.877984;0.685408;0.496895;0.410412;0.319466;0.174649;0.125201;0.076702;0.046166;0.036468;0.031226;0.020651;0.012197;0.008118;0.006344;0.005846;0.004399
EMSC-20150808_0000064;08.08.2015 22:46;607646874;5914151;20150808_0000064;IT;38.458;14.272;11.5;INGV_OSS_ETNEO_SEISMIC_CATALOG;U;4.1;INGV_OSS_ETNEO_SEISMIC_CATALOG;;;;;IV;PETRA;0;HH;0;;;;IT;37.8335;14.1148;1547;B*;ESM;;;;6.063686;641.798609;70.7;11.2;D;0.04;0.04;30;30;-0.184748;-0.205585;0.017297;-0.017219;0.185924;0.189681;0.203571;0.234528;0.322704;0.433104;0.669913;0.576157;0.700297;0.494271;0.528726;0.534876;0.497748;0.593607;0.472856;0.410827;0.368689;0.355326;0.253172;0.145786;0.179408;0.151885;0.111056;0.100173;0.045684;0.025169;0.017253;0.012379;0.009783;0.007219;0.20836;0.213844;0.219114;0.232384;0.460863;0.445727;0.788885;0.744704;0.651055;0.587189;0.467208;0.428055;0.320261;0.510461;0.55264;0.463351;0.481179;0.351248;0.314645;0.166392;0.184124;0.146469;0.080324;0.052179;0.023113;0.016725;0.010728;0.008851;0.007038;0.005102
EMSC-20150808_0000064;08.08.2015 22:46;607646874;5914151;20150808_0000064;IT;38.458;14.272;11.5;INGV_OSS_ETNEO_SEISMIC_CATALOG;U;4.1;INGV_OSS_ETNEO_SEISMIC_CATALOG;;;;;IV;PLAC;0;HN;1;;;;IT;38.4494;16.4383;602;A*;ESM;;;;8.455445;772.480868;189.1;271;D;0.1;0.1;25;25;-0.013292;-0.014124;-0.001501;-0.001087;0.013417;0.013593;0.013323;0.014162;0.014082;0.019686;0.019664;0.028127;0.027048;0.037957;0.032868;0.03375;0.033321;0.042652;0.029146;0.023887;0.025826;0.031476;0.024464;0.012004;0.009677;0.008079;0.005107;0.003476;0.003358;0.002611;0.001816;0.001733;0.001391;0.001052;0.014198;0.014364;0.015008;0.015454;0.016325;0.022792;0.030978;0.024723;0.032428;0.037679;0.045006;0.049952;0.048178;0.030563;0.020132;0.021845;0.024631;0.022178;0.018921;0.014674;0.010681;0.01152;0.005505;0.004587;0.002968;0.001505;0.001394;0.001357;0.00085;0.000804
EMSC-20150808_0000064;08.08.2015 22:46;607646874;5914151;20150808_0000064;IT;38.458;14.272;11.5;INGV_OSS_ETNEO_SEISMIC_CATALOG;U;4.1;INGV_OSS_ETNEO_SEISMIC_CATALOG;;;;;IV;RESU;0;HH;0;;;;IT;37.6468;14.0568;785;A*;ESM;;;;15.177122;949.266201;92;11.8;D;0.07;0.07;30;30;-0.05389;0.055704;0.006215;0.004674;0.05413;0.054652;0.05476;0.055763;0.057611;0.0684;0.10191;0.158364;0.182598;0.21187;0.147535;0.174597;0.130283;0.13663;0.100322;0.090485;0.091281;0.063075;0.062064;0.047031;0.043487;0.037645;0.034472;0.033666;0.014297;0.013653;0.007056;0.005911;0.004009;0.002791;0.055832;0.055999;0.056428;0.057755;0.064139;0.075641;0.10976;0.200247;0.172991;0.159961;0.150771;0.179576;0.169171;0.177342;0.16149;0.140152;0.133751;0.119603;0.096654;0.065937;0.033956;0.03656;0.040284;0.028134;0.016463;0.010454;0.006352;0.003955;0.002883;0.001992
EMSC-20150808_0000064;08.08.2015 22:46;607646874;5914151;20150808_0000064;IT;38.458;14.272;11.5;INGV_OSS_ETNEO_SEISMIC_CATALOG;U;4.1;INGV_OSS_ETNEO_SEISMIC_CATALOG;;;;;IV;SOLUN;0;HH;0;;;;IT;38.09193;13.53261;190;A*;ESM;;;;19.417457;1066.392586;76.4;57.6;D;0.07;0.07;50;50;0.046123;0.048284;-0.00435;0.003589;0.046545;0.049138;0.052149;0.058715;0.064536;0.089354;0.115345;0.121142;0.129093;0.12266;0.141643;0.177315;0.162256;0.199702;0.102949;0.102689;0.094864;0.072078;0.063899;0.041622;0.038749;0.0413;0.025406;0.015449;0.00809;0.006239;0.004453;0.002839;0.002807;0.002165;0.048864;0.049698;0.050792;0.06634;0.066297;0.064781;0.088602;0.113811;0.148209;0.166431;0.157785;0.133496;0.115294;0.066884;0.061691;0.076064;0.066238;0.049382;0.039668;0.028531;0.03289;0.023172;0.014819;0.011085;0.008394;0.005179;0.00344;0.002614;0.002007;0.001893
EMSC-20150808_0000064;08.08.2015 22:46;607646874;5914151;20150808_0000064;IT;38.458;14.272;11.5;INGV_OSS_ETNEO_SEISMIC_CATALOG;U;4.1;INGV_OSS_ETNEO_SEISMIC_CATALOG;;;;;IV;USI;0;HH;0;;;;IT;38.70787;13.17913;285;A*;ESM;;;;3.284167;509.194184;99.2;105.9;D;0.04;0.04;30;30;0.259087;0.204779;-0.015405;-0.015421;0.261958;0.267028;0.271803;0.315867;0.495255;0.527448;0.762071;0.648922;0.572259;0.740687;1.05096;0.619382;0.562396;0.451615;0.282145;0.267376;0.291029;0.207687;0.169162;0.100607;0.086366;0.046001;0.036393;0.035974;0.01618;0.014101;0.008417;0.006197;0.007074;0.004505;0.208943;0.221144;0.244431;0.360241;0.466591;0.570961;0.552226;0.53342;0.734768;0.633498;0.867392;0.725118;0.680369;0.414377;0.340587;0.265502;0.252432;0.246295;0.256309;0.125115;0.094678;0.052686;0.036102;0.030221;0.017847;0.010253;0.008446;0.006898;0.006662;0.006637
EMSC-20150808_0000064;08.08.2015 22:46;607646874;5914151;20150808_0000064;IT;38.458;14.272;11.5;INGV_OSS_ETNEO_SEISMIC_CATALOG;U;4.1;INGV_OSS_ETNEO_SEISMIC_CATALOG;;;;;MN;CEL;0;HN;0;3;BUI;P;IT;38.2603;15.8939;702;B*;ESM;;;;20.663005;1101.909541;143.4;279.3;D;0.2;0.2;25;25;-0.025594;0.02524;0.002003;0.002312;0.025827;0.026676;0.02695;0.032381;0.036114;0.078402;0.085989;0.054298;0.052225;0.073383;0.064679;0.048531;0.067199;0.06061;0.044562;0.03328;0.022576;0.018627;0.024147;0.020009;0.012878;0.010918;0.007477;0.005013;0.002203;0.00146;0.001055;0.000712;0.00058;0.000517;0.025636;0.02647;0.027758;0.030271;0.043831;0.073656;0.071206;0.048972;0.043497;0.060058;0.059658;0.070986;0.08374;0.059852;0.044081;0.031344;0.037865;0.026551;0.024643;0.038339;0.021126;0.010509;0.00584;0.00488;0.003356;0.001642;0.001279;0.00094;0.000733;0.000553
EMSC-20170821_0000072;21.08.2017 18:57;;16796811;20170821_0000072;IT;40.7383;13.8977;1.5;INGV-CNT_Seismic_Bulletin;NF;3.6;INGV-CNT_Seismic_Bulletin;3.9;INGV-webservice;;;IV;BIOG;0;HH;3;;;;IT;41.199899;15.132629;623;B*;ESM;;;;1.138739;367.626771;115.9;244.2;D;0.03;0.03;30;30;0.032751;-0.026624;0.014856;-0.009638;0.033219;0.035782;0.038196;0.036962;0.034309;0.035518;0.033026;0.033796;0.036403;0.036409;0.038705;0.049504;0.053093;0.07215;0.061502;0.064578;0.067796;0.072508;0.074237;0.084508;0.089033;0.092705;0.090899;0.104001;0.094766;0.065526;0.061131;0.090454;0.084784;0.042025;0.026954;0.03057;0.031375;0.028053;0.027188;0.026648;0.026797;0.028653;0.032626;0.034074;0.03564;0.041005;0.036016;0.054934;0.051968;0.053567;0.053919;0.0803;0.068002;0.109471;0.088464;0.062638;0.076671;0.082181;0.06114;0.066352;0.046966;0.054234;0.037608;0.039402
