event_id;event_time;ISC_ev_id;INGV_ev_id;EMSC_ev_id;ev_nation_code;ev_latitude;ev_longitude;ev_depth_km;ev_hyp_ref;fm_type_code;ML;ML_ref;Mw;Mw_ref;Ms;Ms_ref;network_code;station_code;location_code;instrument_code;sensor_depth_m;proximity_code;housing_code;installation_code;st_nation_code;st_latitude;st_longitude;st_elevation;ec8_code;ec8_code_ref;vs30_m_sec;vs30_ref;vs30_meas_type;slope_deg;vs30_m_sec_WA;epi_dist;epi_az;instrument_type_code;U_hp;V_hp;U_lp;V_lp;U_pga;V_pga;U_pgv;V_pgv;U_T0_025;U_T0_040;U_T0_050;U_T0_070;U_T0_100;U_T0_150;U_T0_200;U_T0_250;U_T0_300;U_T0_350;U_T0_400;U_T0_450;U_T0_500;U_T0_600;U_T0_700;U_T0_750;U_T0_800;U_T0_900;U_T1_000;U_T1_200;U_T1_400;U_T1_600;U_T1_800;U_T2_000;U_T2_500;U_T3_000;U_T3_500;U_T4_000;U_T4_500;U_T5_000;V_T0_025;V_T0_040;V_T0_050;V_T0_070;V_T0_100;V_T0_150;V_T0_200;V_T0_250;V_T0_300;V_T0_350;V_T0_400;V_T0_450;V_T0_500;V_T0_600;V_T0_700;V_T0_750;V_T0_800;V_T0_900;V_T1_000;V_T1_200;V_T1_400;V_T1_600;V_T1_800;V_T2_000;V_T2_500;V_T3_000;V_T3_500;V_T4_000;V_T4_500;V_T5_000
EMSC-20170821_0000072;21.08.2017 18:57;;16796811;20170821_0000072;IT;40.7383;13.8977;1.5;INGV-CNT_Seismic_Bulletin;NF;3.6;INGV-CNT_Seismic_Bulletin;3.9;INGV-webservice;;;IV;PIGN;0;HH;2;0;VAU;P;IT;41.200001;14.17989;398;A*;ESM;;;;4.654774;571.692884;56.5;204.9;D;0.03;0.03;30;30;0.041362;-0.035781;-0.004316;-0.005074;0.042765;0.045807;0.054904;0.087284;0.131963;0.126304;0.124824;0.101581;0.095344;0.079202;0.076654;0.080062;0.104029;0.064048;0.09163;0.099503;0.097263;0.072439;0.047578;0.052441;0.040836;0.036481;0.05089;0.050615;0.026149;0.022291;0.019;0.016224;0.012073;0.010854;0.036905;0.04304;0.046246;0.068696;0.08497;0.116097;0.082808;0.085658;0.079723;0.077333;0.086294;0.100788;0.12144;0.069475;0.072398;0.054707;0.051712;0.045358;0.048144;0.046939;0.044943;0.038855;0.043934;0.039706;0.032416;0.025249;0.019979;0.0236;0.02124;0.018197
EMSC-20170821_0000072;21.08.2017 18:57;;16796811;20170821_0000072;IT;40.7383;13.8977;1.5;INGV-CNT_Seismic_Bulletin;NF;3.6;INGV-CNT_Seismic_Bulletin;3.9;INGV-webservice;;;IV;POFI;0;HH;0;0;VAU;P;IT;41.71743;13.71202;878;A*;ESM;;;;2.39485;456.778412;109.8;171.8;D;0.03;0.03;30;30;0.00959;0.008317;0.002638;-0.00315;0.009654;0.009744;0.009603;0.009904;0.012587;0.015109;0.016605;0.01595;0.022505;0.02706;0.020075;0.017476;0.019267;0.023645;0.027197;0.027781;0.023508;0.028989;0.02586;0.021512;0.0199;0.016788;0.022587;0.029905;0.021162;0.011473;0.00909;0.010585;0.007534;0.0076;0.008475;0.008592;0.008705;0.010373;0.01379;0.017267;0.018403;0.02384;0.018975;0.017865;0.019625;0.025404;0.019943;0.017967;0.019161;0.023107;0.02057;0.019532;0.019516;0.019206;0.017734;0.020459;0.023784;0.02788;0.024837;0.011871;0.012498;0.013674;0.012517;0.010437
EMSC-20170821_0000072;21.08.2017 18:57;;16796811;20170821_0000072;IT;40.7383;13.8977;1.5;INGV-CNT_Seismic_Bulletin;NF;3.6;INGV-CNT_Seismic_Bulletin;3.9;INGV-webservice;;;IV;PSB1;0;HH;0;;;;IT;41.22345;14.81078;551;B*;ESM;;;;4.583905;568.455947;93.8;235.3;D;0.03;0.03;30;30;0.014673;-0.017978;0.00444;0.004549;0.015444;0.014984;0.015385;0.014761;0.015224;0.023939;0.022333;0.02148;0.019475;0.023214;0.030077;0.030358;0.026866;0.025653;0.032079;0.030811;0.029695;0.032033;0.037533;0.044231;0.038873;0.050278;0.039712;0.049021;0.036373;0.033928;0.024552;0.022297;0.017102;0.015513;0.018143;0.01852;0.01808;0.018222;0.018887;0.023411;0.022445;0.027903;0.027897;0.020369;0.020902;0.027036;0.035137;0.03754;0.046463;0.042655;0.031947;0.033878;0.036393;0.037165;0.038446;0.035214;0.039008;0.042246;0.031245;0.02747;0.019667;0.021938;0.025721;0.018097
EMSC-20170821_0000072;21.08.2017 18:57;;16796811;20170821_0000072;IT;40.7383;13.8977;1.5;INGV-CNT_Seismic_Bulletin;NF;3.6;INGV-CNT_Seismic_Bulletin;3.9;INGV-webservice;;;IV;RNI2;0;HN;0;;;;IT;41.70328;14.1524;950;A*;ESM;;;;13.604961;907.094449;109.3;191.4;D;0.15;0.15;30;30;-0.014727;0.015372;-0.003867;-0.005616;0.014952;0.015508;0.015778;0.016798;0.020642;0.029505;0.057697;0.060619;0.035657;0.03315;0.037663;0.031579;0.031881;0.025357;0.03205;0.026828;0.033252;0.045681;0.047455;0.043033;0.045159;0.031865;0.028916;0.030416;0.024566;0.018758;0.01868;0.015762;0.022577;0.017574;0.015656;0.016029;0.015787;0.015585;0.019139;0.036562;0.035929;0.039911;0.023423;0.028379;0.030288;0.030919;0.035166;0.024562;0.041948;0.034496;0.034203;0.0367;0.033867;0.037715;0.030882;0.027712;0.032945;0.029087;0.033121;0.025889;0.034549;0.037489;0.036447;0.013608
EMSC-20170821_0000072;21.08.2017 18:57;;16796811;20170821_0000072;IT;40.7383;13.8977;1.5;INGV-CNT_Seismic_Bulletin;NF;3.6;INGV-CNT_Seismic_Bulletin;3.9;INGV-webservice;;;IV;SACR;0;HH;0;;;;IT;41.3974;14.7057;859;A*;ESM;;;;3.118271;501.642536;99.8;223.1;D;0.03;0.03;30;30;-0.012784;0.016528;-0.003342;0.003652;0.013015;0.012836;0.012882;0.013047;0.013013;0.015413;0.022481;0.023312;0.018888;0.023251;0.021455;0.02223;0.025176;0.027842;0.0329;0.03095;0.033479;0.02728;0.033612;0.039559;0.027182;0.032254;0.03565;0.033505;0.024474;0.02257;0.015787;0.017273;0.014728;0.016737;0.016598;0.016885;0.017049;0.016673;0.017116;0.016516;0.018034;0.021026;0.021515;0.025242;0.02753;0.02499;0.03086;0.038019;0.03732;0.039802;0.048467;0.036809;0.030992;0.041346;0.03667;0.039954;0.041673;0.035337;0.039241;0.026229;0.014897;0.015059;0.022034;0.017261
EMSC-20170821_0000072;21.08.2017 18:57;;16796811;20170821_0000072;IT;40.7383;13.8977;1.5;INGV-CNT_Seismic_Bulletin;NF;3.6;INGV-CNT_Seismic_Bulletin;3.9;INGV-webservice;;;IV;SGG;0;HH;0;3;BUI;BF;IT;41.38667;14.37917;880;A*;ESM;;;;23.631802;1189.026182;82.6;209.5;D;0.03;0.03;20;20;0.029986;-0.028177;-0.003969;0.004114;0.030818;0.031471;0.031311;0.032364;0.040614;0.058175;0.048638;0.04933;0.060807;0.066167;0.063822;0.083962;0.083658;0.082741;0.089894;0.083516;0.087644;0.102;0.071223;0.03788;0.02688;0.025239;0.025944;0.026128;0.012955;0.014737;0.014861;0.014081;0.014039;0.008388;0.028294;0.030161;0.029357;0.033591;0.047057;0.042246;0.047582;0.064136;0.08381;0.125437;0.077536;0.084766;0.09004;0.102689;0.075376;0.056314;0.064266;0.068488;0.061082;0.034337;0.0245;0.025952;0.021308;0.022272;0.020387;0.018255;0.011781;0.012916;0.013082;0.010871
EMSC-20170821_0000072;21.08.2017 18:57;;16796811;20170821_0000072;IT;40.7383;13.8977;1.5;INGV-CNT_Seismic_Bulletin;NF;3.6;INGV-CNT_Seismic_Bulletin;3.9;INGV-webservice;;;IV;SNAL;0;HN;0;;;;IT;40.9254;15.2091;874;A*;ESM;;;;13.57234;906.225559;112.5;259.8;D;0.15;0.15;20;20;-0.022633;-0.029996;0.007267;-0.009913;0.022664;0.022767;0.022753;0.022869;0.022897;0.02296;0.02278;0.023005;0.025092;0.02727;0.027638;0.028122;0.028327;0.037415;0.049517;0.038726;0.038053;0.047975;0.062404;0.0763;0.075598;0.08857;0.048622;0.04008;0.037322;0.03142;0.028962;0.029009;0.030308;0.02718;0.030075;0.030108;0.030096;0.030205;0.030188;0.030537;0.0306;0.031243;0.031504;0.031469;0.036438;0.037525;0.039876;0.040149;0.038888;0.044955;0.045725;0.050751;0.082845;0.108833;0.09826;0.08537;0.102698;0.098317;0.041744;0.043155;0.029675;0.035616;0.037038;0.026677
EMSC-20170821_0000072;21.08.2017 18:57;;16796811;20170821_0000072;IT;40.7383;13.8977;1.5;INGV-CNT_Seismic_Bulletin;NF;3.6;INGV-CNT_Seismic_Bulletin;3.9;INGV-webservice;;;IV;T0110;0;HH;1;;;;IT;42.226398;13.7791;915;A*;ESM;;;;3.539303;520.813085;165.6;176.5;D;0.1;0.1;30;30;0.006505;-0.006728;-0.001487;-0.001718;0.006545;0.006687;0.006943;0.007079;0.009776;0.009689;0.01254;0.014326;0.014018;0.021664;0.025776;0.026865;0.02099;0.019592;0.017198;0.01441;0.013935;0.014009;0.021275;0.015167;0.020167;0.015194;0.010191;0.009277;0.014878;0.006848;0.006712;0.005651;0.004067;0.005505;0.00676;0.006914;0.007072;0.007262;0.008711;0.010377;0.015176;0.014629;0.018928;0.017443;0.02078;0.019769;0.016224;0.019055;0.025433;0.020239;0.016863;0.01927;0.01718;0.016663;0.019255;0.014669;0.009911;0.012263;0.009671;0.005319;0.005834;0.007054;0.00825;0.005212
EMSC-20170821_0000072;21.08.2017 18:57;;16796811;20170821_0000072;IT;40.7383;13.8977;1.5;INGV-CNT_Seismic_Bulletin;NF;3.6;INGV-CNT_Seismic_Bulletin;3.9;INGV-webservice;;;IV;TRIV;0;HN;0;;;;IT;41.7666;14.5502;598;B*;ESM;;;;6.587261;674.175261;126.6;205.8;D;0.15;0.15;20;20;-0.007645;-0.008827;-0.003341;0.003646;0.007684;0.007844;0.007708;0.008344;0.007873;0.008026;0.009006;0.011359;0.012461;0.013851;0.016262;0.016913;0.016498;0.020551;0.022139;0.021528;0.022841;0.024629;0.02103;0.016471;0.017768;0.019082;0.015457;0.019792;0.021152;0.023158;0.018084;0.01731;0.014457;0.013739;0.008924;0.008981;0.008836;0.008941;0.008847;0.009166;0.010384;0.012929;0.018972;0.015774;0.011166;0.011592;0.014925;0.018349;0.018821;0.018178;0.019468;0.025058;0.016514;0.015255;0.028034;0.017876;0.015697;0.017457;0.018011;0.020358;0.021273;0.013218;0.016394;0.017833
EMSC-20170821_0000072;21.08.2017 18:57;;16796811;20170821_0000072;IT;40.7383;13.8977;1.5;INGV-CNT_Seismic_Bulletin;NF;3.6;INGV-CNT_Seismic_Bulletin;3.9;INGV-webservice;;;IV;VAGA;0;HN;0;;;;IT;41.4154;14.2342;795;A*;ESM;;;;15.521058;958.573585;80.3;200.7;D;0.15;0.15;30;30;0.038778;-0.061417;-0.003812;0.005016;0.040519;0.043844;0.045036;0.050625;0.08632;0.128783;0.130607;0.109176;0.085598;0.065271;0.064786;0.050329;0.056647;0.056973;0.062659;0.079436;0.095982;0.086025;0.085655;0.051816;0.053424;0.032919;0.025373;0.024346;0.01442;0.012;0.012683;0.012967;0.011329;0.011561;0.062288;0.062558;0.063918;0.069497;0.084187;0.131598;0.162427;0.196899;0.192057;0.203757;0.106774;0.101125;0.089419;0.07681;0.092607;0.079561;0.085485;0.072196;0.069651;0.099979;0.08138;0.046458;0.032236;0.027498;0.019364;0.017149;0.014438;0.015843;0.012464;0.010381
EMSC-20170821_0000072;21.08.2017 18:57;;16796811;20170821_0000072;IT;40.7383;13.8977;1.5;INGV-CNT_Seismic_Bulletin;NF;3.6;INGV-CNT_Seismic_Bulletin;3.9;INGV-webservice;;;IV;VBKN;0;HH;0;;;;IT;40.83;14.4299;951;C*;ESM;;;;17.868483;1022.972055;46.1;257.4;D;0.03;0.03;30;30;-0.20329;-0.131115;-0.016298;0.017253;0.208935;0.211575;0.221479;0.30481;0.425866;0.464254;0.549352;0.666492;0.498029;0.432071;0.391994;0.315786;0.248554;0.198475;0.202599;0.183537;0.19103;0.189158;0.14927;0.183213;0.170098;0.111612;0.086225;0.093872;0.087506;0.077512;0.082287;0.086455;0.076241;0.070791;0.135218;0.140283;0.155619;0.265641;0.364246;0.366881;0.370633;0.450586;0.413474;0.298339;0.357763;0.256847;0.220646;0.216582;0.150802;0.157458;0.178147;0.162314;0.197946;0.218035;0.133582;0.104051;0.066856;0.074414;0.047781;0.029492;0.031143;0.031002;0.029186;0.048492
EMSC-20170821_0000072;21.08.2017 18:57;;16796811;20170821_0000072;IT;40.7383;13.8977;1.5;INGV-CNT_Seismic_Bulletin;NF;3.6;INGV-CNT_Seismic_Bulletin;3.9;INGV-webservice;;;IV;VCRE;0;HH;0;;;;IT;40.819;14.4314;1113;C*;ESM;;;;26.207036;1267.842783;45.9;258.9;D;0.03;0.03;30;30;0.095854;-0.113193;0.023068;0.019364;0.100666;0.098125;0.105447;0.10816;0.134991;0.210235;0.261326;0.272575;0.265546;0.226457;0.31043;0.245232;0.272594;0.181489;0.206118;0.261552;0.256354;0.294109;0.237747;0.245944;0.219218;0.129686;0.158238;0.125884;0.158639;0.11716;0.102118;0.089922;0.086988;0.057618;0.121005;0.118019;0.115854;0.146238;0.182717;0.277499;0.286443;0.349653;0.3038;0.268518;0.22963;0.282143;0.310324;0.227795;0.280896;0.254671;0.218723;0.176968;0.224858;0.217994;0.177758;0.13838;0.177976;0.186096;0.119857;0.076897;0.050344;0.037648;0.037431;0.047566
EMSC-20170821_0000072;21.08.2017 18:57;;16796811;20170821_0000072;IT;40.7383;13.8977;1.5;INGV-CNT_Seismic_Bulletin;NF;3.6;INGV-CNT_Seismic_Bulletin;3.9;INGV-webservice;;;IV;VITU;0;HH;1;0;VAU;P;IT;41.18326;14.630154;848;A*;ESM;;;;6.398017;662.46524;79;231.5;D;0.03;0.03;30;30;-0.041721;-0.055;-0.00364;-0.006235;0.044346;0.045521;0.042762;0.048963;0.059551;0.118506;0.101958;0.118213;0.105288;0.08634;0.085292;0.102938;0.106866;0.114892;0.069619;0.07026;0.073776;0.073887;0.058921;0.044075;0.030723;0.027056;0.021254;0.020597;0.014338;0.015661;0.011663;0.01214;0.010645;0.009222;0.055523;0.057749;0.060767;0.059793;0.084144;0.101688;0.111473;0.125212;0.11748;0.115982;0.110689;0.137477;0.132974;0.109969;0.123774;0.112769;0.109696;0.097721;0.089621;0.09015;0.038674;0.028435;0.026585;0.024124;0.016332;0.015082;0.012316;0.018008;0.014447;0.017617
EMSC-20170821_0000072;21.08.2017 18:57;;16796811;20170821_0000072;IT;40.7383;13.8977;1.5;INGV-CNT_Seismic_Bulletin;NF;3.6;INGV-CNT_Seismic_Bulletin;3.9;INGV-webservice;;;IV;VTIR;0;HH;0;;;;IT;40.8059;14.4242;612;B*;ESM;;;;12.009386;864.86331;45.1;260.6;D;0.03;0.03;30;30;0.052642;-0.033564;-0.006151;-0.004104;0.053699;0.055483;0.056951;0.065414;0.072237;0.108602;0.105301;0.128916;0.140787;0.129696;0.087295;0.064783;0.074168;0.065842;0.052557;0.057499;0.055325;0.044158;0.042405;0.041165;0.037396;0.03718;0.044223;0.041;0.028678;0.030475;0.02416;0.028527;0.031703;0.027598;0.033816;0.034396;0.036162;0.042046;0.053782;0.068456;0.110674;0.130409;0.102011;0.108264;0.072944;0.081327;0.077797;0.05173;0.044676;0.042097;0.043132;0.036769;0.042759;0.042445;0.037354;0.030508;0.035064;0.035457;0.018204;0.021754;0.018335;0.008983;0.007887;0.011701
EMSC-20170821_0000072;21.08.2017 18:57;;16796811;20170821_0000072;IT;40.7383;13.8977;1.5;INGV-CNT_Seismic_Bulletin;NF;3.6;INGV-CNT_Seismic_Bulletin;3.9;INGV-webservice;;;IV;VULT;0;HN;0;;;;IT;40.9549;15.6163;1101;B*;ESM;;;;8.864819;783.021894;146.9;261.1;D;0.2;0.2;20;20;-0.006908;0.008837;0.001717;0.001963;0.007521;0.009463;0.009758;0.009096;0.012305;0.014505;0.01878;0.019449;0.023232;0.019184;0.012534;0.012947;0.013381;0.010681;0.013416;0.012347;0.013128;0.010577;0.01258;0.014986;0.018;0.015344;0.012308;0.013376;0.012605;0.012269;0.009418;0.008317;0.006893;0.00579;0.009098;0.011767;0.012868;0.012824;0.012004;0.019234;0.018014;0.020213;0.020422;0.022293;0.023373;0.017018;0.025054;0.024849;0.025237;0.023418;0.031998;0.025001;0.023954;0.021023;0.018085;0.014336;0.014694;0.012527;0.010109;0.009627;0.006756;0.006906;0.005198;0.004477
EMSC-20170821_0000072;21.08.2017 18:57;;16796811;20170821_0000072;IT;40.7383;13.8977;1.5;INGV-CNT_Seismic_Bulletin;NF;3.6;INGV-CNT_Seismic_Bulletin;3.9;INGV-webservice;;;IV;VVDG;0;HH;0;;;;IT;40.8356;14.4238;855;B*;ESM;;;;29.774286;1383.041696;45.7;256.5;D;0.03;0.03;30;30;0.094154;-0.103049;-0.012035;0.009999;0.095355;0.096719;0.099337;0.107261;0.140504;0.218848;0.369087;0.496851;0.377754;0.217348;0.147108;0.114163;0.095831;0.090184;0.093971;0.100471;0.09219;0.082283;0.074729;0.06036;0.054978;0.044064;0.062001;0.072264;0.049966;0.076139;0.068372;0.080291;0.072341;0.080102;0.104359;0.106824;0.11105;0.11873;0.157929;0.207079;0.446881;0.403875;0.451584;0.17282;0.144586;0.100154;0.11975;0.112271;0.096013;0.091863;0.087573;0.091262;0.093021;0.09251;0.07572;0.067574;0.077166;0.077984;0.064811;0.048583;0.046477;0.028529;0.034586;0.049923
EMSC-20181006_0000002;06.10.2018 00:34;;20845861;20181006_0000002;IT;37.6088;14.9395;4.5;INGV-CNT_Seismic_Bulletin;SS;4.7;INGV-CNT_Seismic_Bulletin;4.6;INGV-webservice;;;IT;ARE;0;HG;0;3;BUI;P;IT;38.561467;16.20886;492;C*;ESM;;;;30.783402;1417.094852;153.6;226.9;D;0.1;0.1;40;40;-0.302328;0.253276;0.029756;-0.019999;0.303283;0.309752;0.308413;0.311401;0.319376;0.372644;0.603399;0.593778;0.599062;0.731046;0.789339;0.847457;0.955538;0.979449;0.70616;0.691333;0.611641;0.672506;0.477591;0.283143;0.2351;0.129962;0.118867;0.100475;0.060927;0.030711;0.019973;0.016824;0.013336;0.010374;0.256125;0.26022;0.261122;0.268533;0.295069;0.376918;0.564853;0.653578;0.628471;0.880851;0.858642;0.664523;0.67655;0.689221;0.550272;0.646152;0.66576;0.315371;0.239528;0.173791;0.158624;0.111814;0.081458;0.063169;0.042527;0.026362;0.019538;0.02488;0.017379;0.011419
EMSC-20181006_0000002;06.10.2018 00:34;;20845861;20181006_0000002;IT;37.6088;14.9395;4.5;INGV-CNT_Seismic_Bulletin;SS;4.7;INGV-CNT_Seismic_Bulletin;4.6;INGV-webservice;;;IT;Aug 01;0;HG;0;0;FIB;P;IT;37.243217;15.255619;49;A*;ESM;;;;1.656146;404.335121;49.3;325.5;D;0.1;0.1;40;40;1.107893;0.702989;0.062275;0.070808;1.17789;1.17803;1.24798;1.52993;2.02039;3.85639;2.51198;2.11476;3.2433;3.04152;2.13028;1.71539;1.48863;0.814332;1.0013;1.01333;0.976177;0.724711;0.743546;0.509228;0.367435;0.22394;0.240404;0.171323;0.119422;0.085477;0.058358;0.037764;0.028527;0.029448;0.721115;0.76323;0.801362;1.005;1.40195;2.484;1.85646;1.79459;2.28625;2.46139;2.06632;2.41952;1.20681;1.24215;1.299;1.16413;1.02867;0.799524;0.630154;0.460368;0.354024;0.240624;0.217434;0.264691;0.093983;0.082457;0.066227;0.066761;0.046188;0.029186
EMSC-20181006_0000002;06.10.2018 00:34;;20845861;20181006_0000002;IT;37.6088;14.9395;4.5;INGV-CNT_Seismic_Bulletin;SS;4.7;INGV-CNT_Seismic_Bulletin;4.6;INGV-webservice;;;IT;BCL;0;HG;0;4;CAB;P;IT;38.182709;15.231612;38;C*;ESM;;;;0.786105;338.056289;68.7;202.1;D;0.1;0.1;40;40;1.074783;-0.996085;-0.116228;0.100498;1.09327;1.10084;1.10855;1.12794;1.17152;2.13373;2.02576;2.97595;2.42609;2.64498;4.36016;4.77326;3.65024;2.4893;2.11195;2.25009;2.01066;1.88779;1.81946;1.29054;1.25605;1.70289;1.30928;0.92843;0.569482;0.414666;0.385616;0.228828;0.144253;0.103779;1.00146;1.00832;1.02206;1.01983;1.0571;1.90025;1.79613;1.99929;2.34864;2.3346;3.66902;3.81913;3.31166;4.14349;2.60216;2.30046;1.94954;1.57336;2.45438;1.89989;1.45843;0.974401;0.767434;0.808065;0.566413;0.406825;0.323331;0.239197;0.146535;0.123505
EMSC-20181006_0000002;06.10.2018 00:34;;20845861;20181006_0000002;IT;37.6088;14.9395;4.5;INGV-CNT_Seismic_Bulletin;SS;4.7;INGV-CNT_Seismic_Bulletin;4.6;INGV-webservice;;;IT;BRO;0;HG;0;4;CAB;P;IT;38.602146;16.349356;821;B*;ESM;;;;5.446809;607.915623;165.7;228.7;D;0.1;0.1;40;40;0.24445;-0.252165;-0.01982;-0.018147;0.247113;0.25031;0.248875;0.255024;0.276453;0.337848;0.554082;0.513164;0.704774;1.04754;1.18747;0.948611;0.814148;0.668495;0.389023;0.371311;0.359396;0.329831;0.212962;0.133151;0.094696;0.058526;0.047916;0.049954;0.030504;0.023933;0.014539;0.01238;0.0132;0.010134;0.255244;0.2545;0.259414;0.262349;0.269617;0.449063;0.401841;0.697583;0.912603;0.946828;1.10066;0.80637;0.616695;0.515542;0.436242;0.349124;0.361111;0.310014;0.248854;0.221671;0.104378;0.074308;0.062878;0.058308;0.052126;0.035554;0.022385;0.017629;0.011542;0.008637
EMSC-20181006_0000002;06.10.2018 00:34;;20845861;20181006_0000002;IT;37.6088;14.9395;4.5;INGV-CNT_Seismic_Bulletin;SS;4.7;INGV-CNT_Seismic_Bulletin;4.6;INGV-webservice;;;IT;CAT;0;HG;0;0;BOX;P;IT;37.44738;15.046334;25;D;Vs30_ref;159;S4_2007-2009_RU4-PoliTO;MASW;0.115629;234.803283;20.3;332.2;D;0.1;0.1;40;40;3.203153;-3.753068;-0.749695;0.61883;3.21178;3.2516;3.27345;3.42527;6.56268;6.43874;4.08753;4.77117;5.51064;6.71426;6.93476;6.53944;7.41314;9.74291;9.29881;11.5872;13.9974;9.72358;11.1268;9.92488;6.46342;3.72491;4.21849;4.24543;3.48327;2.60832;1.31975;1.04294;1.46742;1.25147;3.76676;3.78097;3.77848;3.88451;6.45273;8.90271;7.03359;4.67333;5.95342;5.66789;7.99289;7.47688;9.87717;9.40189;9.3996;10.8002;9.04377;14.6136;12.3184;7.044;5.88792;6.78016;3.34272;3.74604;3.26178;1.34067;1.06732;0.878978;0.802148;0.686231
EMSC-20181006_0000002;06.10.2018 00:34;;20845861;20181006_0000002;IT;37.6088;14.9395;4.5;INGV-CNT_Seismic_Bulletin;SS;4.7;INGV-CNT_Seismic_Bulletin;4.6;INGV-webservice;;;IT;CDI1;0;HG;0;0;FIB;P;IT;37.503348;14.64734;718;A*;ESM;;;;4.407145;560.385271;28.3;65.5;D;0.1;0.1;40;40;1.803092;3.026345;0.222257;0.336207;1.81156;1.84199;1.85828;1.97905;2.03273;2.91386;2.82006;3.74344;3.7585;4.72725;4.71603;5.68748;5.64611;6.19576;5.88163;5.84398;5.54319;3.68263;2.4285;1.99013;1.66944;1.5607;1.26433;0.998229;0.681964;0.378977;0.348309;0.361242;0.301844;0.214962;3.03976;3.04579;3.05365;3.14133;3.1751;3.20861;4.72097;5.07565;5.63186;7.52128;6.75592;6.67441;8.06085;6.93296;10.5752;8.25895;8.09856;6.58117;6.29892;4.32821;3.20411;3.27925;2.03394;1.64005;0.978451;0.911569;0.494151;0.363483;0.344942;0.243076
