event_id;event_time;ISC_ev_id;INGV_ev_id;EMSC_ev_id;ev_nation_code;ev_latitude;ev_longitude;ev_depth_km;ev_hyp_ref;fm_type_code;ML;ML_ref;Mw;Mw_ref;Ms;Ms_ref;network_code;station_code;location_code;instrument_code;sensor_depth_m;proximity_code;housing_code;installation_code;st_nation_code;st_latitude;st_longitude;st_elevation;ec8_code;ec8_code_ref;vs30_m_sec;vs30_ref;vs30_meas_type;slope_deg;vs30_m_sec_WA;epi_dist;epi_az;instrument_type_code;U_hp;V_hp;U_lp;V_lp;U_pga;V_pga;U_pgv;V_pgv;U_T0_025;U_T0_040;U_T0_050;U_T0_070;U_T0_100;U_T0_150;U_T0_200;U_T0_250;U_T0_300;U_T0_350;U_T0_400;U_T0_450;U_T0_500;U_T0_600;U_T0_700;U_T0_750;U_T0_800;U_T0_900;U_T1_000;U_T1_200;U_T1_400;U_T1_600;U_T1_800;U_T2_000;U_T2_500;U_T3_000;U_T3_500;U_T4_000;U_T4_500;U_T5_000;V_T0_025;V_T0_040;V_T0_050;V_T0_070;V_T0_100;V_T0_150;V_T0_200;V_T0_250;V_T0_300;V_T0_350;V_T0_400;V_T0_450;V_T0_500;V_T0_600;V_T0_700;V_T0_750;V_T0_800;V_T0_900;V_T1_000;V_T1_200;V_T1_400;V_T1_600;V_T1_800;V_T2_000;V_T2_500;V_T3_000;V_T3_500;V_T4_000;V_T4_500;V_T5_000
EMSC-20110506_0000042;06.05.2011 15:12;16497798;2350579;20110506_0000042;IT;37.804;14.943;20.35;INGV_OSS_ETNEO_SEISMIC_CATALOG;TF;4;INGV_OSS_ETNEO_SEISMIC_CATALOG;4.3;INGV_OSS_ETNEO_SEISMIC_CATALOG;;;IV;AGST;0;EH;0;2;ERR;;IT;37.25652;15.22713;70;A*;ESM;;;;5.690158;619.063449;65.7;337.6;D;0.15;0.15;30;30;0.970491;-0.906398;-0.024118;0.031793;1.03875;1.2105;1.53319;1.97546;3.47224;2.85801;1.1963;0.779674;0.589811;0.625518;0.522646;0.459745;0.435624;0.294972;0.334648;0.314013;0.244194;0.167549;0.2073;0.18958;0.079177;0.045301;0.041261;0.032339;0.020328;0.013692;0.011179;0.008193;0.006448;0.004728;0.91586;1.06009;1.3175;2.02806;2.45756;4.13046;2.14253;1.18437;0.980537;0.654298;0.456803;0.268649;0.261826;0.299872;0.439818;0.489614;0.384628;0.365213;0.386254;0.355825;0.160094;0.113396;0.087929;0.079542;0.050851;0.026481;0.018414;0.013137;0.010401;0.007735
EMSC-20110506_0000042;06.05.2011 15:12;16497798;2350579;20110506_0000042;IT;37.804;14.943;20.35;INGV_OSS_ETNEO_SEISMIC_CATALOG;TF;4;INGV_OSS_ETNEO_SEISMIC_CATALOG;4.3;INGV_OSS_ETNEO_SEISMIC_CATALOG;;;IV;ALJA;0;HH;0;;;;IT;37.74897;13.75373;700;B*;ESM;;;;17.444938;1011.233466;104.9;86.3;D;0.04;0.04;30;30;-0.105891;-0.095095;0.009531;0.010829;0.10631;0.107244;0.107612;0.109676;0.125127;0.138807;0.213976;0.223346;0.2706;0.349786;0.279169;0.285962;0.29186;0.262269;0.271522;0.287518;0.273109;0.151837;0.164109;0.157378;0.087449;0.057342;0.037711;0.029738;0.01878;0.010187;0.007404;0.006531;0.005372;0.003769;0.095667;0.096196;0.096913;0.099437;0.110929;0.180209;0.20505;0.33066;0.310027;0.447079;0.419293;0.33856;0.324484;0.297368;0.189946;0.216493;0.189918;0.131741;0.121493;0.107159;0.089844;0.057376;0.049279;0.040929;0.02231;0.023566;0.010841;0.005488;0.004605;0.003258
EMSC-20110506_0000042;06.05.2011 15:12;16497798;2350579;20110506_0000042;IT;37.804;14.943;20.35;INGV_OSS_ETNEO_SEISMIC_CATALOG;TF;4;INGV_OSS_ETNEO_SEISMIC_CATALOG;4.3;INGV_OSS_ETNEO_SEISMIC_CATALOG;;;IV;CAGR;0;HH;1;;;;IT;37.622;14.4999;548;B*;ESM;;;;3.194052;505.091836;44;62.5;D;0.04;0.04;30;30;0.492901;-0.399923;-0.041834;-0.0374;0.494971;0.498031;0.500941;0.509377;0.540242;0.721459;1.20363;1.2622;1.27239;1.39213;1.51989;1.45416;1.10129;1.00905;1.3564;1.39241;1.09632;0.570636;0.610992;0.536666;0.22771;0.142497;0.14022;0.178227;0.087533;0.045435;0.04213;0.026011;0.017519;0.013011;0.401096;0.405279;0.403125;0.412162;0.428914;0.480684;0.850056;0.930044;0.944167;1.2798;1.90542;1.19569;0.967731;1.38643;1.22187;1.18642;0.986695;0.664806;0.505068;0.323489;0.213097;0.147245;0.142449;0.114421;0.081891;0.05112;0.028685;0.020615;0.017132;0.013289
EMSC-20110506_0000042;06.05.2011 15:12;16497798;2350579;20110506_0000042;IT;37.804;14.943;20.35;INGV_OSS_ETNEO_SEISMIC_CATALOG;TF;4;INGV_OSS_ETNEO_SEISMIC_CATALOG;4.3;INGV_OSS_ETNEO_SEISMIC_CATALOG;;;IV;CAR1;0;HH;0;0;VAU;P;IT;39.2534;16.2114;680;B*;ESM;;;;6.116203;645.043214;195.2;214.9;D;0.04;0.04;30;30;-0.056234;-0.04929;-0.003392;0.002747;0.057459;0.060847;0.06189;0.071882;0.158558;0.155869;0.151307;0.151164;0.126662;0.097901;0.075925;0.084587;0.105364;0.096732;0.140663;0.099392;0.057822;0.045603;0.036358;0.02525;0.013608;0.012233;0.010823;0.010553;0.007116;0.003474;0.001662;0.001218;0.000983;0.000852;0.05017;0.051323;0.055483;0.076199;0.111188;0.138859;0.124845;0.143591;0.126381;0.137393;0.096257;0.068545;0.104402;0.074636;0.094308;0.06367;0.049973;0.050124;0.052576;0.043637;0.018318;0.01038;0.008078;0.007773;0.004648;0.002768;0.001423;0.001141;0.000945;0.000791
EMSC-20110506_0000042;06.05.2011 15:12;16497798;2350579;20110506_0000042;IT;37.804;14.943;20.35;INGV_OSS_ETNEO_SEISMIC_CATALOG;TF;4;INGV_OSS_ETNEO_SEISMIC_CATALOG;4.3;INGV_OSS_ETNEO_SEISMIC_CATALOG;;;IV;CORL;0;HH;0;;;;IT;37.8943;13.3038;660;B*;ESM;;;;7.329367;720.183838;144.6;93.5;D;0.04;0.04;30;30;0.114901;0.079405;-0.008705;0.00693;0.115344;0.116742;0.118271;0.117833;0.12375;0.128899;0.213491;0.205923;0.336738;0.309898;0.403659;0.431266;0.287252;0.244087;0.183884;0.174263;0.123168;0.113297;0.123898;0.099897;0.061192;0.038632;0.039996;0.039827;0.02946;0.017054;0.011398;0.005916;0.004447;0.002657;0.079659;0.080573;0.08186;0.083397;0.084941;0.09111;0.135947;0.19194;0.19982;0.247534;0.254059;0.198831;0.262055;0.181499;0.227244;0.241328;0.179216;0.111575;0.119926;0.097421;0.051274;0.040441;0.037569;0.043334;0.021533;0.020597;0.013779;0.006113;0.004579;0.003004
EMSC-20110506_0000042;06.05.2011 15:12;16497798;2350579;20110506_0000042;IT;37.804;14.943;20.35;INGV_OSS_ETNEO_SEISMIC_CATALOG;TF;4;INGV_OSS_ETNEO_SEISMIC_CATALOG;4.3;INGV_OSS_ETNEO_SEISMIC_CATALOG;;;IV;ECHR;0;HN;0;;;;IT;37.6863;14.9129;1171;A*;ESM;;;;4.957648;585.534077;13.3;11.5;D;0.04;0.04;30;30;-2.305778;-2.384814;-0.093545;-0.098127;2.33082;2.34028;2.45179;2.36435;3.76896;6.89222;8.32386;4.66851;6.28136;5.65622;4.15567;4.16111;4.43886;1.93752;1.60333;1.38737;1.36407;1.25772;0.973949;1.00813;0.630382;0.481594;0.385262;0.327962;0.239868;0.117557;0.072026;0.047745;0.039842;0.031585;2.43146;2.49513;2.63096;3.08311;4.14122;6.71397;7.64955;8.67489;6.03643;6.41868;4.55387;3.82617;3.26613;2.78436;1.31056;1.18315;1.23734;1.11338;0.886137;0.760162;0.427189;0.302871;0.197148;0.215024;0.154541;0.083564;0.048334;0.029937;0.024882;0.019291
EMSC-20110506_0000042;06.05.2011 15:12;16497798;2350579;20110506_0000042;IT;37.804;14.943;20.35;INGV_OSS_ETNEO_SEISMIC_CATALOG;TF;4;INGV_OSS_ETNEO_SEISMIC_CATALOG;4.3;INGV_OSS_ETNEO_SEISMIC_CATALOG;;;IV;ECNV;0;HH;0;;;;IT;37.5956;14.7125;484;B*;ESM;;;;7.504208;731.045228;30.8;41.2;D;0.05;0.05;30;30;0.464783;-0.609002;0.04155;0.047712;0.469232;0.473733;0.490486;0.593236;1.13799;1.34993;1.31839;1.88103;1.50724;1.19518;0.982488;1.072;1.13256;0.610599;0.556934;0.607568;0.760198;0.628747;0.470259;0.431468;0.320298;0.19833;0.212778;0.257971;0.152183;0.094389;0.056255;0.035652;0.02882;0.020457;0.615276;0.638703;0.641778;0.70815;0.953126;1.03749;1.65532;1.48929;1.65837;1.68057;1.90057;1.89256;1.57099;1.73963;1.64609;1.49541;1.1671;0.739165;0.733404;0.659007;0.434792;0.309632;0.251233;0.172285;0.102189;0.082923;0.047926;0.030403;0.023922;0.019405
EMSC-20110506_0000042;06.05.2011 15:12;16497798;2350579;20110506_0000042;IT;37.804;14.943;20.35;INGV_OSS_ETNEO_SEISMIC_CATALOG;TF;4;INGV_OSS_ETNEO_SEISMIC_CATALOG;4.3;INGV_OSS_ETNEO_SEISMIC_CATALOG;;;IV;ENIC;0;HN;0;;;;IT;37.6314;15.0216;886;A*;ESM;;;;3.905238;537.489019;20.4;340.1;D;0.1;0.1;30;30;-2.110063;-2.424457;-0.07515;-0.079201;2.16404;2.31417;2.72025;4.51665;6.54169;8.77093;7.76361;8.43713;5.83566;3.4713;3.30671;2.10095;1.21859;1.10649;0.778969;0.819461;0.75974;0.521556;0.448591;0.363613;0.221635;0.122984;0.16194;0.121627;0.067234;0.036718;0.026671;0.021151;0.015047;0.012895;2.52384;2.69999;3.06075;4.04569;7.53065;8.9519;8.25222;6.67403;4.38924;3.06699;2.75179;1.71519;1.69458;1.14391;0.937364;0.913192;0.724836;0.570992;0.357923;0.336699;0.164027;0.12526;0.105466;0.076118;0.054899;0.033274;0.023824;0.017819;0.014037;0.010502
EMSC-20110506_0000042;06.05.2011 15:12;16497798;2350579;20110506_0000042;IT;37.804;14.943;20.35;INGV_OSS_ETNEO_SEISMIC_CATALOG;TF;4;INGV_OSS_ETNEO_SEISMIC_CATALOG;4.3;INGV_OSS_ETNEO_SEISMIC_CATALOG;;;IV;ESLN;0;HH;0;;;;IT;37.6934;14.9744;1787;A*;ESM;;;;1.725269;409.240433;12.6;347.3;D;0.1;0.1;30;30;1.82176;1.351384;-0.069755;0.061245;1.88599;2.06243;2.19671;3.41397;5.18125;7.04774;4.50096;4.30113;4.13642;3.9711;2.62629;2.06079;1.58546;1.4862;0.896335;0.855322;0.787071;0.617561;0.604117;0.406734;0.292588;0.163168;0.171661;0.173994;0.08934;0.050484;0.034013;0.024355;0.021764;0.016508;1.37745;1.89372;2.55927;3.01191;2.98053;3.89068;4.23829;2.73662;3.03439;2.69027;2.02375;1.46625;1.42494;0.882097;0.745306;0.900089;1.04501;0.530476;0.478084;0.389131;0.258944;0.202831;0.187355;0.196914;0.100165;0.038011;0.031775;0.023872;0.016285;0.012682
EMSC-20110506_0000042;06.05.2011 15:12;16497798;2350579;20110506_0000042;IT;37.804;14.943;20.35;INGV_OSS_ETNEO_SEISMIC_CATALOG;TF;4;INGV_OSS_ETNEO_SEISMIC_CATALOG;4.3;INGV_OSS_ETNEO_SEISMIC_CATALOG;;;IV;EVRN;0;HN;0;0;VAU;P;IT;37.6892;15.1356;421;A*;ESM;;;;6.167782;648.230463;21.2;307;D;0.1;0.1;30;30;1.963142;2.377155;-0.096369;-0.082925;2.01908;2.11896;2.31331;2.61099;4.92159;8.38791;5.03896;6.80434;6.24537;5.21821;3.60021;3.931;3.51469;1.49602;0.814396;0.790548;0.674267;0.58825;0.564319;0.433505;0.267294;0.198474;0.156731;0.130366;0.086936;0.050936;0.033733;0.027955;0.022625;0.016721;2.4472;2.63062;2.87982;3.95029;7.20321;7.25408;10.9563;5.07298;7.41743;4.58349;2.94806;2.79357;2.03242;1.05191;0.834891;0.874941;0.762739;0.699199;0.690112;0.708214;0.356215;0.16676;0.167902;0.121678;0.074931;0.061527;0.045271;0.026624;0.021604;0.016509
EMSC-20110506_0000042;06.05.2011 15:12;16497798;2350579;20110506_0000042;IT;37.804;14.943;20.35;INGV_OSS_ETNEO_SEISMIC_CATALOG;TF;4;INGV_OSS_ETNEO_SEISMIC_CATALOG;4.3;INGV_OSS_ETNEO_SEISMIC_CATALOG;;;IV;FAVR;0;HH;0;;;;IT;37.2671;13.667;289;A*;ESM;;;;10.276092;819.548531;127.6;61.8;D;0.1;0.1;25;25;0.055336;-0.063758;-0.004465;-0.003656;0.055738;0.056593;0.058463;0.079942;0.156109;0.124777;0.145782;0.1504;0.125276;0.153856;0.117985;0.141162;0.12;0.09739;0.100668;0.09391;0.088458;0.060134;0.055819;0.068046;0.029834;0.027783;0.019988;0.021482;0.0174;0.007774;0.005325;0.003114;0.002608;0.00238;0.064305;0.066161;0.065745;0.072821;0.138727;0.125631;0.11622;0.152866;0.155461;0.132858;0.147319;0.13404;0.095453;0.099951;0.076756;0.075191;0.072121;0.053328;0.050055;0.060306;0.04287;0.023806;0.026645;0.031094;0.020549;0.012174;0.007205;0.003804;0.003479;0.00188
EMSC-20110506_0000042;06.05.2011 15:12;16497798;2350579;20110506_0000042;IT;37.804;14.943;20.35;INGV_OSS_ETNEO_SEISMIC_CATALOG;TF;4;INGV_OSS_ETNEO_SEISMIC_CATALOG;4.3;INGV_OSS_ETNEO_SEISMIC_CATALOG;;;IV;GALF;0;HH;0;;;;IT;37.7107;14.5665;740;A*;ESM;;;;5.561072;613.148861;34.8;72.6;D;0.04;0.04;30;30;-0.603239;0.66682;-0.053879;0.044666;0.607425;0.61422;0.62328;0.657084;0.753837;0.974032;1.42592;1.99283;2.09263;1.81609;1.27986;1.47102;1.41435;1.48937;1.15823;1.04344;0.950131;0.534209;0.393608;0.243689;0.13442;0.085201;0.060571;0.047051;0.030886;0.020075;0.015223;0.012412;0.010614;0.008672;0.670177;0.679618;0.692462;0.728334;0.758013;0.946842;1.43576;1.8461;2.86598;2.5175;2.23817;1.33236;1.18668;1.53588;1.20614;1.12596;1.16688;0.748991;0.511556;0.29553;0.194745;0.136459;0.101933;0.075681;0.044521;0.030032;0.021667;0.016527;0.013765;0.010989
EMSC-20110506_0000042;06.05.2011 15:12;16497798;2350579;20110506_0000042;IT;37.804;14.943;20.35;INGV_OSS_ETNEO_SEISMIC_CATALOG;TF;4;INGV_OSS_ETNEO_SEISMIC_CATALOG;4.3;INGV_OSS_ETNEO_SEISMIC_CATALOG;;;IV;GIB;0;HH;0;;;;IT;37.990126;14.026023;1020;A*;ESM;;;;6.748967;684.188324;83.3;104.1;D;0.1;0.1;30;30;-0.232015;0.447087;-0.02637;0.039406;0.233413;0.234959;0.237503;0.243432;0.246395;0.3004;0.360179;0.615821;0.802734;0.737922;1.03041;1.01371;0.90428;0.578893;0.347453;0.352409;0.284725;0.262987;0.234551;0.269983;0.147558;0.11933;0.128619;0.115016;0.072379;0.0361;0.02319;0.015832;0.012519;0.009516;0.448173;0.451028;0.450916;0.459388;0.469085;0.52308;0.594366;0.798196;1.06309;0.889293;1.10847;1.61387;2.11931;1.41312;0.563523;0.434507;0.471923;0.595577;0.631326;0.345959;0.183911;0.127903;0.088489;0.073053;0.047685;0.03623;0.024288;0.016366;0.013047;0.009663
EMSC-20110506_0000042;06.05.2011 15:12;16497798;2350579;20110506_0000042;IT;37.804;14.943;20.35;INGV_OSS_ETNEO_SEISMIC_CATALOG;TF;4;INGV_OSS_ETNEO_SEISMIC_CATALOG;4.3;INGV_OSS_ETNEO_SEISMIC_CATALOG;;;IV;GRI;0;EH;0;0;BOX;P;IT;38.82213;16.42002;510;C*;ESM;;;;3.010182;496.723561;171.6;229.3;D;0.2;0.2;30;30;0.029356;0.021114;0.001421;0.001866;0.029434;0.030371;0.031002;0.030973;0.036932;0.0449;0.086951;0.06509;0.05948;0.053055;0.053934;0.04247;0.060574;0.052246;0.041492;0.034128;0.033012;0.03697;0.027328;0.018999;0.010229;0.005039;0.004672;0.005086;0.00473;0.002417;0.001186;0.000723;0.000645;0.000438;0.021829;0.024511;0.021077;0.023026;0.027123;0.038283;0.046075;0.049447;0.053223;0.072035;0.044461;0.051183;0.043471;0.039884;0.040512;0.041014;0.038745;0.038183;0.050323;0.026409;0.01445;0.010347;0.006821;0.005282;0.003266;0.001591;0.001159;0.000768;0.000614;0.000463
EMSC-20110506_0000042;06.05.2011 15:12;16497798;2350579;20110506_0000042;IT;37.804;14.943;20.35;INGV_OSS_ETNEO_SEISMIC_CATALOG;TF;4;INGV_OSS_ETNEO_SEISMIC_CATALOG;4.3;INGV_OSS_ETNEO_SEISMIC_CATALOG;;;IV;HAGA;0;HH;0;;;;IT;37.285;15.155;126;A*;ESM;;;;11.650139;855.426134;60.6;342;D;0.04;0.04;30;30;-0.996649;-0.875964;0.01871;-0.022766;1.1089;1.31245;1.45337;2.22579;3.19268;1.88367;0.937336;1.08689;0.752058;0.500731;0.480602;0.482885;0.308239;0.305149;0.335048;0.379904;0.305842;0.182461;0.1567;0.144269;0.078381;0.06007;0.058222;0.045532;0.030031;0.014961;0.009461;0.006649;0.005326;0.004334;0.977895;1.66072;2.53399;3.52067;2.26832;1.50667;1.19283;1.46037;0.79056;0.607533;0.451511;0.304252;0.298752;0.33302;0.502426;0.502985;0.374946;0.222197;0.223933;0.150005;0.108624;0.091604;0.091822;0.077299;0.042642;0.026045;0.017971;0.012641;0.009874;0.007198
EMSC-20110506_0000042;06.05.2011 15:12;16497798;2350579;20110506_0000042;IT;37.804;14.943;20.35;INGV_OSS_ETNEO_SEISMIC_CATALOG;TF;4;INGV_OSS_ETNEO_SEISMIC_CATALOG;4.3;INGV_OSS_ETNEO_SEISMIC_CATALOG;;;IV;HAVL;0;HH;0;;;;IT;36.9596;15.122;502;A*;ESM;;;;4.472937;563.388787;95;350.5;D;0.04;0.04;30;30;-0.672697;0.899284;0.015783;-0.023206;0.702793;0.783509;1.04249;1.62148;2.36195;1.63662;1.4135;1.21318;1.03046;0.848206;0.429956;0.306537;0.250925;0.289377;0.295779;0.244433;0.177874;0.123711;0.128469;0.094019;0.042983;0.034253;0.032651;0.031883;0.019832;0.013514;0.007066;0.005145;0.003783;0.002996;0.949496;1.17157;1.29701;2.66412;2.41276;2.17349;1.79853;2.2463;1.32455;0.892908;0.502167;0.327373;0.349006;0.241816;0.189044;0.181205;0.13427;0.100112;0.125903;0.067942;0.034443;0.032114;0.030914;0.03345;0.028455;0.012326;0.007563;0.00512;0.004859;0.004061
EMSC-20110506_0000042;06.05.2011 15:12;16497798;2350579;20110506_0000042;IT;37.804;14.943;20.35;INGV_OSS_ETNEO_SEISMIC_CATALOG;TF;4;INGV_OSS_ETNEO_SEISMIC_CATALOG;4.3;INGV_OSS_ETNEO_SEISMIC_CATALOG;;;IV;HCRL;0;HH;0;;;;IT;37.2831;15.0325;240;A*;ESM;;;;4.213329;551.540196;58.4;352.2;D;0.1;0.1;30;30;1.136087;-1.005663;-0.031475;-0.029094;1.17955;1.27767;1.39712;2.12574;3.2615;3.79806;1.64823;1.17931;1.49583;1.01367;0.566519;0.368016;0.281785;0.31151;0.330567;0.320968;0.241553;0.139888;0.119161;0.117031;0.070678;0.058653;0.048449;0.045188;0.029752;0.017344;0.012068;0.008486;0.00662;0.00537;1.0688;1.12997;1.42795;2.37586;2.71466;2.77913;1.65859;1.04124;1.36489;1.13963;0.918159;0.638018;0.446308;0.347952;0.288206;0.320588;0.284132;0.178019;0.183687;0.162254;0.09534;0.061417;0.050102;0.038209;0.029592;0.020015;0.013014;0.009422;0.007559;0.005902
EMSC-20110506_0000042;06.05.2011 15:12;16497798;2350579;20110506_0000042;IT;37.804;14.943;20.35;INGV_OSS_ETNEO_SEISMIC_CATALOG;TF;4;INGV_OSS_ETNEO_SEISMIC_CATALOG;4.3;INGV_OSS_ETNEO_SEISMIC_CATALOG;;;IV;HLNI;0;HH;0;;;;IT;37.3485;14.872;146;B*;ESM;;;;9.186495;791.321225;50.9;7.1;D;0.04;0.04;30;30;2.042489;-1.395605;-0.034911;0.027331;2.18611;2.65329;3.00553;5.9883;8.64736;4.65808;2.61146;1.68377;1.23087;0.530419;0.425227;0.43629;0.393269;0.213065;0.150735;0.13498;0.154435;0.096238;0.114896;0.12554;0.079121;0.055893;0.059551;0.061464;0.044934;0.024726;0.016367;0.011376;0.008408;0.005772;1.54021;1.81519;2.05409;4.53927;6.28151;3.43757;1.46452;1.29072;1.17086;0.815299;0.550802;0.35066;0.25748;0.240546;0.127856;0.102144;0.099068;0.080992;0.076661;0.06576;0.06389;0.053437;0.057769;0.049829;0.025374;0.014257;0.009612;0.006468;0.00506;0.004216
EMSC-20110506_0000042;06.05.2011 15:12;16497798;2350579;20110506_0000042;IT;37.804;14.943;20.35;INGV_OSS_ETNEO_SEISMIC_CATALOG;TF;4;INGV_OSS_ETNEO_SEISMIC_CATALOG;4.3;INGV_OSS_ETNEO_SEISMIC_CATALOG;;;IV;HMDC;0;HH;0;;;;IT;36.959;14.7831;595;A*;ESM;;;;7.174178;710.550353;94.8;8.5;D;0.04;0.04;30;30;-0.605947;0.504603;0.03421;0.031861;0.626808;0.731605;0.830199;1.14546;1.44122;1.13796;1.66782;1.00763;0.875216;0.896716;0.854712;0.944337;0.728307;0.65269;0.563091;0.625039;0.588589;0.376211;0.452363;0.405194;0.182945;0.118721;0.100053;0.081915;0.055991;0.028743;0.021136;0.01484;0.011484;0.008542;0.529854;0.565961;0.770999;1.28731;1.23135;1.55984;1.26322;0.951586;0.758415;0.801758;0.863256;0.832937;0.841232;0.818148;0.775978;0.66482;0.425281;0.333888;0.353921;0.28048;0.127976;0.086375;0.076257;0.058112;0.032489;0.018579;0.013946;0.010676;0.008955;0.006934
EMSC-20110506_0000042;06.05.2011 15:12;16497798;2350579;20110506_0000042;IT;37.804;14.943;20.35;INGV_OSS_ETNEO_SEISMIC_CATALOG;TF;4;INGV_OSS_ETNEO_SEISMIC_CATALOG;4.3;INGV_OSS_ETNEO_SEISMIC_CATALOG;;;IV;HVZN;0;HH;0;;;;IT;37.1783;14.7155;787;A*;ESM;;;;8.255468;767.339851;72.3;16.1;D;0.1;0.1;30;30;0.504434;-0.600555;-0.030461;-0.030744;0.523729;0.569751;0.663765;1.04138;1.49054;1.52006;1.41206;1.08562;1.17463;1.19319;1.05133;1.23157;0.887074;0.893054;1.13663;1.05981;0.945417;0.591235;0.332583;0.244841;0.15811;0.107089;0.104447;0.094693;0.071344;0.035867;0.021945;0.014746;0.011155;0.007782;0.617225;0.6594;0.793547;1.06795;1.88567;2.45931;1.45966;1.27705;2.45641;2.37825;1.39415;1.23168;1.25607;1.15533;0.762646;0.690628;0.770305;0.446308;0.434965;0.26021;0.143602;0.094529;0.069719;0.051355;0.026053;0.020073;0.013757;0.009892;0.008621;0.007185
EMSC-20110506_0000042;06.05.2011 15:12;16497798;2350579;20110506_0000042;IT;37.804;14.943;20.35;INGV_OSS_ETNEO_SEISMIC_CATALOG;TF;4;INGV_OSS_ETNEO_SEISMIC_CATALOG;4.3;INGV_OSS_ETNEO_SEISMIC_CATALOG;;;IV;IACL;0;HH;0;;;;IT;38.533;14.355;145;A*;ESM;;;;23.134113;1174.160031;95.9;147.3;D;0.04;0.04;30;30;-0.389349;-0.335891;0.017374;0.017845;0.395814;0.419292;0.431052;0.435577;0.738814;1.00276;1.37296;0.752267;1.08191;0.702303;0.889424;0.737511;0.478108;0.245443;0.257796;0.240184;0.246571;0.135966;0.143722;0.110893;0.06509;0.046556;0.044805;0.035848;0.017745;0.011751;0.008264;0.006302;0.005348;0.003735;0.339682;0.345989;0.356743;0.446677;0.570082;1.08301;1.18988;1.04033;1.29088;0.81603;0.711411;0.689115;0.492127;0.340344;0.335454;0.38741;0.307388;0.131332;0.131383;0.074419;0.058478;0.046877;0.038338;0.03975;0.019713;0.011709;0.009492;0.007051;0.005786;0.004458
EMSC-20110506_0000042;06.05.2011 15:12;16497798;2350579;20110506_0000042;IT;37.804;14.943;20.35;INGV_OSS_ETNEO_SEISMIC_CATALOG;TF;4;INGV_OSS_ETNEO_SEISMIC_CATALOG;4.3;INGV_OSS_ETNEO_SEISMIC_CATALOG;;;IV;IFIL;0;EH;0;;;;IT;38.5642;14.5753;277;A*;ESM;;;;14.98538;944.090572;90.3;159;D;0.15;0.15;30;30;-0.707684;-0.419252;-0.031401;-0.026502;0.718;0.734612;0.760768;0.895519;0.977148;1.87414;2.8596;2.01483;2.16379;1.56637;1.27915;0.929615;0.740523;0.544389;0.545054;0.589173;0.445905;0.369504;0.319002;0.223153;0.121696;0.082928;0.065541;0.058518;0.026966;0.017091;0.013624;0.011061;0.009277;0.007222;0.424564;0.442152;0.458736;0.553537;0.77913;1.26303;1.30562;1.49574;1.41948;0.966023;0.959505;0.873461;0.687853;0.475695;0.549033;0.703197;0.517425;0.220864;0.171649;0.174519;0.115444;0.05638;0.056904;0.041243;0.023302;0.014172;0.011155;0.007815;0.006157;0.005044
