event_id;event_time;ISC_ev_id;INGV_ev_id;EMSC_ev_id;ev_nation_code;ev_latitude;ev_longitude;ev_depth_km;ev_hyp_ref;fm_type_code;ML;ML_ref;Mw;Mw_ref;Ms;Ms_ref;network_code;station_code;location_code;instrument_code;sensor_depth_m;proximity_code;housing_code;installation_code;st_nation_code;st_latitude;st_longitude;st_elevation;ec8_code;ec8_code_ref;vs30_m_sec;vs30_ref;vs30_meas_type;slope_deg;vs30_m_sec_WA;epi_dist;epi_az;instrument_type_code;U_hp;V_hp;U_lp;V_lp;U_pga;V_pga;U_pgv;V_pgv;U_T0_025;U_T0_040;U_T0_050;U_T0_070;U_T0_100;U_T0_150;U_T0_200;U_T0_250;U_T0_300;U_T0_350;U_T0_400;U_T0_450;U_T0_500;U_T0_600;U_T0_700;U_T0_750;U_T0_800;U_T0_900;U_T1_000;U_T1_200;U_T1_400;U_T1_600;U_T1_800;U_T2_000;U_T2_500;U_T3_000;U_T3_500;U_T4_000;U_T4_500;U_T5_000;V_T0_025;V_T0_040;V_T0_050;V_T0_070;V_T0_100;V_T0_150;V_T0_200;V_T0_250;V_T0_300;V_T0_350;V_T0_400;V_T0_450;V_T0_500;V_T0_600;V_T0_700;V_T0_750;V_T0_800;V_T0_900;V_T1_000;V_T1_200;V_T1_400;V_T1_600;V_T1_800;V_T2_000;V_T2_500;V_T3_000;V_T3_500;V_T4_000;V_T4_500;V_T5_000
EMSC-20170821_0000072;21.08.2017 18:57;;16796811;20170821_0000072;IT;40.7383;13.8977;1.5;INGV-CNT_Seismic_Bulletin;NF;3.6;INGV-CNT_Seismic_Bulletin;3.9;INGV-webservice;;;IV;BSSO;0;HH;0;0;VAU;P;IT;41.5461;14.5938;1010;A*;ESM;;;;6.215873;651.202748;107.1;213.3;D;0.03;0.03;30;30;-0.005164;-0.007331;-0.002338;-0.002255;0.00525;0.005303;0.005235;0.005274;0.00523;0.00568;0.007661;0.011847;0.009948;0.007795;0.009722;0.013277;0.012601;0.012111;0.011873;0.012315;0.014552;0.011791;0.012786;0.014958;0.017439;0.013237;0.017301;0.017272;0.01093;0.009642;0.008742;0.008203;0.00911;0.008402;0.007506;0.007332;0.00743;0.007417;0.007512;0.007877;0.008819;0.009456;0.009686;0.010097;0.009492;0.009607;0.010021;0.014222;0.025587;0.027157;0.02357;0.016549;0.018158;0.01623;0.027257;0.024276;0.016394;0.01972;0.013223;0.007031;0.009446;0.010731;0.011356;0.011968
EMSC-20170821_0000072;21.08.2017 18:57;;16796811;20170821_0000072;IT;40.7383;13.8977;1.5;INGV-CNT_Seismic_Bulletin;NF;3.6;INGV-CNT_Seismic_Bulletin;3.9;INGV-webservice;;;IV;BULG;0;HN;1;;;;IT;40.0783;15.3776;815;A*;ESM;;;;0.576216;319.267715;145.4;300.7;D;0.15;0.15;15;15;-0.006437;-0.008289;0.002302;-0.002108;0.006566;0.006554;0.006694;0.006562;0.006778;0.008478;0.011754;0.017452;0.018437;0.014871;0.016062;0.012577;0.014611;0.018993;0.021176;0.020945;0.016971;0.01124;0.012647;0.012166;0.012603;0.008778;0.012428;0.011859;0.014593;0.016467;0.0144;0.011846;0.008299;0.004998;0.008448;0.008363;0.008576;0.0092;0.009574;0.012431;0.020293;0.022189;0.01877;0.020032;0.021408;0.023654;0.022989;0.020339;0.022648;0.025369;0.024786;0.028051;0.021219;0.016754;0.019101;0.016092;0.010939;0.011753;0.014487;0.018057;0.014105;0.009294;0.008088;0.006003
EMSC-20170821_0000072;21.08.2017 18:57;;16796811;20170821_0000072;IT;40.7383;13.8977;1.5;INGV-CNT_Seismic_Bulletin;NF;3.6;INGV-CNT_Seismic_Bulletin;3.9;INGV-webservice;;;IV;CAFE;0;HH;0;0;VAU;P;IT;41.028;15.2366;1070;A*;ESM;;;;7.688083;742.477334;117.3;254.5;D;0.03;0.03;30;30;0.011009;-0.009743;-0.004746;-0.003539;0.011232;0.012312;0.011394;0.011105;0.011533;0.01231;0.016418;0.017003;0.01973;0.022573;0.019364;0.024016;0.022058;0.036076;0.030503;0.030481;0.027051;0.025454;0.024739;0.035427;0.033109;0.022832;0.029384;0.036635;0.032114;0.023704;0.021882;0.022899;0.021119;0.020482;0.010145;0.010564;0.010035;0.009685;0.009806;0.010056;0.011285;0.010935;0.012973;0.01401;0.016131;0.016172;0.018081;0.016055;0.020254;0.021466;0.020579;0.020135;0.026498;0.036977;0.032168;0.020037;0.021077;0.021174;0.019496;0.016834;0.015428;0.016979;0.013997;0.017122
EMSC-20170821_0000072;21.08.2017 18:57;;16796811;20170821_0000072;IT;40.7383;13.8977;1.5;INGV-CNT_Seismic_Bulletin;NF;3.6;INGV-CNT_Seismic_Bulletin;3.9;INGV-webservice;;;IV;CAFL;0;HH;0;;;;IT;40.8439;14.0935;75;C*;ESM;;;;1.735745;409.983962;20.3;234.7;D;0.03;0.03;30;30;-0.420789;-0.488619;0.04645;-0.046546;0.426211;0.487507;0.510523;0.653584;0.863844;1.07933;1.15086;1.35153;1.37514;0.795678;0.781691;1.13857;0.885496;0.881418;0.603301;0.61914;0.636036;0.412419;0.439741;0.540143;0.637504;0.57466;0.563563;0.314921;0.252214;0.185633;0.140467;0.115676;0.082791;0.077511;0.493632;0.517365;0.51967;0.704764;1.39368;1.04002;1.11701;0.931412;1.1752;1.43278;1.14008;1.16561;1.18381;0.787371;0.596893;0.667961;0.662833;0.664261;0.45379;0.678169;0.482825;0.473717;0.462005;0.355799;0.360868;0.204065;0.123379;0.105057;0.099433;0.105186
EMSC-20170821_0000072;21.08.2017 18:57;;16796811;20170821_0000072;IT;40.7383;13.8977;1.5;INGV-CNT_Seismic_Bulletin;NF;3.6;INGV-CNT_Seismic_Bulletin;3.9;INGV-webservice;;;IV;CERA;0;HN;1;;;;IT;41.5978;14.0183;800;A*;ESM;;;;7.358456;721.990311;96;186.1;D;0.15;0.15;20;20;0.031034;0.018405;0.005168;0.003566;0.031295;0.032745;0.031805;0.031176;0.030992;0.033455;0.045249;0.048495;0.078002;0.065452;0.069861;0.065811;0.06423;0.057421;0.069664;0.066883;0.066979;0.11512;0.127636;0.05547;0.052349;0.038523;0.044173;0.027404;0.015952;0.015956;0.011242;0.008738;0.012164;0.007799;0.018651;0.019742;0.020126;0.018814;0.023129;0.03216;0.040727;0.045735;0.052777;0.043156;0.044878;0.052567;0.057867;0.052522;0.063938;0.070182;0.084899;0.065759;0.058865;0.040509;0.029962;0.023879;0.032205;0.023444;0.013703;0.008584;0.008214;0.007779;0.011576;0.01303
EMSC-20170821_0000072;21.08.2017 18:57;;16796811;20170821_0000072;IT;40.7383;13.8977;1.5;INGV-CNT_Seismic_Bulletin;NF;3.6;INGV-CNT_Seismic_Bulletin;3.9;INGV-webservice;;;IV;CERT;0;HH;0;0;VAU;P;IT;41.94903;12.98176;773;A*;ESM;;;;13.283734;898.548735;154.8;150;D;0.03;0.03;30;30;-0.007654;-0.003766;0.001376;-0.001717;0.007707;0.007874;0.007956;0.008169;0.010095;0.011406;0.011196;0.014976;0.01518;0.02036;0.019498;0.025365;0.023032;0.01623;0.024258;0.018251;0.020944;0.01709;0.014532;0.009293;0.009534;0.008026;0.008108;0.009457;0.017668;0.007285;0.00389;0.004371;0.005565;0.004661;0.003841;0.004119;0.004566;0.0064;0.008532;0.015344;0.008866;0.011835;0.011622;0.009329;0.011477;0.01143;0.010473;0.011091;0.008464;0.008867;0.009899;0.009056;0.006575;0.006082;0.007213;0.008921;0.007812;0.006567;0.008041;0.004236;0.005419;0.00593;0.007754;0.004881
EMSC-20170821_0000072;21.08.2017 18:57;;16796811;20170821_0000072;IT;40.7383;13.8977;1.5;INGV-CNT_Seismic_Bulletin;NF;3.6;INGV-CNT_Seismic_Bulletin;3.9;INGV-webservice;;;IV;CIGN;0;HH;0;0;BOX;P;IT;41.65418;14.90502;350;B*;ESM;;;;7.680207;741.987465;132.2;220.1;D;0.03;0.03;30;30;-0.007931;-0.007587;-0.00366;0.003929;0.007964;0.00833;0.008052;0.008048;0.008064;0.008029;0.007952;0.008075;0.008867;0.010123;0.008908;0.010505;0.01074;0.012437;0.012957;0.013059;0.012508;0.015081;0.016707;0.01961;0.015442;0.014885;0.02238;0.031701;0.01753;0.027056;0.015489;0.019914;0.023496;0.018724;0.007747;0.00806;0.007778;0.007598;0.007613;0.007596;0.007634;0.008039;0.008794;0.009671;0.009941;0.011443;0.011228;0.013492;0.013623;0.013322;0.015858;0.01421;0.01411;0.018635;0.015431;0.017347;0.018158;0.022685;0.019573;0.025781;0.015898;0.015148;0.016489;0.024015
EMSC-20170821_0000072;21.08.2017 18:57;;16796811;20170821_0000072;IT;40.7383;13.8977;1.5;INGV-CNT_Seismic_Bulletin;NF;3.6;INGV-CNT_Seismic_Bulletin;3.9;INGV-webservice;;;IV;CMPR;0;HH;0;0;VAU;P;IT;40.3181;15.303;732;B*;ESM;;;;4.67821;572.763459;127.9;291.9;D;0.03;0.03;30;30;-0.007702;0.006078;-0.001197;0.001733;0.007978;0.008212;0.008416;0.008545;0.009175;0.011224;0.017097;0.017969;0.020134;0.021843;0.033752;0.021248;0.017177;0.020124;0.032916;0.029823;0.025466;0.013421;0.01425;0.009772;0.009662;0.006723;0.007337;0.007677;0.005946;0.006959;0.007125;0.00858;0.008591;0.003226;0.006596;0.006272;0.006486;0.007178;0.00818;0.009623;0.012172;0.012566;0.01979;0.017195;0.017815;0.017395;0.019678;0.017474;0.020053;0.017807;0.018503;0.01588;0.015526;0.014194;0.011384;0.008257;0.007846;0.007515;0.006464;0.012389;0.008026;0.008261;0.006452;0.005964
EMSC-20170821_0000072;21.08.2017 18:57;;16796811;20170821_0000072;IT;40.7383;13.8977;1.5;INGV-CNT_Seismic_Bulletin;NF;3.6;INGV-CNT_Seismic_Bulletin;3.9;INGV-webservice;;;IV;CMSN;0;HH;0;;;;IT;40.8382;14.1818;20;C*;ESM;;;;4.910999;583.401404;26.4;245.3;D;0.03;0.03;30;30;-0.200912;0.169281;0.052721;-0.035885;0.201981;0.209999;0.230566;0.241443;0.260006;0.259685;0.321142;0.413111;0.333236;0.288782;0.273893;0.410625;0.330669;0.338471;0.376901;0.345959;0.378739;0.403944;0.545032;0.397708;0.594266;0.452812;0.601499;0.561978;0.359363;0.176034;0.158405;0.156204;0.117765;0.096862;0.170149;0.181657;0.204184;0.244743;0.282909;0.288571;0.367994;0.433091;0.385594;0.349797;0.391725;0.34588;0.404224;0.522291;0.300924;0.326599;0.332305;0.357145;0.469146;0.378122;0.43325;0.41184;0.386037;0.537726;0.295349;0.132268;0.119859;0.105971;0.113413;0.064699
EMSC-20170821_0000072;21.08.2017 18:57;;16796811;20170821_0000072;IT;40.7383;13.8977;1.5;INGV-CNT_Seismic_Bulletin;NF;3.6;INGV-CNT_Seismic_Bulletin;3.9;INGV-webservice;;;IV;GATE;0;HH;0;0;CAV;P;IT;41.513145;14.910201;487;B*;ESM;;;;17.734096;1019.241513;121;225;D;0.03;0.03;30;30;-0.00792;0.00751;0.002512;-0.002626;0.008104;0.008588;0.010287;0.015021;0.011505;0.012503;0.014263;0.014188;0.016385;0.015421;0.011808;0.016303;0.018216;0.019396;0.018445;0.013755;0.017987;0.018367;0.016254;0.020597;0.019307;0.013313;0.014842;0.015972;0.016907;0.009401;0.010219;0.016196;0.010826;0.01159;0.007707;0.007972;0.008342;0.011371;0.013151;0.011012;0.011043;0.011703;0.011646;0.012089;0.01346;0.016615;0.015114;0.014242;0.020672;0.025278;0.025936;0.015577;0.015564;0.020295;0.01594;0.018527;0.01634;0.018401;0.017217;0.017436;0.010165;0.011007;0.013632;0.013749
EMSC-20170821_0000072;21.08.2017 18:57;;16796811;20170821_0000072;IT;40.7383;13.8977;1.5;INGV-CNT_Seismic_Bulletin;NF;3.6;INGV-CNT_Seismic_Bulletin;3.9;INGV-webservice;;;IV;GIGS;0;HH;0;2;ERR;;IT;42.453167;13.572833;960;A*;ESM;;;;15.898112;968.81293;192.4;171.8;D;0.05;0.05;20;20;-0.001684;0.00194;0.000946;0.000665;0.001716;0.001719;0.0017;0.0017;0.001691;0.001734;0.001707;0.001847;0.001926;0.002501;0.002069;0.002853;0.002173;0.0026;0.002803;0.003329;0.002825;0.003387;0.00311;0.003715;0.004012;0.003825;0.002877;0.003894;0.006814;0.003931;0.003589;0.004001;0.004724;0.003986;0.002018;0.001975;0.001991;0.002012;0.002037;0.001961;0.002069;0.002179;0.002216;0.002626;0.002501;0.002322;0.002352;0.003169;0.003256;0.003023;0.002899;0.004146;0.005181;0.005737;0.005926;0.004533;0.003092;0.00413;0.003276;0.00312;0.002667;0.002842;0.003409;0.003478
EMSC-20170821_0000072;21.08.2017 18:57;;16796811;20170821_0000072;IT;40.7383;13.8977;1.5;INGV-CNT_Seismic_Bulletin;NF;3.6;INGV-CNT_Seismic_Bulletin;3.9;INGV-webservice;;;IV;GIUL;0;HH;0;0;BOX;P;IT;41.55827;13.25458;566;A*;ESM;;;;9.736457;805.545626;105.9;149.1;D;0.03;0.03;30;30;-0.020118;-0.018818;0.002825;-0.002962;0.020717;0.021421;0.024654;0.03391;0.036703;0.072345;0.042452;0.047457;0.04437;0.044414;0.043455;0.031669;0.03085;0.03294;0.040891;0.036283;0.027118;0.027995;0.021207;0.032902;0.030135;0.023083;0.012267;0.008523;0.009919;0.007563;0.005405;0.006968;0.008367;0.007213;0.019487;0.02061;0.024948;0.035105;0.049364;0.050986;0.039093;0.052209;0.045451;0.045103;0.037711;0.034617;0.027083;0.033858;0.041232;0.029912;0.023524;0.027812;0.028043;0.024083;0.023787;0.014846;0.012263;0.015909;0.012095;0.007148;0.006112;0.008508;0.009565;0.00743
EMSC-20170821_0000072;21.08.2017 18:57;;16796811;20170821_0000072;IT;40.7383;13.8977;1.5;INGV-CNT_Seismic_Bulletin;NF;3.6;INGV-CNT_Seismic_Bulletin;3.9;INGV-webservice;;;IV;IOCA;0;HN;0;3;BUI;T;IT;40.7458;13.9008;123;C;ESM;313;B2_DPC-INGV_2018;A;1.325951;380.907049;0.9;197.5;D;0.1;0.1;35;35;275.136419;188.138562;17.80193;-11.462875;284.047;285.808;382.661;388.555;439.72;502.423;440.684;632.511;460.076;460.536;501.116;496.423;734.612;578.944;389.28;367.072;330.701;271.079;220.932;231.37;158.336;83.3264;56.9901;45.0354;26.426;16.8809;11.6186;8.49153;6.84513;5.18707;206.454;288.229;347.475;327.011;305.217;621.519;554.25;317.893;292.019;342.07;308.35;422.397;510.19;409.508;221.628;165.348;163.353;206.949;209.497;112.313;78.0874;50.6031;35.1037;30.4942;19.666;12.4938;8.22539;5.66493;4.63389;3.69096
EMSC-20170821_0000072;21.08.2017 18:57;;16796811;20170821_0000072;IT;40.7383;13.8977;1.5;INGV-CNT_Seismic_Bulletin;NF;3.6;INGV-CNT_Seismic_Bulletin;3.9;INGV-webservice;;;IV;MCEL;0;HN;1;;;;IT;40.3249;15.8019;960;A*;ESM;;;;10.104607;815.093608;167.7;286.5;D;0.15;0.15;25;25;0.003936;0.006244;0.001509;0.001439;0.003973;0.004047;0.004193;0.004355;0.004452;0.004985;0.00675;0.006154;0.009394;0.008688;0.00882;0.010235;0.010805;0.011834;0.012281;0.011864;0.010885;0.011704;0.01304;0.011621;0.012562;0.010131;0.009685;0.013883;0.010231;0.008691;0.004278;0.005166;0.007093;0.006772;0.006502;0.006422;0.006838;0.006619;0.006358;0.006525;0.006962;0.007277;0.010365;0.010047;0.011514;0.013451;0.012076;0.011984;0.014937;0.017356;0.016007;0.017992;0.022926;0.01674;0.015848;0.010797;0.010317;0.013359;0.00772;0.008642;0.011408;0.008411;0.00671;0.003752
EMSC-20170821_0000072;21.08.2017 18:57;;16796811;20170821_0000072;IT;40.7383;13.8977;1.5;INGV-CNT_Seismic_Bulletin;NF;3.6;INGV-CNT_Seismic_Bulletin;3.9;INGV-webservice;;;IV;MGR;0;HH;0;2;ERR;;IT;40.1376;15.5535;288;B*;ESM;;;;26.698245;1283.264451;155.5;295.9;D;0.03;0.03;30;30;-0.006472;-0.007017;0.00121;-0.001172;0.00667;0.008417;0.013707;0.00652;0.006748;0.008661;0.013327;0.019698;0.024605;0.015561;0.020737;0.014766;0.014977;0.013839;0.020993;0.019579;0.016392;0.009673;0.00889;0.00879;0.007137;0.006284;0.006371;0.006196;0.004418;0.00516;0.004514;0.006236;0.004654;0.004374;0.016115;0.018006;0.00965;0.007006;0.006532;0.007599;0.011137;0.016177;0.0152;0.015414;0.015601;0.01505;0.016015;0.015032;0.011659;0.012407;0.009256;0.011908;0.015004;0.009376;0.008325;0.006258;0.00621;0.00691;0.004385;0.005836;0.004917;0.005561;0.007413;0.006199
EMSC-20170821_0000072;21.08.2017 18:57;;16796811;20170821_0000072;IT;40.7383;13.8977;1.5;INGV-CNT_Seismic_Bulletin;NF;3.6;INGV-CNT_Seismic_Bulletin;3.9;INGV-webservice;;;IV;MIDA;0;HN;1;0;VAU;P;IT;41.64188;14.25402;950;A*;ESM;;;;26.948337;1291.167264;104.7;196.7;D;0.2;0.2;20;20;0.013823;-0.012347;0.002877;-0.002322;0.014261;0.014891;0.014706;0.014727;0.022437;0.019837;0.023958;0.039615;0.030406;0.024737;0.024183;0.024855;0.029082;0.027775;0.033502;0.031223;0.031057;0.026319;0.037775;0.055473;0.031918;0.022663;0.018222;0.026672;0.017806;0.012945;0.006682;0.006627;0.009699;0.007697;0.012899;0.014736;0.013423;0.015241;0.016151;0.018137;0.02663;0.029038;0.028043;0.027545;0.032576;0.026833;0.036278;0.030184;0.027518;0.030722;0.034032;0.027525;0.02517;0.02678;0.033509;0.023169;0.022104;0.017046;0.013553;0.017724;0.00969;0.011228;0.009468;0.007182
EMSC-20170821_0000072;21.08.2017 18:57;;16796811;20170821_0000072;IT;40.7383;13.8977;1.5;INGV-CNT_Seismic_Bulletin;NF;3.6;INGV-CNT_Seismic_Bulletin;3.9;INGV-webservice;;;IV;MOCO;0;HN;1;;;;IT;41.37;15.158;1049;B*;ESM;;;;13.750506;910.974036;127.1;236.9;D;0.15;0.15;20;20;0.007955;-0.003812;0.003606;-0.001936;0.008037;0.008229;0.008334;0.008448;0.007988;0.008171;0.008849;0.008992;0.008779;0.009961;0.009665;0.00977;0.013797;0.012869;0.015787;0.016025;0.013892;0.015648;0.014966;0.016553;0.014609;0.013309;0.022923;0.017021;0.015833;0.021651;0.015992;0.016539;0.020451;0.014197;0.003887;0.004181;0.003992;0.004354;0.004223;0.003994;0.003881;0.004524;0.005166;0.004546;0.0064;0.006343;0.006297;0.005833;0.006553;0.00696;0.007687;0.008041;0.008428;0.009037;0.011694;0.010889;0.010158;0.011165;0.01138;0.010762;0.011376;0.010866;0.011805;0.006651
EMSC-20170821_0000072;21.08.2017 18:57;;16796811;20170821_0000072;IT;40.7383;13.8977;1.5;INGV-CNT_Seismic_Bulletin;NF;3.6;INGV-CNT_Seismic_Bulletin;3.9;INGV-webservice;;;IV;MRB1;0;HH;0;0;VAU;P;IT;41.1227;14.96815;688;B*;ESM;;;;13.648475;908.25383;99.8;245;D;0.03;0.03;30;30;-0.030814;-0.031655;-0.009265;0.009119;0.031255;0.034787;0.031916;0.032468;0.031416;0.03167;0.040413;0.072613;0.057927;0.06504;0.060133;0.058831;0.067604;0.085238;0.085399;0.084324;0.084811;0.087375;0.091327;0.05781;0.054736;0.054024;0.074047;0.08869;0.037647;0.033177;0.033041;0.023704;0.027885;0.020381;0.0326;0.03399;0.033457;0.033496;0.035317;0.033779;0.043318;0.054212;0.083275;0.067362;0.082908;0.074678;0.098895;0.133668;0.089516;0.07738;0.074033;0.075732;0.103373;0.055892;0.064768;0.060115;0.058271;0.047516;0.0359;0.031488;0.03071;0.038117;0.024665;0.031577
EMSC-20170821_0000072;21.08.2017 18:57;;16796811;20170821_0000072;IT;40.7383;13.8977;1.5;INGV-CNT_Seismic_Bulletin;NF;3.6;INGV-CNT_Seismic_Bulletin;3.9;INGV-webservice;;;IV;MRLC;0;HN;0;;;;IT;40.7564;15.48892;605;B*;ESM;;;;10.82939;833.955717;134.4;269.7;D;0.15;0.15;25;25;-0.003406;0.003653;0.001003;-0.000801;0.003584;0.003695;0.003558;0.003909;0.00359;0.004334;0.006078;0.006803;0.006224;0.00829;0.008759;0.007992;0.006103;0.006111;0.006061;0.00714;0.008256;0.007525;0.007089;0.012631;0.015139;0.009801;0.007985;0.009144;0.005825;0.007544;0.005511;0.003216;0.00324;0.002905;0.003702;0.003813;0.004205;0.003999;0.003958;0.005161;0.005627;0.008064;0.009078;0.012538;0.00867;0.008433;0.006498;0.006365;0.006657;0.007351;0.006629;0.008016;0.010208;0.011366;0.011409;0.010474;0.009707;0.007057;0.005639;0.00576;0.004365;0.002612;0.002296;0.001484
EMSC-20170821_0000072;21.08.2017 18:57;;16796811;20170821_0000072;IT;40.7383;13.8977;1.5;INGV-CNT_Seismic_Bulletin;NF;3.6;INGV-CNT_Seismic_Bulletin;3.9;INGV-webservice;;;IV;MTSN;0;HH;0;;;;IT;40.2663;15.7515;1056;A*;ESM;;;;11.086256;840.66215;165.6;289;D;0.05;0.05;20;20;0.005321;-0.004358;0.00149;-0.001496;0.005355;0.005474;0.005394;0.005524;0.005984;0.007208;0.006664;0.008671;0.012234;0.013178;0.01836;0.018344;0.015132;0.015272;0.014063;0.014588;0.016679;0.017762;0.020967;0.018077;0.015452;0.01168;0.009845;0.009663;0.006749;0.008961;0.008631;0.006426;0.005738;0.004976;0.004373;0.004527;0.005164;0.00461;0.004823;0.005836;0.008689;0.012965;0.019486;0.015211;0.011389;0.013358;0.010378;0.008948;0.010746;0.015022;0.015404;0.012101;0.017948;0.015846;0.011721;0.011636;0.007742;0.007088;0.005929;0.006275;0.005205;0.005253;0.008034;0.0067
EMSC-20170821_0000072;21.08.2017 18:57;;16796811;20170821_0000072;IT;40.7383;13.8977;1.5;INGV-CNT_Seismic_Bulletin;NF;3.6;INGV-CNT_Seismic_Bulletin;3.9;INGV-webservice;;;IV;OVO;0;HH;0;;;;IT;40.8275;14.39667;584;B*;ESM;;;;11.749262;858.027572;43.3;256.9;D;0.03;0.03;30;30;-0.063353;-0.081045;0.01262;0.018059;0.063995;0.065527;0.067662;0.070596;0.089182;0.101987;0.109882;0.169703;0.204077;0.130014;0.097061;0.113547;0.125712;0.139038;0.147458;0.154155;0.147062;0.120417;0.122694;0.160263;0.146837;0.106399;0.135524;0.147389;0.055265;0.069276;0.056503;0.048093;0.035819;0.036259;0.081948;0.083755;0.082897;0.089104;0.092558;0.09903;0.141234;0.250857;0.261385;0.186494;0.15817;0.146201;0.19225;0.156694;0.231396;0.228835;0.18319;0.196058;0.183317;0.240588;0.209273;0.148832;0.142879;0.13009;0.131161;0.07787;0.082029;0.039636;0.026079;0.030292
EMSC-20170821_0000072;21.08.2017 18:57;;16796811;20170821_0000072;IT;40.7383;13.8977;1.5;INGV-CNT_Seismic_Bulletin;NF;3.6;INGV-CNT_Seismic_Bulletin;3.9;INGV-webservice;;;IV;PAOL;0;HH;0;0;VAU;P;IT;41.031206;14.567486;715;A*;ESM;;;;14.572889;932.98761;65.2;240.3;D;0.03;0.03;30;30;0.036389;-0.050428;0.003197;0.00432;0.03728;0.037802;0.041232;0.052703;0.086606;0.105532;0.091067;0.106156;0.093788;0.090246;0.103345;0.079453;0.063834;0.058106;0.051488;0.040274;0.039551;0.045081;0.043125;0.039069;0.018207;0.016201;0.021478;0.02383;0.027367;0.025362;0.013167;0.01417;0.013521;0.009656;0.051181;0.053225;0.055071;0.05552;0.072841;0.092704;0.116381;0.144395;0.17485;0.095246;0.124725;0.096465;0.075752;0.056129;0.097409;0.0975;0.099285;0.100427;0.061668;0.042022;0.03162;0.034272;0.042476;0.034178;0.024663;0.019305;0.018441;0.016639;0.018138;0.013743
