event_id;event_time;ISC_ev_id;INGV_ev_id;EMSC_ev_id;ev_nation_code;ev_latitude;ev_longitude;ev_depth_km;ev_hyp_ref;fm_type_code;ML;ML_ref;Mw;Mw_ref;Ms;Ms_ref;network_code;station_code;location_code;instrument_code;sensor_depth_m;proximity_code;housing_code;installation_code;st_nation_code;st_latitude;st_longitude;st_elevation;ec8_code;ec8_code_ref;vs30_m_sec;vs30_ref;vs30_meas_type;slope_deg;vs30_m_sec_WA;epi_dist;epi_az;instrument_type_code;U_hp;V_hp;U_lp;V_lp;U_pga;V_pga;U_pgv;V_pgv;U_T0_025;U_T0_040;U_T0_050;U_T0_070;U_T0_100;U_T0_150;U_T0_200;U_T0_250;U_T0_300;U_T0_350;U_T0_400;U_T0_450;U_T0_500;U_T0_600;U_T0_700;U_T0_750;U_T0_800;U_T0_900;U_T1_000;U_T1_200;U_T1_400;U_T1_600;U_T1_800;U_T2_000;U_T2_500;U_T3_000;U_T3_500;U_T4_000;U_T4_500;U_T5_000;V_T0_025;V_T0_040;V_T0_050;V_T0_070;V_T0_100;V_T0_150;V_T0_200;V_T0_250;V_T0_300;V_T0_350;V_T0_400;V_T0_450;V_T0_500;V_T0_600;V_T0_700;V_T0_750;V_T0_800;V_T0_900;V_T1_000;V_T1_200;V_T1_400;V_T1_600;V_T1_800;V_T2_000;V_T2_500;V_T3_000;V_T3_500;V_T4_000;V_T4_500;V_T5_000
EMSC-20121122_0000039;22.11.2012 09:10;601993663;1552581;20121122_0000039;IT;37.791;14.94;25.14;INGV_OSS_ETNEO_SEISMIC_CATALOG;SS;4.2;INGV_OSS_ETNEO_SEISMIC_CATALOG;4.1;INGV_OSS_ETNEO_SEISMIC_CATALOG;;;IV;ESLN;0;HH;0;;;;IT;37.6934;14.9744;1787;A*;ESM;;;;1.725269;409.240433;11.2;344.4;D;0.04;0.04;30;30;-1.794825;-1.277924;-0.061385;-0.047962;1.89762;1.95623;3.07434;3.8596;3.73276;5.26522;4.42745;4.73799;3.09554;2.67901;2.29289;2.11836;1.55181;1.18479;0.888929;0.876486;0.756603;0.973119;0.529021;0.504745;0.275569;0.181488;0.138829;0.142783;0.062961;0.042541;0.033372;0.026269;0.022266;0.018065;1.30189;1.44631;2.21301;3.00855;2.86493;3.17941;3.63015;3.12661;2.83144;1.9371;2.17914;1.85655;1.67396;0.831469;1.17378;0.914956;0.89201;0.765889;0.456195;0.235026;0.170381;0.143606;0.107915;0.112051;0.062991;0.029537;0.022512;0.018269;0.013219;0.010418
EMSC-20121122_0000039;22.11.2012 09:10;601993663;1552581;20121122_0000039;IT;37.791;14.94;25.14;INGV_OSS_ETNEO_SEISMIC_CATALOG;SS;4.2;INGV_OSS_ETNEO_SEISMIC_CATALOG;4.1;INGV_OSS_ETNEO_SEISMIC_CATALOG;;;IV;EVRN;0;HN;0;0;VAU;P;IT;37.6892;15.1356;421;A*;ESM;;;;6.167782;648.230463;20.6;303.3;D;0.2;0.2;40;40;4.176753;-5.1375;-0.121827;0.191131;4.28379;4.40736;4.75917;5.42616;8.57161;13.3808;7.46167;9.64173;7.3738;8.36622;7.03961;4.8199;4.9078;2.59324;1.58044;1.58423;1.52818;0.872605;0.893805;0.497203;0.265889;0.282095;0.180268;0.132693;0.071303;0.045991;0.032694;0.02843;0.024807;0.021038;5.18892;5.32841;5.4797;6.20851;7.84385;17.5139;20.0731;19.8735;15.3712;7.01054;4.92382;4.59658;3.2961;1.80641;1.48035;1.25226;0.919244;0.899813;0.770689;0.624118;0.324519;0.217192;0.181318;0.115548;0.073856;0.058339;0.046404;0.040568;0.035364;0.029596
EMSC-20121122_0000039;22.11.2012 09:10;601993663;1552581;20121122_0000039;IT;37.791;14.94;25.14;INGV_OSS_ETNEO_SEISMIC_CATALOG;SS;4.2;INGV_OSS_ETNEO_SEISMIC_CATALOG;4.1;INGV_OSS_ETNEO_SEISMIC_CATALOG;;;IV;GALF;0;HH;0;;;;IT;37.7107;14.5665;740;A*;ESM;;;;5.561072;613.148861;34.1;74.7;D;0.1;0.1;20;20;-0.329605;0.325612;-0.021922;0.018188;0.331335;0.334422;0.335126;0.340673;0.425877;0.626109;0.849945;0.823451;1.25806;1.62547;0.780782;0.634536;0.616952;0.691526;0.589286;0.498104;0.392035;0.272998;0.191259;0.11792;0.067287;0.050748;0.037779;0.030379;0.020873;0.013643;0.01001;0.007722;0.006287;0.004689;0.328007;0.332406;0.335778;0.345394;0.39165;0.687881;0.795548;1.04039;1.16969;1.12015;0.91032;0.585077;0.485552;0.541175;0.539781;0.470514;0.453967;0.380088;0.290009;0.121268;0.088116;0.059231;0.045419;0.033956;0.018559;0.011878;0.008766;0.008571;0.006677;0.004765
EMSC-20121122_0000039;22.11.2012 09:10;601993663;1552581;20121122_0000039;IT;37.791;14.94;25.14;INGV_OSS_ETNEO_SEISMIC_CATALOG;SS;4.2;INGV_OSS_ETNEO_SEISMIC_CATALOG;4.1;INGV_OSS_ETNEO_SEISMIC_CATALOG;;;IV;GIB;0;HH;0;;;;IT;37.990126;14.026023;1020;A*;ESM;;;;6.748967;684.188324;83.4;105.1;D;0.08;0.08;15;15;0.094739;0.102533;-0.008368;0.009629;0.095221;0.09591;0.096406;0.097233;0.106408;0.124209;0.132134;0.269751;0.313586;0.338021;0.251616;0.183165;0.159631;0.20399;0.165915;0.115523;0.09979;0.119793;0.117252;0.10686;0.068438;0.068217;0.062723;0.054778;0.034651;0.022265;0.01237;0.00711;0.005026;0.003624;0.102793;0.103259;0.10347;0.104484;0.115231;0.14449;0.157836;0.218802;0.284581;0.430518;0.394496;0.586644;0.465848;0.243742;0.21024;0.176979;0.198053;0.189278;0.214067;0.121114;0.099965;0.072794;0.041002;0.026409;0.015712;0.011597;0.010744;0.007505;0.005928;0.004611
EMSC-20121122_0000039;22.11.2012 09:10;601993663;1552581;20121122_0000039;IT;37.791;14.94;25.14;INGV_OSS_ETNEO_SEISMIC_CATALOG;SS;4.2;INGV_OSS_ETNEO_SEISMIC_CATALOG;4.1;INGV_OSS_ETNEO_SEISMIC_CATALOG;;;IV;HAGA;0;HH;0;;;;IT;37.285;15.155;126;A*;ESM;;;;11.650139;855.426134;59.3;341.4;D;0.1;0.1;30;30;0.774106;0.877607;0.028723;-0.020205;0.876784;1.16726;1.65843;2.27238;1.19879;0.860224;1.19289;1.54959;0.873471;0.709668;0.690576;0.525478;0.365227;0.362776;0.355393;0.317845;0.281397;0.253635;0.224265;0.134641;0.096644;0.075349;0.058089;0.046237;0.025547;0.01578;0.010475;0.007502;0.006115;0.00492;0.998458;1.38389;2.53247;3.03145;1.48121;1.28415;1.00898;1.48447;1.12224;0.666738;0.508057;0.563766;0.471868;0.394947;0.46278;0.385147;0.326699;0.263004;0.191554;0.131819;0.102918;0.087428;0.06522;0.050718;0.025242;0.018005;0.013499;0.01024;0.008498;0.006858
EMSC-20121122_0000039;22.11.2012 09:10;601993663;1552581;20121122_0000039;IT;37.791;14.94;25.14;INGV_OSS_ETNEO_SEISMIC_CATALOG;SS;4.2;INGV_OSS_ETNEO_SEISMIC_CATALOG;4.1;INGV_OSS_ETNEO_SEISMIC_CATALOG;;;IV;HAVL;0;HH;0;;;;IT;36.9596;15.122;502;A*;ESM;;;;4.472937;563.388787;93.7;350.1;D;0.1;0.1;30;30;-0.640639;0.612907;-0.020838;0.020699;0.690061;0.867332;1.18697;1.695;1.42929;1.07223;1.33402;2.04583;1.51041;0.736852;0.613292;0.38523;0.325494;0.242565;0.228425;0.17515;0.14167;0.129351;0.15964;0.088336;0.042519;0.035706;0.02725;0.022149;0.012109;0.009969;0.007843;0.005886;0.006141;0.00443;0.665112;0.971201;1.36902;1.7017;1.47353;1.17564;1.41447;2.44595;2.10178;1.13314;0.853355;0.656358;0.402334;0.230473;0.215009;0.156721;0.126771;0.097327;0.107695;0.053932;0.054728;0.03931;0.024882;0.019838;0.012673;0.00846;0.007077;0.005699;0.004551;0.003577
EMSC-20121122_0000039;22.11.2012 09:10;601993663;1552581;20121122_0000039;IT;37.791;14.94;25.14;INGV_OSS_ETNEO_SEISMIC_CATALOG;SS;4.2;INGV_OSS_ETNEO_SEISMIC_CATALOG;4.1;INGV_OSS_ETNEO_SEISMIC_CATALOG;;;IV;HBSP;0;HH;0;;;;IT;37.127;14.492;255;B*;ESM;;;;2.211784;443.777273;83.7;28.1;D;0.1;0.1;30;30;0.842509;-0.507477;-0.03897;0.021115;0.85617;0.878268;0.914418;1.10232;1.43556;1.68614;1.64575;2.27426;2.89079;2.39989;1.67223;1.2565;1.05316;0.752924;0.52148;0.423971;0.349568;0.375194;0.280216;0.178258;0.135022;0.098679;0.105949;0.072882;0.048613;0.038072;0.026101;0.016459;0.013959;0.011143;0.528972;0.557726;0.625922;0.956729;1.02619;1.53847;1.98211;1.54787;1.31746;1.05062;0.809022;0.598288;0.511615;0.371084;0.354241;0.416247;0.333222;0.185261;0.177155;0.113317;0.115659;0.073946;0.076187;0.056237;0.033763;0.019518;0.018091;0.013615;0.009629;0.005927
EMSC-20121122_0000039;22.11.2012 09:10;601993663;1552581;20121122_0000039;IT;37.791;14.94;25.14;INGV_OSS_ETNEO_SEISMIC_CATALOG;SS;4.2;INGV_OSS_ETNEO_SEISMIC_CATALOG;4.1;INGV_OSS_ETNEO_SEISMIC_CATALOG;;;IV;HCRL;0;HH;0;;;;IT;37.2831;15.0325;240;A*;ESM;;;;4.213329;551.540196;57;351.8;D;0.1;0.1;30;30;-0.995337;1.047504;-0.028848;0.030605;1.05937;1.30306;1.26412;1.99469;3.00546;2.52483;2.10981;1.26723;1.27425;1.10018;0.757069;0.827421;0.559097;0.564325;0.447005;0.324364;0.278293;0.225879;0.1776;0.108897;0.08949;0.069823;0.051213;0.036871;0.025844;0.01776;0.013146;0.010645;0.009187;0.007489;1.09939;1.23782;1.6574;2.33278;2.64437;2.24755;2.8495;1.83326;1.43305;1.24771;1.00152;0.821491;0.669424;0.534211;0.35764;0.300141;0.2612;0.195565;0.148012;0.100912;0.078783;0.059954;0.047992;0.04071;0.026873;0.019108;0.013725;0.010522;0.009001;0.00742
EMSC-20121122_0000039;22.11.2012 09:10;601993663;1552581;20121122_0000039;IT;37.791;14.94;25.14;INGV_OSS_ETNEO_SEISMIC_CATALOG;SS;4.2;INGV_OSS_ETNEO_SEISMIC_CATALOG;4.1;INGV_OSS_ETNEO_SEISMIC_CATALOG;;;IV;HLNI;0;HH;0;;;;IT;37.3485;14.872;146;B*;ESM;;;;9.186495;791.321225;49.5;7;D;0.1;0.1;30;30;1.549016;1.052546;0.024646;-0.023766;1.62263;1.88852;2.39858;5.43235;4.28976;3.50281;2.00648;1.62648;0.928513;0.450689;0.376091;0.349678;0.357614;0.222555;0.131755;0.122236;0.117804;0.106985;0.099812;0.094793;0.067699;0.048365;0.041966;0.036746;0.025984;0.01579;0.011639;0.00877;0.007626;0.006321;1.13298;1.45473;1.78122;3.44336;3.73723;2.87718;2.09996;1.67901;0.904717;0.525225;0.490762;0.358965;0.271723;0.256401;0.153253;0.122104;0.091205;0.075472;0.056507;0.050666;0.053989;0.048487;0.042225;0.029881;0.014085;0.008581;0.007235;0.00607;0.005402;0.004426
EMSC-20121122_0000039;22.11.2012 09:10;601993663;1552581;20121122_0000039;IT;37.791;14.94;25.14;INGV_OSS_ETNEO_SEISMIC_CATALOG;SS;4.2;INGV_OSS_ETNEO_SEISMIC_CATALOG;4.1;INGV_OSS_ETNEO_SEISMIC_CATALOG;;;IV;HMDC;0;HH;0;;;;IT;36.959;14.7831;595;A*;ESM;;;;7.174178;710.550353;93.4;8.5;D;0.1;0.1;30;30;-0.493398;-0.422255;0.023632;-0.017709;0.510867;0.571101;0.757612;0.860445;1.18455;1.05036;1.03316;1.12474;0.804964;0.943985;0.856847;0.648047;0.548017;0.503475;0.420028;0.385882;0.402523;0.391053;0.338278;0.217609;0.14748;0.094779;0.075379;0.060422;0.036283;0.022949;0.015627;0.012371;0.010517;0.008349;0.441249;0.493062;0.502371;0.965537;0.989833;0.841323;0.951734;0.98414;0.584731;0.898903;0.811558;0.661461;0.515996;0.443995;0.337932;0.32669;0.319994;0.28004;0.210487;0.144524;0.082474;0.059814;0.047166;0.036083;0.021223;0.01327;0.009823;0.007616;0.006451;0.005004
EMSC-20121122_0000039;22.11.2012 09:10;601993663;1552581;20121122_0000039;IT;37.791;14.94;25.14;INGV_OSS_ETNEO_SEISMIC_CATALOG;SS;4.2;INGV_OSS_ETNEO_SEISMIC_CATALOG;4.1;INGV_OSS_ETNEO_SEISMIC_CATALOG;;;IV;HVZN;0;HH;0;;;;IT;37.1783;14.7155;787;A*;ESM;;;;8.255468;767.339851;70.8;16.2;D;0.1;0.1;30;30;0.40834;-0.470279;0.026581;-0.028255;0.42703;0.534399;0.573188;0.669514;1.0072;1.20652;0.828797;0.965295;1.22975;1.02762;1.05438;1.16422;1.05628;0.759687;0.851267;0.645885;0.632683;0.406646;0.297404;0.190162;0.172318;0.092705;0.065638;0.055785;0.034319;0.024925;0.014293;0.009655;0.00805;0.006867;0.480749;0.485908;0.57908;0.932608;1.12497;1.41378;1.77878;1.32252;1.06694;1.47807;0.851246;0.979521;0.863647;0.788496;0.529589;0.538125;0.439953;0.302909;0.307225;0.115415;0.079269;0.053691;0.045274;0.034788;0.020008;0.010029;0.008026;0.007738;0.006387;0.004575
EMSC-20121122_0000039;22.11.2012 09:10;601993663;1552581;20121122_0000039;IT;37.791;14.94;25.14;INGV_OSS_ETNEO_SEISMIC_CATALOG;SS;4.2;INGV_OSS_ETNEO_SEISMIC_CATALOG;4.1;INGV_OSS_ETNEO_SEISMIC_CATALOG;;;IV;IACL;0;HH;0;;;;IT;38.533;14.355;145;A*;ESM;;;;23.134113;1174.160031;97;147.9;D;0.1;0.1;20;20;0.204662;0.150196;-0.009192;-0.008676;0.208242;0.219188;0.226997;0.270593;0.485219;0.501674;1.13367;0.570832;0.42315;0.372283;0.250816;0.371361;0.267304;0.155423;0.135609;0.143626;0.1264;0.076122;0.079149;0.074411;0.06437;0.039264;0.024835;0.019155;0.010847;0.006764;0.005823;0.005844;0.004911;0.004187;0.152765;0.15666;0.165435;0.205681;0.314311;0.402941;0.761504;0.519582;0.499331;0.332754;0.326377;0.354937;0.273034;0.233576;0.189432;0.164312;0.138187;0.143364;0.075247;0.05385;0.032693;0.026572;0.022704;0.015871;0.010688;0.006745;0.005665;0.005169;0.004176;0.002867
EMSC-20121122_0000039;22.11.2012 09:10;601993663;1552581;20121122_0000039;IT;37.791;14.94;25.14;INGV_OSS_ETNEO_SEISMIC_CATALOG;SS;4.2;INGV_OSS_ETNEO_SEISMIC_CATALOG;4.1;INGV_OSS_ETNEO_SEISMIC_CATALOG;;;IV;IFIL;0;HH;0;;;;IT;38.5642;14.5753;277;A*;ESM;;;;14.98538;944.090572;91.6;159.5;D;0.1;0.1;15;15;0.646119;-0.229946;0.039805;-0.015439;0.657714;0.686381;0.717509;0.880729;1.2779;2.09925;1.78221;2.22517;2.31824;1.51677;1.01933;1.05313;0.901675;0.956722;0.904879;0.737368;0.596021;0.454157;0.405251;0.305888;0.160183;0.116318;0.113361;0.07272;0.039462;0.028948;0.023802;0.020364;0.015888;0.012509;0.232998;0.249632;0.256801;0.284058;0.389008;0.603793;0.52746;0.682371;0.589383;0.571912;0.606525;0.560476;0.491782;0.287545;0.436173;0.462659;0.355466;0.17098;0.127395;0.072484;0.056265;0.042811;0.031376;0.027903;0.013177;0.008991;0.006635;0.005155;0.004738;0.004203
EMSC-20121122_0000039;22.11.2012 09:10;601993663;1552581;20121122_0000039;IT;37.791;14.94;25.14;INGV_OSS_ETNEO_SEISMIC_CATALOG;SS;4.2;INGV_OSS_ETNEO_SEISMIC_CATALOG;4.1;INGV_OSS_ETNEO_SEISMIC_CATALOG;;;IV;ILLI;0;HH;0;2;ERR;;IT;38.4457;14.9483;283;A*;ESM;;;;3.597624;523.469892;72.7;180.6;D;0.08;0.08;30;30;0.261001;0.375345;0.016921;-0.026288;0.273288;0.272074;0.32594;0.305329;0.397;0.669964;0.783202;0.668577;0.741373;0.498126;0.685958;0.470337;0.58243;0.556475;0.495525;0.577447;0.449206;0.326156;0.279562;0.25048;0.16485;0.12672;0.094777;0.075095;0.066051;0.0313;0.031373;0.016202;0.011552;0.008389;0.380751;0.381582;0.387376;0.420476;0.536104;0.639999;0.755018;1.18302;0.801797;0.99693;0.765475;1.0093;0.944059;0.821812;1.01986;0.850682;0.535702;0.470674;0.368165;0.281433;0.351142;0.1781;0.118106;0.087087;0.059945;0.044761;0.026096;0.015192;0.010746;0.00776
EMSC-20121122_0000039;22.11.2012 09:10;601993663;1552581;20121122_0000039;IT;37.791;14.94;25.14;INGV_OSS_ETNEO_SEISMIC_CATALOG;SS;4.2;INGV_OSS_ETNEO_SEISMIC_CATALOG;4.1;INGV_OSS_ETNEO_SEISMIC_CATALOG;;;IV;JOPP;0;HN;2;;;;IT;38.6068;15.8856;500;B*;ESM;;;;10.509849;825.628945;122.7;222.7;D;0.1;0.1;30;30;0.045936;-0.056512;-0.003061;-0.003259;0.046723;0.050444;0.051165;0.07053;0.097097;0.121538;0.130656;0.137947;0.113317;0.123945;0.110343;0.10786;0.087522;0.078749;0.036041;0.032419;0.032969;0.04608;0.054112;0.036993;0.019584;0.01292;0.008244;0.0071;0.004437;0.002792;0.00197;0.001516;0.00121;0.000832;0.057643;0.059277;0.066248;0.075224;0.106373;0.108614;0.17207;0.115387;0.119758;0.149758;0.15515;0.161179;0.139612;0.066804;0.068248;0.056584;0.046643;0.035259;0.03981;0.024827;0.014834;0.011202;0.01073;0.009575;0.004121;0.002452;0.001945;0.001475;0.001425;0.001048
EMSC-20121122_0000039;22.11.2012 09:10;601993663;1552581;20121122_0000039;IT;37.791;14.94;25.14;INGV_OSS_ETNEO_SEISMIC_CATALOG;SS;4.2;INGV_OSS_ETNEO_SEISMIC_CATALOG;4.1;INGV_OSS_ETNEO_SEISMIC_CATALOG;;;IV;MCPD;0;HH;0;;;;IT;38.1199;14.731;199;B*;ESM;;;;13.380129;901.110757;40.9;153.2;D;0.1;0.1;30;30;-0.269408;0.220968;-0.020423;-0.016785;0.272276;0.287536;0.284962;0.289178;0.449512;0.600019;0.781819;0.770813;0.608915;0.435772;0.447494;0.701507;0.719626;0.363111;0.310325;0.260061;0.217612;0.20133;0.226462;0.198673;0.146309;0.116985;0.085327;0.070396;0.045167;0.030207;0.020435;0.01432;0.011239;0.008258;0.222182;0.231009;0.232617;0.230166;0.313616;0.554419;0.589934;0.463514;0.401307;0.490991;0.430018;0.379514;0.331118;0.504732;0.296761;0.268265;0.235928;0.189224;0.150696;0.126593;0.087823;0.084535;0.059029;0.029862;0.017421;0.010834;0.007556;0.005924;0.005037;0.003902
EMSC-20121122_0000039;22.11.2012 09:10;601993663;1552581;20121122_0000039;IT;37.791;14.94;25.14;INGV_OSS_ETNEO_SEISMIC_CATALOG;SS;4.2;INGV_OSS_ETNEO_SEISMIC_CATALOG;4.1;INGV_OSS_ETNEO_SEISMIC_CATALOG;;;IV;MCSR;0;HH;0;;;;IT;38.0646;15.2301;1064;A*;ESM;;;;12.626767;881.140851;39.7;220.1;D;0.04;0.04;30;30;1.350562;1.2393;0.066852;0.063143;1.36563;1.3963;1.46588;1.55713;1.85732;2.7088;3.60432;4.96221;5.44586;4.3933;3.93056;2.80454;2.29569;1.11188;0.851579;0.716146;0.619293;0.521194;0.421709;0.260276;0.136336;0.092792;0.078457;0.061154;0.04034;0.022349;0.016554;0.013916;0.012083;0.010895;1.25445;1.28393;1.35078;1.3796;1.87285;4.0834;5.14754;4.14994;3.70243;5.01376;2.91939;1.41685;1.25057;0.658622;0.507885;0.493747;0.434036;0.426312;0.3568;0.301277;0.229055;0.157156;0.119023;0.079169;0.041687;0.031045;0.02127;0.016416;0.014034;0.011172
EMSC-20121122_0000039;22.11.2012 09:10;601993663;1552581;20121122_0000039;IT;37.791;14.94;25.14;INGV_OSS_ETNEO_SEISMIC_CATALOG;SS;4.2;INGV_OSS_ETNEO_SEISMIC_CATALOG;4.1;INGV_OSS_ETNEO_SEISMIC_CATALOG;;;IV;MILZ;0;HH;0;;;;IT;38.2713;15.2313;0;A*;ESM;;;;;;59.1;205.7;D;0.1;0.1;30;30;0.175142;0.20728;0.014837;-0.013333;0.179215;0.194574;0.250887;0.223031;0.234005;0.414137;0.626938;0.430361;0.581092;0.69271;0.543157;0.486861;0.570297;0.300764;0.320108;0.310749;0.338938;0.36522;0.391502;0.251566;0.134733;0.074996;0.051756;0.036033;0.024431;0.015087;0.0108;0.009065;0.007867;0.006079;0.209067;0.220007;0.208664;0.26299;0.252591;0.439446;0.49499;0.612293;0.875163;0.71319;0.469143;0.536684;0.547186;0.400667;0.328992;0.338525;0.319037;0.20661;0.228045;0.161361;0.095066;0.05567;0.033722;0.023961;0.017768;0.012625;0.008669;0.007651;0.006786;0.005376
EMSC-20121122_0000039;22.11.2012 09:10;601993663;1552581;20121122_0000039;IT;37.791;14.94;25.14;INGV_OSS_ETNEO_SEISMIC_CATALOG;SS;4.2;INGV_OSS_ETNEO_SEISMIC_CATALOG;4.1;INGV_OSS_ETNEO_SEISMIC_CATALOG;;;IV;MPAZ;0;HH;0;;;;IT;37.9531;16.0067;496;A*;ESM;;;;6.436884;664.869519;95.6;259.5;D;0.08;0.08;20;20;0.09698;-0.134441;-0.00581;0.007834;0.09767;0.099119;0.102241;0.107898;0.123837;0.204338;0.269841;0.266185;0.35376;0.427733;0.336012;0.245623;0.193802;0.155596;0.110403;0.105518;0.10434;0.060208;0.051969;0.038011;0.029144;0.020873;0.012327;0.009217;0.005026;0.003583;0.00233;0.002034;0.001817;0.001433;0.135899;0.138879;0.140655;0.154894;0.227354;0.271513;0.407345;0.33563;0.479092;0.474352;0.438866;0.371558;0.359017;0.185321;0.142496;0.145566;0.134698;0.088475;0.076391;0.050853;0.039126;0.024378;0.018259;0.015777;0.011024;0.007717;0.00541;0.003913;0.003083;0.002265
EMSC-20121122_0000039;22.11.2012 09:10;601993663;1552581;20121122_0000039;IT;37.791;14.94;25.14;INGV_OSS_ETNEO_SEISMIC_CATALOG;SS;4.2;INGV_OSS_ETNEO_SEISMIC_CATALOG;4.1;INGV_OSS_ETNEO_SEISMIC_CATALOG;;;IV;MPNC;0;HH;0;;;;IT;38.1465;15.3528;479;B*;ESM;;;;9.795254;807.069078;53.6;222.7;D;0.1;0.1;30;30;0.734158;0.633231;-0.058202;0.049349;0.740021;0.765364;0.771922;0.846272;0.936873;1.5795;1.91866;1.44228;1.87084;1.66521;2.14283;3.21637;3.22372;2.32945;0.823196;0.6486;0.58286;0.424783;0.351159;0.204733;0.15873;0.102742;0.077542;0.064658;0.042186;0.030112;0.021004;0.016343;0.013863;0.01091;0.634782;0.657092;0.64239;0.780148;0.89063;1.47673;1.72978;2.23598;1.60249;1.95656;2.16398;2.27708;1.98635;1.68677;0.953665;0.868966;0.812886;0.69045;0.537235;0.324693;0.172016;0.115944;0.080286;0.065252;0.042839;0.029282;0.022628;0.016941;0.013905;0.011065
EMSC-20121122_0000039;22.11.2012 09:10;601993663;1552581;20121122_0000039;IT;37.791;14.94;25.14;INGV_OSS_ETNEO_SEISMIC_CATALOG;SS;4.2;INGV_OSS_ETNEO_SEISMIC_CATALOG;4.1;INGV_OSS_ETNEO_SEISMIC_CATALOG;;;IV;MSFR;0;HH;0;;;;IT;38.0339;14.5916;723;A*;ESM;;;;3.071366;499.507843;40.8;131.2;D;0.1;0.1;30;30;0.150471;0.131899;-0.007153;0.007572;0.154213;0.1652;0.175216;0.17869;0.253452;0.44087;0.598109;0.431069;0.407425;0.380305;0.271344;0.14503;0.116711;0.104121;0.105469;0.085549;0.092099;0.111134;0.131192;0.080258;0.064358;0.059679;0.036627;0.030274;0.022333;0.015178;0.014164;0.009777;0.006961;0.005308;0.135176;0.141708;0.150851;0.195172;0.403802;0.307196;0.307966;0.631341;0.251354;0.275885;0.266434;0.191203;0.159563;0.1269;0.132531;0.095557;0.077803;0.06815;0.078684;0.053636;0.045464;0.041483;0.031577;0.032633;0.023786;0.014435;0.009636;0.006297;0.004371;0.002986
EMSC-20121122_0000039;22.11.2012 09:10;601993663;1552581;20121122_0000039;IT;37.791;14.94;25.14;INGV_OSS_ETNEO_SEISMIC_CATALOG;SS;4.2;INGV_OSS_ETNEO_SEISMIC_CATALOG;4.1;INGV_OSS_ETNEO_SEISMIC_CATALOG;;;IV;MSRU;0;HH;0;;;;IT;38.2639;15.5083;408;B*;ESM;;;;11.526103;852.173495;72.4;223.7;D;0.1;0.1;30;30;0.191589;0.199063;0.011447;-0.014567;0.195104;0.214631;0.265181;0.723788;0.317839;0.437111;0.756727;0.581783;0.760584;0.658917;0.642676;0.525306;0.440901;0.378017;0.238985;0.178273;0.14912;0.140852;0.11184;0.097967;0.080014;0.044657;0.025901;0.019572;0.012135;0.007729;0.005434;0.003746;0.003099;0.002468;0.201917;0.213557;0.245353;0.658136;0.443676;0.730081;0.650783;0.652799;0.520278;0.471161;0.569063;0.520882;0.526688;0.402347;0.293044;0.231439;0.168311;0.146731;0.188148;0.135868;0.059772;0.03952;0.039205;0.027184;0.015426;0.007887;0.005291;0.004189;0.003495;0.002929
